X,Y,OBJECTID,Call_Taken,Location,Latitude,Longitude,Ward,Community,Neighborho,Tow_Zone,Day,Snow_Emerg
-93.288021000268884,45.013111000372419,1,02/12/2019 09:18pm,"3201-3299 lyndale ave n ,Minneapolis,MN",45.013111,-93.288021,4,Camden,McKinley,1,1,Westminster
-93.262588000136077,44.941389999748765,2,02/12/2019 09:19pm,"3398 Chicago ave s,Minneapolis,MN",44.94139,-93.262588,9,Powderhorn,Central,5,1,Westminster
-93.262606000066796,44.943159000387595,3,02/12/2019 09:19pm,"3301 Chicago Avenue South,Minneapolis,MN",44.943159,-93.262606,9,Powderhorn,Central,5,1,Westminster
-93.288036000061311,45.01670799987437,4,02/12/2019 09:26pm,"3400-3498 lyndale ave n ,Minneapolis,MN",45.016708,-93.288036,4,Camden,McKinley,1,1,Westminster
-93.288048999761486,45.018490000213376,5,02/12/2019 09:34pm,"3498 Lyndale Ave n,Minneapolis,MN",45.01849,-93.288049,4,Camden,McKinley,1,1,Westminster
-93.27755899984794,44.963796999731812,6,02/12/2019 09:38pm,"1 E 19TH ST,Minneapolis,MN",44.963797,-93.277559,6,Central,Steven's Square - Loring Heights,3,1,Westminster
-93.288036000061311,45.01670799987437,7,02/12/2019 09:40pm,"3400 Lyndale Ave n ,Minneapolis,MN",45.016708,-93.288036,4,Camden,McKinley,1,1,Westminster
-93.276939000034815,44.964115000007325,8,02/12/2019 09:45pm,"16 EAST / 19TH ST,Minneapolis,MN",44.964115,-93.276939,6,Central,Steven's Square - Loring Heights,3,1,Westminster
-93.276939000034815,44.964115000007325,9,02/12/2019 09:47pm,"16 19th st e,Minneapolis,MN",44.964115,-93.276939,6,Central,Steven's Square - Loring Heights,3,1,Westminster
-93.262901000180989,44.939686000308711,10,02/12/2019 10:04pm,"3458 Chicago Ave,Minneapolis,MN",44.939686,-93.262901,9,Powderhorn,Central,5,1,Westminster
-93.235311000402305,44.987678000239555,11,02/12/2019 10:08pm,"1116 Como Ave se,Minneapolis,MN",44.987678,-93.235311,2,University,Como,4,1,Westminster
-93.279700999701333,44.948359000067853,12,02/12/2019 10:10pm,"3000 Blaisdell ,Minneapolis,MN",44.948359,-93.279701,10,Powderhorn,Whittier,3,1,Westminster
-93.288113000014903,45.029786000423655,13,02/12/2019 10:11pm,"4100 lyndale ave n,Minneapolis,MN",45.029786,-93.288113,4,Camden,Webber - Camden,1,1,Westminster
-93.234368000083123,44.988002999938544,14,02/12/2019 10:14pm,"1203 como ave se,Minneapolis,MN",44.988003,-93.234368,2,University,Como,4,1,Westminster
-93.288113000014903,45.029786000423655,15,02/12/2019 10:14pm,"4100 Lyndale Ave N,Minneapolis,MN",45.029786,-93.288113,4,Camden,Webber - Camden,1,1,Westminster
-93.288113000014903,45.029786000423655,16,02/12/2019 10:14pm,"4100 lyndale ave n,Minneapolis,MN",45.029786,-93.288113,4,Camden,Webber - Camden,1,1,Westminster
-93.262710000366212,44.901657000270404,17,02/12/2019 10:18pm,"5580 Chicago Avenue South,Minneapolis,MN",44.901657,-93.26271,11,Nokomis,Diamond Lake,5,1,Westminster
-93.286223000091354,45.038465999606274,18,02/12/2019 10:19pm,"4600-4698 lyndale ave n ,Minneapolis,MN",45.038466,-93.286223,4,Camden,Camden Industrial,1,1,Westminster
-93.284856000004368,45.043116000003465,19,02/12/2019 10:21pm,"4816 Lyndale Ave n,Minneapolis,MN",45.043116,-93.284856,4,Camden,Lind - Bohanon,1,1,Westminster
-93.294142000153158,45.010084000176505,20,02/12/2019 10:23pm,"2914 emerson,Minneapolis,MN",45.010084,-93.294142,5,Near North,Hawthorne,1,1,Westminster
-93.270033999969087,44.980256999760797,21,02/12/2019 10:23pm,"300 Block of central,Minneapolis,MN",44.980257,-93.270034,3,Central,Downtown West,3,1,Westminster
-93.291119000141691,45.036846999589386,22,02/12/2019 10:24pm,"4500-4598 Bryant ave n ,Minneapolis,MN",45.036847,-93.291119,4,Camden,Lind - Bohanon,1,1,Westminster
-93.26286100013499,44.9238779997699,23,02/12/2019 10:25pm,"4340 Chicago Avenue South,Minneapolis,MN",44.923878,-93.262861,8,Nokomis,Regina,5,1,Westminster
-93.262822000135145,44.929857000300387,24,02/12/2019 10:28pm,"4020 Chicago Avenue South,Minneapolis,MN",44.929857,-93.262822,8,Powderhorn,Bryant,5,1,Westminster
-93.236833000442573,45.030075000261093,25,02/12/2019 10:29pm,"3419 Johnson st ne,Minneapolis,MN",45.030075,-93.236833,1,Northeast,Waite Park,2,1,Westminster
-93.247429999894564,45.025679999932095,26,02/12/2019 10:31pm,"3194 Central Ave NE,Minneapolis,MN",45.02568,-93.24743,1,Northeast,Columbia Park,2,1,Westminster
-93.262901000180989,44.916002999938542,27,02/12/2019 10:33pm,"4800 Chicago ave s,Minneapolis,MN",44.916003,-93.262901,8,Nokomis,Field,5,1,Westminster
-93.248711999659008,44.984692000135738,28,02/12/2019 10:35pm,"503 unniversity ave se,Minneapolis,MN",44.984692,-93.248712,3,University,Marcy Holmes,4,1,Westminster
-93.262689000297087,44.948356999975601,29,02/12/2019 10:35pm,"3000 Chicago ave s,Minneapolis,MN",44.948357,-93.262689,6,Phillips,Phillips West,3,1,Westminster
-93.236807000142903,45.02146499980995,30,02/12/2019 10:36pm,"2935 Johnson st NE,Minneapolis,MN",45.021465,-93.236807,1,Northeast,Audubon Park,2,1,Westminster
-93.279705999931934,44.946573999590441,31,02/12/2019 10:37pm,"3100 block of Blaisdell Avenue so,Minneapolis,MN",44.946574,-93.279706,8,Powderhorn,Lyndale,5,1,Westminster
-93.31364300012433,45.033374000409822,32,02/12/2019 10:38pm,"4299 Thomas Ave n ,Minneapolis,MN",45.033374,-93.313643,4,Camden,Victory,1,1,Westminster
-93.280113999861157,44.94455800015163,33,02/12/2019 10:41pm,"3200 block of Blaisdell Avenue so,Minneapolis,MN",44.944558,-93.280114,8,Powderhorn,Lyndale,5,1,Westminster
-93.242507000397723,44.964018000030705,34,02/12/2019 10:41pm,"21st Ave and 9th st s,Minneapolis,MN",44.964018,-93.242507,6,Longfellow,Seward,4,1,Westminster
-93.247964000238369,44.98439499992935,35,02/12/2019 10:44pm,"523 university ave se,Minneapolis,MN",44.984395,-93.247964,3,University,Marcy Holmes,4,1,Westminster
-93.247367999733342,45.008881999604625,36,02/12/2019 10:46pm,"1998 Central ave ne,Minneapolis,MN",45.008882,-93.247368,1,Northeast,Holland,2,1,Westminster
-93.247411999963788,45.029434000378842,37,02/12/2019 10:49pm,"3400 Block of central ave Ne,Minneapolis,MN",45.029434,-93.247412,1,Northeast,Columbia Park,2,1,Westminster
-93.245130999995638,44.983287000095004,38,02/12/2019 10:53pm,"717 university ave se,Minneapolis,MN",44.983287,-93.245131,3,University,Marcy Holmes,4,1,Westminster
-93.280113999861157,44.94455800015163,39,02/12/2019 10:54pm,"3200 Blaisdell ave south,Minneapolis,MN",44.944558,-93.280114,8,Powderhorn,Lyndale,5,1,Westminster
-93.248486000028834,44.984602999628805,40,02/12/2019 10:54pm,"507 UNIVERSITY AVE SE,Minneapolis,MN",44.984603,-93.248486,3,University,Marcy Holmes,4,1,Westminster
-93.290327999637441,44.988666999982115,41,02/12/2019 10:57pm,"1049 7th st n,Minneapolis,MN",44.988667,-93.290328,5,Near North,Sumner - Glenwood,1,1,Westminster
-93.252412000313541,44.937764999854892,42,02/12/2019 10:58pm,"3598 Bloomington ave s,Minneapolis,MN",44.937765,-93.252412,9,Powderhorn,Powderhorn Park,6,1,Westminster
-93.244365999791,44.982961000349917,43,02/12/2019 10:59pm,"803 UNIVERSITY AVE SE,Minneapolis,MN",44.982961,-93.244366,3,University,Marcy Holmes,4,1,Westminster
-93.252835000035191,44.91053599963675,44,02/12/2019 11:00pm,"5100 Bloomington,Minneapolis,MN",44.910536,-93.252835,11,Nokomis,Hale,6,1,Westminster
-93.262940000180834,44.941224000187503,45,02/12/2019 11:02pm,"3400 chicago,Minneapolis,MN",44.941224,-93.26294,9,Powderhorn,Central,5,1,Westminster
-93.253233000402588,45.001205999956994,46,02/12/2019 11:03pm,"687 13th ave NE,Minneapolis,MN",45.001206,-93.253233,1,Northeast,Logan Park,2,1,Westminster
-93.275240999972141,44.987823999777845,47,02/12/2019 11:04pm,"625 2nd st N,Minneapolis,MN",44.987824,-93.275241,3,Central,North Loop,1,1,Westminster
-93.275234999695442,44.987800999616468,48,02/12/2019 11:04pm,"619 2nd st n ,Minneapolis,MN",44.987801,-93.275235,3,Central,North Loop,1,1,Westminster
-93.263091999995765,45.007453000255794,49,02/12/2019 11:06pm,"1899 University ave ne,Minneapolis,MN",45.007453,-93.263092,1,Northeast,Holland,2,1,Westminster
-93.26098499995777,45.000740000050996,50,02/12/2019 11:10pm,"414 13th ave NE,Minneapolis,MN",45.00074,-93.260985,3,Northeast,Sheridan,2,1,Westminster
-93.279705999931934,44.946573999590441,51,02/12/2019 11:11pm,"3100 blaisdell ave so,Minneapolis,MN",44.946574,-93.279706,8,Powderhorn,Lyndale,5,1,Westminster
-93.260148000030142,45.000912999935053,52,02/12/2019 11:12pm,"509 13th ave ne,Minneapolis,MN",45.000913,-93.260148,3,Northeast,Sheridan,2,1,Westminster
-93.279705999931934,44.946573999590441,53,02/12/2019 11:13pm,"3100 blaisdell ave so,Minneapolis,MN",44.946574,-93.279706,8,Powderhorn,Lyndale,5,1,Westminster
-93.300689999943529,44.952824000027647,54,02/12/2019 11:19pm,"2737 Irving ave s ,Minneapolis,MN",44.952824,-93.30069,7,Calhoun Isle,East Isles,3,1,Westminster
-93.252411000267386,44.935933999954216,55,02/12/2019 11:21pm,"3699 bloomington ave,Minneapolis,MN",44.935934,-93.252411,9,Powderhorn,Powderhorn Park,6,1,Westminster
-93.30171699963978,44.949748000270063,56,02/12/2019 11:21pm,"2871 IRVING AVE S ,Minneapolis,MN",44.949748,-93.301717,7,Calhoun Isle,East Isles,3,1,Westminster
-93.270668000427861,44.987426000309711,57,02/12/2019 11:22pm,"98 4th ave n,Minneapolis,MN",44.987426,-93.270668,3,Central,North Loop,3,1,Westminster
-93.301213999826189,44.953351000048656,58,02/12/2019 11:24pm,"2724 Irving Ave S,Minneapolis,MN",44.953351,-93.301214,7,Calhoun Isle,East Isles,3,1,Westminster
-93.313888999777475,45.029675999847541,59,02/12/2019 11:24pm,"4101 THOMAS AVE N ,Minneapolis,MN",45.029676,-93.313889,4,Camden,Victory,1,1,Westminster
-93.219832999793084,44.970795999635754,60,02/12/2019 11:25pm,"177 27th ave se,Minneapolis,MN",44.970796,-93.219833,2,University,Prospect Park - East River Road,4,1,Westminster
-93.299395999625631,44.956817999850841,61,02/12/2019 11:26pm,"2513 IRVING AVE S,Minneapolis,MN",44.956818,-93.299396,7,Calhoun Isle,East Isles,3,1,Westminster
-93.269483999786701,44.988077999799884,62,02/12/2019 11:26pm,"101 4th ave n,Minneapolis,MN",44.988078,-93.269484,3,Central,North Loop,3,1,Westminster
-93.301775999662595,44.951186000033942,63,02/12/2019 11:27pm,"2841 Irving Ave s,Minneapolis,MN",44.951186,-93.301776,7,Calhoun Isle,East Isles,3,1,Westminster
-93.313603000078331,45.03130400027942,64,02/12/2019 11:29pm,"4199 thomas ave n,Minneapolis,MN",45.031304,-93.313603,4,Camden,Victory,1,1,Westminster
-93.294478000359391,45.000416000398161,65,02/12/2019 11:32pm,"2101 EMERSON AVE N ,Minneapolis,MN",45.000416,-93.294478,5,Near North,Jordan,1,1,Westminster
-93.302347999960205,44.951622000355087,66,02/12/2019 11:32pm,"2832 Irving Ave s,Minneapolis,MN",44.951622,-93.302348,7,Calhoun Isle,East Isles,3,1,Westminster
-93.239049000111208,44.96398200016921,67,02/12/2019 11:33pm,"2242 9TH ST S,Minneapolis,MN",44.963982,-93.239049,6,Longfellow,Seward,4,1,Westminster
-93.223325999894939,44.900517999905844,68,02/12/2019 11:36pm,"5642 34 ave s,Minneapolis,MN",44.900518,-93.223326,11,Nokomis,Wenonah,6,1,Westminster
-93.268820999789284,45.000280000421753,69,02/12/2019 11:36pm,"120 13th ave,Minneapolis,MN",45.00028,-93.268821,3,Northeast,Sheridan,2,1,Westminster
-93.278260999845202,44.985429999994551,70,02/12/2019 11:37pm,"600 4th st n,Minneapolis,MN",44.98543,-93.278261,3,Central,North Loop,1,1,Westminster
-93.294416000198225,44.998860999735427,71,02/12/2019 11:38pm,"1901 Emerson ave n ,Minneapolis,MN",44.998861,-93.294416,5,Near North,Near - North,1,1,Westminster
-93.232414999952255,44.98802099986932,72,02/12/2019 11:39pm,"1313 como ave se,Minneapolis,MN",44.988021,-93.232415,2,University,Como,4,1,Westminster
-93.23990500001571,44.963688000101172,73,02/12/2019 11:40pm,"2211 9th st s,Minneapolis,MN",44.963688,-93.239905,6,Longfellow,Seward,4,1,Westminster
-93.301213999826189,44.953351000048656,74,02/12/2019 11:43pm,"2724 IRVING AVE S,Minneapolis,MN",44.953351,-93.301214,7,Calhoun Isle,East Isles,3,1,Westminster
-93.301795999685623,44.950621000059186,75,02/12/2019 11:43pm,"2857 Irving ave s ,Minneapolis,MN",44.950621,-93.301796,7,Calhoun Isle,East Isles,3,1,Westminster
-93.279743999885625,44.934105000145678,76,02/12/2019 11:44pm,"3800 blaisdell ave so,Minneapolis,MN",44.934105,-93.279744,8,Southwest,King Field,5,1,Westminster
-93.239957999761828,44.963689000147269,77,02/12/2019 11:44pm,"2217 9TH ST S,Minneapolis,MN",44.963689,-93.239958,6,Longfellow,Seward,4,1,Westminster
-93.229762999962418,44.987684999663031,78,02/12/2019 11:45pm,"1512 como ave se,Minneapolis,MN",44.987685,-93.229763,2,University,Como,4,1,Westminster
-93.267221999795424,45.001252000279635,79,02/12/2019 11:46pm,"143 13th ave ne,Minneapolis,MN",45.001252,-93.267222,3,Northeast,Sheridan,2,1,Westminster
-93.226505999951883,44.969891000169582,80,02/12/2019 11:48pm,"609 oak st se,Minneapolis,MN",44.969891,-93.226506,2,University,Prospect Park - East River Road,4,1,Westminster
-93.26667399970529,45.001099000418606,81,02/12/2019 11:50pm,"171 13th ave,Minneapolis,MN",45.001099,-93.266674,3,Northeast,Sheridan,2,1,Westminster
-93.301795999685623,44.950621000059186,82,02/12/2019 11:51pm,"2857 IRVING AVE S ,Minneapolis,MN",44.950621,-93.301796,7,Calhoun Isle,East Isles,3,1,Westminster
-93.281374000409755,44.988633000212815,83,02/12/2019 11:51pm,"901 3rd st n,Minneapolis,MN",44.988633,-93.281374,3,Central,North Loop,1,1,Westminster
-93.280073999815215,44.942773999720373,84,02/12/2019 11:52pm,"3300 block of Blaisdell Avenue so,Minneapolis,MN",44.942774,-93.280074,8,Powderhorn,Lyndale,5,1,Westminster
-93.278260999845202,44.985429999994551,85,02/12/2019 11:52pm,"600 4th st n,Minneapolis,MN",44.98543,-93.278261,3,Central,North Loop,1,1,Westminster
-93.238172000137638,44.967233999949201,86,02/12/2019 11:55pm,"24TH AVE S & 9TH ST ,Minneapolis,MN",44.967234,-93.238172,2,University,Cedar Riverside,4,1,Westminster
-93.280073999815215,44.942773999720373,87,02/12/2019 11:56pm,"3300 block of Blaisdell Avenue so,Minneapolis,MN",44.942774,-93.280074,8,Powderhorn,Lyndale,5,1,Westminster
-93.301775999662595,44.951186000033942,88,02/12/2019 11:56pm,"2841 Irving av s ,Minneapolis,MN",44.951186,-93.301776,7,Calhoun Isle,East Isles,3,1,Westminster
-93.30000599987693,44.954523000136419,89,02/12/2019 11:57pm,"2643 IRVING AVE S,Minneapolis,MN",44.954523,-93.300006,7,Calhoun Isle,East Isles,3,1,Westminster
-93.262882000204115,44.92381100027751,90,02/12/2019 11:58pm,"4342 Chicago Avenue South,Minneapolis,MN",44.923811,-93.262882,8,Nokomis,Regina,5,1,Westminster
-93.282877999619927,44.988682999820639,91,02/12/2019 11:58pm,"998 4th st n,Minneapolis,MN",44.988683,-93.282878,5,Central,North Loop,1,1,Westminster
-93.238172000137638,44.967233999949201,92,02/13/2019 12:00am,"24TH AVE S & 9TH ST ,Minneapolis,MN",44.967234,-93.238172,2,University,Cedar Riverside,4,1,Westminster
-93.252641000082065,45.013464999610107,93,02/13/2019 12:01am,"2500 Monroe st ne,Minneapolis,MN",45.013465,-93.252641,1,Northeast,Holland,2,1,Westminster
-93.30171699963978,44.95105999961936,94,02/13/2019 12:03am,"2845 Irving Ave S,Minneapolis,MN",44.95106,-93.301717,7,Calhoun Isle,East Isles,3,1,Westminster
-93.235610999847722,45.012672999959022,95,02/13/2019 12:05am,"1720 Lowery ave ne,Minneapolis,MN",45.012673,-93.235611,1,Northeast,Windom Park,2,1,Westminster
-93.22733799964891,44.94028700014502,96,02/13/2019 12:05am,"3432 31st Avenue South,Minneapolis,MN",44.940287,-93.227338,12,Longfellow,Howe,6,1,Westminster
-93.294206000406575,44.958398999913982,97,02/13/2019 12:07am,"2425 Hennepin Ave South,Minneapolis,MN",44.958399,-93.294206,10,Calhoun Isle,Lowry Hill East,3,1,Westminster
-93.21936799993324,44.971362999702706,98,02/13/2019 12:08am,"201-299 27th av se,Minneapolis,MN",44.971363,-93.219368,2,University,Prospect Park - East River Road,4,1,Westminster
-93.252175000176067,44.944553999967184,99,02/13/2019 12:10am,"3201 Bloomington Ave S ,Minneapolis,MN",44.944554,-93.252175,9,Powderhorn,Powderhorn Park,6,1,Westminster
-93.25707100022646,44.989004000234502,100,02/13/2019 12:11am,"99-1 University ave Ne,Minneapolis,MN",44.989004,-93.257071,3,University,Nicollet Island - East Bank,2,1,Westminster
-93.275327000340781,44.934117999845853,101,02/13/2019 12:11am,"1-99 38th St E,Minneapolis,MN",44.934118,-93.275327,8,Southwest,King Field,5,1,Westminster
-93.29404700026879,45.014926999581405,102,02/13/2019 12:11am,"3298 Emerson ave n ,Minneapolis,MN",45.014927,-93.294047,4,Camden,Folwell,1,1,Westminster
-93.294726000104788,44.962897999643019,103,02/13/2019 12:12am,"1200 franklin,Minneapolis,MN",44.962898,-93.294726,7,Calhoun Isle,Lowry Hill,3,1,Westminster
-93.278260999845202,44.985429999994551,104,02/13/2019 12:12am,"600 4th st n,Minneapolis,MN",44.98543,-93.278261,3,Central,North Loop,1,1,Westminster
-93.258656999620825,44.987178999711148,105,02/13/2019 12:13am,"2 - 98 Lourdes pl,Minneapolis,MN",44.987179,-93.258657,3,University,Nicollet Island - East Bank,4,1,Westminster
-93.227082000433938,44.948376999998629,106,02/13/2019 12:14am,"3000 31st av s,Minneapolis,MN",44.948377,-93.227082,2,Longfellow,Longfellow,4,1,Westminster
-93.245454999648473,44.983952000184729,107,02/13/2019 12:14am,"700 4st n,Minneapolis,MN",44.983952,-93.245455,3,University,Marcy Holmes,4,1,Westminster
-93.295310000056418,45.016914000380893,108,02/13/2019 12:14am,"3400-3498 Fremont ave n ,Minneapolis,MN",45.016914,-93.29531,4,Camden,Folwell,1,1,Westminster
-93.298375000206079,44.952833000442695,109,02/13/2019 12:15am,"2730 hennepin ,Minneapolis,MN",44.952833,-93.298375,7,Calhoun Isle,East Isles,3,1,Westminster
-93.257862999877489,44.986552999621267,110,02/13/2019 12:15am,"98 Lourdes Pl Ne,Minneapolis,MN",44.986553,-93.257863,3,University,Nicollet Island - East Bank,4,1,Westminster
-93.220409000275083,44.926932000311638,111,02/13/2019 12:16am,"3600 42nd st,Minneapolis,MN",44.926932,-93.220409,12,Longfellow,Hiawatha,6,1,Westminster
-93.278942999819549,44.985788000316006,112,02/13/2019 12:16am,"700 4th st n ,Minneapolis,MN",44.985788,-93.278943,3,Central,North Loop,1,1,Westminster
-93.262802000112174,44.924991999880945,113,02/13/2019 12:17am,"4300 Chicago ave s,Minneapolis,MN",44.924992,-93.262802,8,Nokomis,Regina,5,1,Westminster
-93.282678000289422,44.967837999923802,114,02/13/2019 12:19am,"300 15TH ST W,Minneapolis,MN",44.967838,-93.282678,7,Central,Loring Park,3,1,Westminster
-93.243184000141468,44.96098200031912,115,02/13/2019 12:20am,"2188 MINNEHAHA AVE S,Minneapolis,MN",44.960982,-93.243184,6,Longfellow,Seward,4,1,Westminster
-93.298583999951575,44.952606999913144,116,02/13/2019 12:20am,"2736 HENNEPIN AVE ,Minneapolis,MN",44.952607,-93.298584,7,Calhoun Isle,East Isles,3,1,Westminster
-93.227089999903512,44.946833999889236,117,02/13/2019 12:21am,"3100 31st ave s,Minneapolis,MN",44.946834,-93.22709,2,Longfellow,Longfellow,6,1,Westminster
-93.282678000289422,44.967837999923802,118,02/13/2019 12:23am,"300 15TH ST W,Minneapolis,MN",44.967838,-93.282678,7,Central,Loring Park,3,1,Westminster
-93.290991999681012,44.984097999722962,119,02/13/2019 12:24am,"401 6th avenue North,Minneapolis,MN",44.984098,-93.290992,5,Near North,Sumner - Glenwood,3,1,Westminster
-93.253431999686995,44.934314999937328,120,02/13/2019 12:27am,"1500 BLOCK 38TH ST E,Minneapolis,MN",44.934315,-93.253432,9,Powderhorn,Powderhorn Park,6,1,Westminster
-93.250681999674498,44.946417999591063,121,02/13/2019 12:27am,"1611 31st st e,Minneapolis,MN",44.946418,-93.250682,9,Powderhorn,Powderhorn Park,6,1,Westminster
-93.286021999815375,44.968446000082906,122,02/13/2019 12:29am,"300 498 15th Street West,Minneapolis,MN",44.968446,-93.286022,7,Central,Loring Park,3,1,Westminster
-93.295666000285621,45.025781000093104,123,02/13/2019 12:35am,"3898 Fremont Ave n,Minneapolis,MN",45.025781,-93.295666,4,Camden,Webber - Camden,1,1,Westminster
-93.216134000084026,44.972643000274275,124,02/13/2019 12:36am,"2830 4th st se,Minneapolis,MN",44.972643,-93.216134,2,University,Prospect Park - East River Road,4,1,Westminster
-93.295474000424747,45.029726000354685,125,02/13/2019 12:36am,"4100 Freemont Ave N,Minneapolis,MN",45.029726,-93.295474,4,Camden,Webber - Camden,1,1,Westminster
-93.273786000323639,44.940512999775194,126,02/13/2019 12:38am,"3425 2ND AVE S,Minneapolis,MN",44.940513,-93.273786,9,Powderhorn,Central,5,1,Westminster
-93.301753000400595,44.950525000128721,127,02/13/2019 12:38am,"2861 Irving Ave s,Minneapolis,MN",44.950525,-93.301753,7,Calhoun Isle,East Isles,3,1,Westminster
-93.239957999761828,44.963689000147269,128,02/12/2019 11:42pm,"2217 S 9 St,Minneapolis,MN",44.963689,-93.239958,6,Longfellow,Seward,4,1,Westminster
-93.243107000187877,44.960177000068541,129,02/13/2019 12:39am,"2296 MINNEHAHA AVE,Minneapolis,MN",44.960177,-93.243107,6,Longfellow,Seward,4,1,Westminster
-93.296900999681327,45.023995999615749,130,02/13/2019 12:41am,"1398 Dowling Ave n,Minneapolis,MN",45.023996,-93.296901,4,Camden,Folwell,1,1,Westminster
-93.268698000412371,44.968300999691451,131,02/13/2019 12:41am,"500 15TH ST W,Minneapolis,MN",44.968301,-93.268698,7,Central,Elliot Park,3,1,Westminster
-93.293699000408481,44.959253999772329,132,02/13/2019 12:41am,"2339 hennepin ave ,Minneapolis,MN",44.959254,-93.293699,10,Calhoun Isle,Lowry Hill East,3,1,Westminster
-93.285815000162074,44.968219000406577,133,02/13/2019 12:41am,"430 OAK GROVE ,Minneapolis,MN",44.968219,-93.285815,7,Central,Loring Park,3,1,Westminster
-93.293173000433569,44.98189299966225,134,02/13/2019 12:42am,"208 Van white memorial blvd ,Minneapolis,MN",44.981893,-93.293173,5,Near North,Sumner - Glenwood,3,1,Westminster
-93.270206999853144,44.939551000378401,135,02/13/2019 12:42am,"3500 4th ave s,Minneapolis,MN",44.939551,-93.270207,9,Powderhorn,Central,5,1,Westminster
-93.281039000249621,44.967465999856074,136,02/13/2019 12:42am,"201 15 st w ,Minneapolis,MN",44.967466,-93.281039,7,Central,Loring Park,3,1,Westminster
-93.293072000272559,44.962703999689893,137,02/13/2019 12:45am,"Franklin Ave at Dupont Ave s,Minneapolis,MN",44.962704,-93.293072,7,Calhoun Isle,Lowry Hill,3,1,Westminster
-93.279335999956402,44.967716999739821,138,02/13/2019 12:45am,"100 15TH ST W,Minneapolis,MN",44.967717,-93.279336,7,Central,Loring Park,3,1,Westminster
-93.281655999924396,44.968031999876928,139,02/13/2019 12:45am,"214 15TH ST E,Minneapolis,MN",44.968032,-93.281656,7,Central,Loring Park,3,1,Westminster
-93.278758000281471,44.967532000201686,140,02/13/2019 12:52am,"19 15th Street West,Minneapolis,MN",44.967532,-93.278758,7,Central,Loring Park,3,1,Westminster
-93.225120999934177,44.970031000330437,141,02/13/2019 12:54am,"908 Fulton st se,Minneapolis,MN",44.970031,-93.225121,2,University,Prospect Park - East River Road,4,1,Westminster
-93.236116999799663,44.981686000008949,142,02/13/2019 12:54am,"1306 5TH ST SE,Minneapolis,MN",44.981686,-93.236117,3,University,Marcy Holmes,4,1,Westminster
-93.227338999695064,44.94016399986873,143,02/13/2019 12:55am,"3436 31st ave s,Minneapolis,MN",44.940164,-93.227339,12,Longfellow,Howe,6,1,Westminster
-93.269691000339378,44.948402000252145,144,02/13/2019 12:55am,"4TH & LAKE ST ,Minneapolis,MN",44.948402,-93.269691,6,Phillips,Phillips West,3,1,Westminster
-93.263791999900832,44.995243000164407,145,02/13/2019 12:55am,"700 block 2nd st ne,Minneapolis,MN",44.995243,-93.263792,3,Northeast,St. Anthony West,2,1,Westminster
-93.295995000169114,45.026003000438152,146,02/13/2019 12:56am,"3901Fremont ave n ,Minneapolis,MN",45.026003,-93.295995,4,Camden,Webber - Camden,1,1,Westminster
-93.262052999746118,44.993141000356957,147,02/13/2019 12:58am,"500 block 2nd st ne,Minneapolis,MN",44.993141,-93.262053,3,Northeast,St. Anthony West,2,1,Westminster
-93.227339999741162,44.940100999661468,148,02/13/2019 12:58am,"3438 31st ave s,Minneapolis,MN",44.940101,-93.22734,12,Longfellow,Howe,6,1,Westminster
-93.295494000447718,45.018637999843861,149,02/13/2019 01:00am,"3500 FREMONT AVE N ,Minneapolis,MN",45.018638,-93.295494,4,Camden,Folwell,1,1,Westminster
-93.227082000433938,44.948376999998629,150,02/13/2019 01:02am,"3000 31st ave so,Minneapolis,MN",44.948377,-93.227082,2,Longfellow,Longfellow,4,1,Westminster
-93.235374999756402,44.987683999616934,151,02/13/2019 01:03am,"1108 Como Avenue se,Minneapolis,MN",44.987684,-93.235375,2,University,Como,4,1,Westminster
-93.276929999619767,44.935794999839402,152,02/13/2019 01:03am,"3700 block of 1st Ave so ,Minneapolis,MN",44.935795,-93.27693,8,Southwest,King Field,5,1,Westminster
-93.279335999956402,44.967716999739821,153,02/13/2019 01:04am,"100 BLOCK OF 15TH ST W,Minneapolis,MN",44.967717,-93.279336,7,Central,Loring Park,3,1,Westminster
-93.27933399986415,44.96879900017376,154,02/13/2019 01:04am,"1396 lasalle av,Minneapolis,MN",44.968799,-93.279334,7,Central,Loring Park,3,1,Westminster
-93.271359999963977,45.003856999900677,155,02/13/2019 01:05am,"1598 Marshall st ne,Minneapolis,MN",45.003857,-93.27136,3,Northeast,Sheridan,2,1,Westminster
-93.276929999619767,44.935794999839402,156,02/13/2019 01:06am,"3700 block of 1st Ave so ,Minneapolis,MN",44.935795,-93.27693,8,Southwest,King Field,5,1,Westminster
-93.296187000029988,44.944583000405203,157,02/13/2019 01:06am,"3200 Fremont Ave,Minneapolis,MN",44.944583,-93.296187,10,Calhoun Isle,CARAG,5,1,Westminster
-93.243155999749547,44.960940000180926,158,02/13/2019 01:07am,"2199 MINNEHAHA AVE ,Minneapolis,MN",44.96094,-93.243156,6,Longfellow,Seward,4,1,Westminster
-93.272880999958147,45.016110000176411,159,02/13/2019 01:08am,"2630 Mashall st ne,Minneapolis,MN",45.01611,-93.272881,1,Northeast,Marshall Terrace,2,1,Westminster
-93.275861999831363,44.97568999959384,160,02/13/2019 01:10am,"2221 1 9 ST S,Minneapolis,MN",44.97569,-93.275862,7,Central,Downtown West,3,1,Westminster
-93.228468999644576,45.013346999564419,161,02/13/2019 01:11am,"2500 Mckinley st ne,Minneapolis,MN",45.013347,-93.228469,1,Northeast,Audubon Park,2,1,Westminster
-93.279494000048032,44.957860000238895,162,02/13/2019 01:11am,"2435 BLAISDELL AVE S,Minneapolis,MN",44.95786,-93.279494,10,Powderhorn,Whittier,3,1,Westminster
-93.295589000332086,45.014954999973327,163,02/13/2019 01:12am,"3298 fremont ave n,Minneapolis,MN",45.014955,-93.295589,4,Camden,Folwell,1,1,Westminster
-93.295196000195233,45.006138999914981,164,02/13/2019 01:13am,"2600 block of Fremont avenue North,Minneapolis,MN",45.006139,-93.295196,5,Near North,Jordan,1,1,Westminster
-93.279176999818674,44.961544000155527,165,02/13/2019 01:14am,"2109 blaisdell Ave s ,Minneapolis,MN",44.961544,-93.279177,10,Powderhorn,Whittier,3,1,Westminster
-93.242523000236247,45.013320000117972,166,02/13/2019 01:14am,"1151 Lowry ave ne,Minneapolis,MN",45.01332,-93.242523,1,Northeast,Audubon Park,2,1,Westminster
-93.227082000433938,44.948376999998629,167,02/13/2019 01:16am,"3000 31st av s,Minneapolis,MN",44.948377,-93.227082,2,Longfellow,Longfellow,4,1,Westminster
-93.294511000082537,44.999273999895252,168,02/13/2019 01:17am,"1106 west Broadway ,Minneapolis,MN",44.999274,-93.294511,5,Near North,Jordan,1,1,Westminster
-93.229087000264826,45.013089000257196,169,02/13/2019 01:17am,"2210 lowry ave ne,Minneapolis,MN",45.013089,-93.229087,1,Northeast,Windom Park,2,1,Westminster
-93.279304000279353,44.960593000366714,170,02/13/2019 01:18am,"2201 blaisdell ,Minneapolis,MN",44.960593,-93.279304,10,Powderhorn,Whittier,3,1,Westminster
-93.279187000279819,44.958192000260681,171,02/13/2019 01:18am,"2427 Blaisdell Ave ,Minneapolis,MN",44.958192,-93.279187,10,Powderhorn,Whittier,3,1,Westminster
-93.279494000048032,44.957860000238895,172,02/13/2019 01:19am,"2435 BLAISDELL AVE ,Minneapolis,MN",44.95786,-93.279494,10,Powderhorn,Whittier,3,1,Westminster
-93.227082000433938,44.948376999998629,173,02/13/2019 01:19am,"3000 31st av s,Minneapolis,MN",44.948377,-93.227082,2,Longfellow,Longfellow,4,1,Westminster
-93.227082000433938,44.948376999998629,174,02/13/2019 01:19am,"3000 31st ave,Minneapolis,MN",44.948377,-93.227082,2,Longfellow,Longfellow,4,1,Westminster
-93.228428999598634,45.017013999596429,175,02/13/2019 01:20am,"2700 Mckinley st ne,Minneapolis,MN",45.017014,-93.228429,1,Northeast,Audubon Park,2,1,Westminster
-93.220409000275083,44.926932000311638,176,02/13/2019 01:22am,"3600 42nd st,Minneapolis,MN",44.926932,-93.220409,12,Longfellow,Hiawatha,6,1,Westminster
-93.276870999596895,44.93756399957897,177,02/13/2019 01:22am,"3600 1st st south,Minneapolis,MN",44.937564,-93.276871,8,Southwest,King Field,5,1,Westminster
-93.278764999704947,44.967978000084713,178,02/13/2019 01:28am,"18 W 15TH ,Minneapolis,MN",44.967978,-93.278765,7,Central,Loring Park,3,1,Westminster
-93.228718000335391,44.972550999628993,179,02/13/2019 01:29am,"610 Delaware st se,Minneapolis,MN",44.972551,-93.228718,2,University,University of Minnesota,4,1,Westminster
-93.279274999841334,44.957628000332022,180,02/13/2019 01:32am,"2451 Blaisdell,Minneapolis,MN",44.957628,-93.279275,10,Powderhorn,Whittier,3,1,Westminster
-93.278764999704947,44.967978000084713,181,02/13/2019 01:33am,"18 15 St W,Minneapolis,MN",44.967978,-93.278765,7,Central,Loring Park,3,1,Westminster
-93.30784499984685,44.996584999997822,182,02/13/2019 01:33am,"1700 Penn Ave n,Minneapolis,MN",44.996585,-93.307845,5,Near North,Willard - Hay,1,1,Westminster
-93.271219999803122,45.005189000172265,183,02/13/2019 01:35am,"1701 marshall st ne,Minneapolis,MN",45.005189,-93.27122,3,Northeast,Sheridan,2,1,Westminster
-93.244376000252146,44.966969000319182,184,02/13/2019 01:36am,"620 20TH AVE S,Minneapolis,MN",44.966969,-93.244376,6,University,Cedar Riverside,4,1,Westminster
-93.279628999978343,44.956260000198881,185,02/13/2019 01:39am,"2531 BLAIDELL AVE,Minneapolis,MN",44.95626,-93.279629,10,Powderhorn,Whittier,3,1,Westminster
-93.270818000150541,45.002480000251865,186,02/13/2019 01:39am,"1435 marshall avenue ne,Minneapolis,MN",45.00248,-93.270818,3,Northeast,Sheridan,2,1,Westminster
-93.23482899975852,44.980882999850621,187,02/13/2019 01:40am,"1416 5th st se,Minneapolis,MN",44.980883,-93.234829,3,University,Marcy Holmes,4,1,Westminster
-93.307993000376655,44.985041000042145,188,02/13/2019 01:41am,"620 penn ave n ,Minneapolis,MN",44.985041,-93.307993,5,Near North,Near - North,1,1,Westminster
-93.307918999662093,45.010385999714174,189,02/13/2019 01:42am,"2922 Penn Ave N,Minneapolis,MN",45.010386,-93.307919,5,Near North,Jordan,1,1,Westminster
-93.244365999791,44.966813000319746,190,02/13/2019 01:46am,"626 20th ave s,Minneapolis,MN",44.966813,-93.244366,6,University,Cedar Riverside,4,1,Westminster
-93.27702699959633,44.944806999943125,191,02/13/2019 01:47am,"3200 1st ave so ,Minneapolis,MN",44.944807,-93.277027,8,Powderhorn,Lyndale,5,1,Westminster
-93.27928200016413,44.956093999738357,192,02/13/2019 01:47am,"2537 BLAISDELL AVE S,Minneapolis,MN",44.956094,-93.279282,10,Powderhorn,Whittier,3,1,Westminster
-93.307918999662093,45.010385999714174,193,02/13/2019 01:48am,"2922 penn ave n ,Minneapolis,MN",45.010386,-93.307919,5,Near North,Jordan,1,1,Westminster
-93.23775399974727,45.020436000021448,194,02/13/2019 01:49am,"1500 block 29th avenue ne,Minneapolis,MN",45.020436,-93.237754,1,Northeast,Audubon Park,2,1,Westminster
-93.307930000169335,45.010823000081416,195,02/13/2019 01:51am,"2938 Penn Ave n,Minneapolis,MN",45.010823,-93.30793,5,Near North,Jordan,1,1,Westminster
-93.26608999975366,44.96782100003918,196,02/13/2019 01:52am,"629 15 st e,Minneapolis,MN",44.967821,-93.26609,6,Central,Elliot Park,3,1,Westminster
-93.279187000279819,44.958192000260681,197,02/13/2019 01:53am,"2427 BLAISDELL AVE ,Minneapolis,MN",44.958192,-93.279187,10,Powderhorn,Whittier,3,1,Westminster
-93.236485999729041,45.020446999629371,198,02/13/2019 01:53am,"1600 block of 29th avenue ne,Minneapolis,MN",45.020447,-93.236486,1,Northeast,Audubon Park,2,1,Westminster
-93.276604999920778,44.941358000071716,199,02/13/2019 01:53am,"3398 1ST AVE S,Minneapolis,MN",44.941358,-93.276605,8,Powderhorn,Lyndale,5,1,Westminster
-93.279125000118597,44.958338999845012,200,02/13/2019 01:54am,"2423 BLAISDELL AVE S,Minneapolis,MN",44.958339,-93.279125,10,Powderhorn,Whittier,3,1,Westminster
-93.307886999985044,45.015721000224062,201,02/13/2019 01:56am,"3322 Penn Ave n ,Minneapolis,MN",45.015721,-93.307887,4,Camden,Folwell,1,1,Westminster
-93.27702699959633,44.944806999943125,202,02/13/2019 01:57am,"3200 BLOCK 1ST AVE S,Minneapolis,MN",44.944807,-93.277027,8,Powderhorn,Lyndale,5,1,Westminster
-93.27702699959633,44.944806999943125,203,02/13/2019 02:00am,"3200 1ST AVE S,Minneapolis,MN",44.944807,-93.277027,8,Powderhorn,Lyndale,5,1,Westminster
-93.276673000358642,44.946668000328032,204,02/13/2019 02:00am,"3100 BLOCK 1ST AVE N,Minneapolis,MN",44.946668,-93.276673,8,Powderhorn,Lyndale,5,1,Westminster
-93.224070000030451,44.971180000256879,205,02/13/2019 02:01am,"1000 block of Essex st se,Minneapolis,MN",44.97118,-93.22407,2,University,Prospect Park - East River Road,4,1,Westminster
-93.27702699959633,44.944806999943125,206,02/13/2019 02:01am,"3200 1st ave s,Minneapolis,MN",44.944807,-93.277027,8,Powderhorn,Lyndale,5,1,Westminster
-93.229267999618457,44.941987000299889,207,02/13/2019 02:01am,"3337 minnehaha ave,Minneapolis,MN",44.941987,-93.229268,2,Longfellow,Longfellow,6,1,Westminster
-93.279288000440829,44.953450000117471,208,02/13/2019 02:03am,"2705 BLAISDELL AVE,Minneapolis,MN",44.95345,-93.279288,10,Powderhorn,Whittier,3,1,Westminster
-93.279082999980403,44.95488000041172,209,02/13/2019 02:04am,"2609 Blaisdell Ave,Minneapolis,MN",44.95488,-93.279083,10,Powderhorn,Whittier,3,1,Westminster
-93.308864000073527,45.015994000222975,210,02/13/2019 02:04am,"3333 Penn Ave n,Minneapolis,MN",45.015994,-93.308864,4,Camden,Cleveland,1,1,Westminster
-93.276974999896311,44.976430000444225,211,02/13/2019 02:08am,"9 St & Hennepin Ave,Minneapolis,MN",44.97643,-93.276975,7,Central,Downtown West,3,1,Westminster
-93.23775399974727,45.020436000021448,212,02/13/2019 02:09am,"1500 block 29th avenue ne,Minneapolis,MN",45.020436,-93.237754,1,Northeast,Audubon Park,2,1,Westminster
-93.231670999816743,44.944209000245223,213,02/13/2019 02:09am,"3210 minnehaha,Minneapolis,MN",44.944209,-93.231671,9,Longfellow,Longfellow,6,1,Westminster
-93.266164999615,45.01318300009541,214,02/13/2019 02:11am,"2500 2nd street ne,Minneapolis,MN",45.013183,-93.266165,1,Northeast,Marshall Terrace,2,1,Westminster
-93.229082000034225,44.941782999885561,215,02/13/2019 02:12am,"3347 minnehaha,Minneapolis,MN",44.941783,-93.229082,2,Longfellow,Longfellow,6,1,Westminster
-93.308528999913392,45.017371999917941,216,02/13/2019 02:14am,"3415 Penn Ave N,Minneapolis,MN",45.017372,-93.308529,4,Camden,Cleveland,1,1,Westminster
-93.224365000144587,44.935162000326102,217,02/13/2019 02:16am,"3721 minnehaha av s,Minneapolis,MN",44.935162,-93.224365,12,Longfellow,Howe,6,1,Westminster
-93.227340999787259,44.939973000053953,218,02/13/2019 02:16am,"3442 31st Avenue South,Minneapolis,MN",44.939973,-93.227341,12,Longfellow,Howe,6,1,Westminster
-93.22119499964947,44.970347999660532,219,02/13/2019 02:17am,"2600 essex st se,Minneapolis,MN",44.970348,-93.221195,2,University,Prospect Park - East River Road,4,1,Westminster
-93.279328999633606,44.953233000003024,220,02/13/2019 02:19am,"2717 BLAISDELL AVE S,Minneapolis,MN",44.953233,-93.279329,10,Powderhorn,Whittier,3,1,Westminster
-93.227197000341278,44.9381189999919,221,02/13/2019 02:19am,"3552 minnehaha av s,Minneapolis,MN",44.938119,-93.227197,12,Longfellow,Howe,6,1,Westminster
-93.244323999652806,44.96582499972402,222,02/13/2019 02:21am,"720 20TH AVE S,Minneapolis,MN",44.965825,-93.244324,6,University,Cedar Riverside,4,1,Westminster
-93.279286000348577,44.952638000443415,223,02/13/2019 02:22am,"2743 BLAISDELL AVE S,Minneapolis,MN",44.952638,-93.279286,10,Powderhorn,Whittier,3,1,Westminster
-93.264842999804557,44.978990999834821,224,02/13/2019 02:22am,"301 3RD ST S,Minneapolis,MN",44.978991,-93.264843,3,Central,Downtown West,3,1,Westminster
-93.239486999625285,44.946239000329626,225,02/13/2019 02:23am,"2231 31st st e,Minneapolis,MN",44.946239,-93.239487,9,Powderhorn,Corcoran,6,1,Westminster
-93.284183999591846,44.97597099996176,226,02/13/2019 02:23am,"100 block of 15 st s,Minneapolis,MN",44.975971,-93.284184,5,Central,North Loop,3,1,Westminster
-93.307977999684908,45.021385999764107,227,02/13/2019 02:25am,"3628 penn ave n ,Minneapolis,MN",45.021386,-93.307978,4,Camden,Folwell,1,1,Westminster
-93.307961999846384,45.019649999747742,228,02/13/2019 02:27am,"3534 PENN AVE N ,Minneapolis,MN",45.01965,-93.307962,4,Camden,Folwell,1,1,Westminster
-93.287292999971953,44.971735999816588,229,02/13/2019 02:28am,"1700 HENNEPIN AVE ,Minneapolis,MN",44.971736,-93.287293,7,Central,Loring Park,3,1,Westminster
-93.307936999592812,45.018410000121435,230,02/13/2019 02:29am,"3454 PENN AVE N ,Minneapolis,MN",45.01841,-93.307937,4,Camden,Folwell,1,1,Westminster
-93.25932099966434,44.989704000139568,231,02/13/2019 02:30am,"1-99 2nd st ne,Minneapolis,MN",44.989704,-93.259321,3,Northeast,St. Anthony West,2,1,Westminster
-93.276673000358642,44.946668000328032,232,02/13/2019 02:32am,"3100 1st. Ave s,Minneapolis,MN",44.946668,-93.276673,8,Powderhorn,Lyndale,5,1,Westminster
-93.263333000317687,44.943325999994954,233,02/13/2019 02:33am,"728 e33rd st,Minneapolis,MN",44.943326,-93.263333,9,Powderhorn,Central,5,1,Westminster
-93.25932099966434,44.989704000139568,234,02/13/2019 02:33am,"1-99 2nd st ne,Minneapolis,MN",44.989704,-93.259321,3,Northeast,St. Anthony West,2,1,Westminster
-93.261858999792992,45.010139000014874,235,02/13/2019 02:36am,"2200 4th street ne,Minneapolis,MN",45.010139,-93.261859,1,Northeast,Holland,2,1,Westminster
-93.27930799956448,44.952870000350288,236,02/13/2019 02:37am,"2725 BLAISDELL AVE ,Minneapolis,MN",44.95287,-93.279308,10,Powderhorn,Whittier,3,1,Westminster
-93.244231999906845,44.966241000022194,237,02/13/2019 02:37am,"708 20th ave s,Minneapolis,MN",44.966241,-93.244232,6,University,Cedar Riverside,4,1,Westminster
-93.261593000116818,45.01002200001534,238,02/13/2019 02:39am,"2201 4th street ne,Minneapolis,MN",45.010022,-93.261593,1,Northeast,Holland,2,1,Westminster
-93.308782999935488,45.029313000194861,239,02/13/2019 02:40am,"4059 penn ave n ,Minneapolis,MN",45.029313,-93.308783,4,Camden,Victory,1,1,Westminster
-93.303434999725425,44.981416000148329,240,02/13/2019 02:43am,"1815 4th ave n ,Minneapolis,MN",44.981416,-93.303435,5,Near North,Harrison,3,1,Westminster
-93.276656999620798,44.944961999896407,241,02/13/2019 02:43am,"3198-3100 1 Av s,Minneapolis,MN",44.944962,-93.276657,8,Powderhorn,Lyndale,5,1,Westminster
-93.281853000015929,44.994360999960236,242,02/13/2019 02:44am,"1501 washington street ne,Minneapolis,MN",44.994361,-93.281853,5,Near North,Near - North,1,1,Westminster
-93.311691000039559,44.998569999805682,243,02/13/2019 02:46am,"2423 Golden Valley Road,Minneapolis,MN",44.99857,-93.311691,5,Near North,Willard - Hay,1,1,Westminster
-93.276673000358642,44.946668000328032,244,02/13/2019 02:46am,"3100 1ST AVE S,Minneapolis,MN",44.946668,-93.276673,8,Powderhorn,Lyndale,5,1,Westminster
-93.265207000402711,44.948393999883251,245,02/13/2019 02:47am,"2989-2800 BLOCK OF PARK AVE,Minneapolis,MN",44.948394,-93.265207,6,Phillips,Phillips West,3,1,Westminster
-93.281853000015929,44.994360999960236,246,02/13/2019 02:48am,"1501 washington St Ne,Minneapolis,MN",44.994361,-93.281853,5,Near North,Near - North,1,1,Westminster
-93.224079999592277,44.935131999841985,247,02/13/2019 02:49am,"3725 minnehaha ave,Minneapolis,MN",44.935132,-93.22408,12,Longfellow,Howe,6,1,Westminster
-93.261534000094002,45.01490200022721,248,02/13/2019 02:51am,"2598 4 th sdtreet ne,Minneapolis,MN",45.014902,-93.261534,1,Northeast,Holland,2,1,Westminster
-93.267331000325385,44.968785999574266,249,02/13/2019 02:53am,"1401 Portland av s ,Minneapolis,MN",44.968786,-93.267331,7,Central,Elliot Park,3,1,Westminster
-93.261534000094002,45.01490200022721,250,02/13/2019 02:53am,"2598 4th street ne,Minneapolis,MN",45.014902,-93.261534,1,Northeast,Holland,2,1,Westminster
-93.265616000378088,44.949939000084839,251,02/13/2019 02:55am,"2900 Park Ave s,Minneapolis,MN",44.949939,-93.265616,6,Phillips,Phillips West,3,1,Westminster
-93.311691000039559,44.998569999805682,252,02/13/2019 02:56am,"2423 Golden valley road,Minneapolis,MN",44.99857,-93.311691,5,Near North,Willard - Hay,1,1,Westminster
-93.265540999617428,44.96457699972882,253,02/13/2019 02:57am,"1814 park s,Minneapolis,MN",44.964577,-93.265541,6,Phillips,Ventura Village,3,1,Westminster
-93.26158399970177,45.00856100009014,254,02/13/2019 03:02am,"2001 4th street ne,Minneapolis,MN",45.008561,-93.261584,1,Northeast,Holland,2,1,Westminster
-93.261858999792992,45.010139000014874,255,02/13/2019 03:05am,"2200 4th street ne,Minneapolis,MN",45.010139,-93.261859,1,Northeast,Holland,2,1,Westminster
-93.284421999775418,44.914159000337634,256,02/13/2019 03:09am,"49th and Grand ave ,Minneapolis,MN",44.914159,-93.284422,11,Southwest,Tangletown,5,1,Westminster
-93.298073999815188,45.035242000218204,257,02/13/2019 03:10am,"1421 44th ave n ,Minneapolis,MN",45.035242,-93.298074,4,Camden,Webber - Camden,1,1,Westminster
-93.297758999678081,45.035250999733876,258,02/13/2019 03:13am,"1415 44th ave n ,Minneapolis,MN",45.035251,-93.297759,4,Camden,Webber - Camden,1,1,Westminster
-93.244541999813407,44.966131000345456,259,02/13/2019 03:15am,"712 20th ave s,Minneapolis,MN",44.966131,-93.244542,6,University,Cedar Riverside,4,1,Westminster
-93.220051999999782,44.929428000302039,260,02/13/2019 03:16am,"4027 Minnehaha Avenue South,Minneapolis,MN",44.929428,-93.220052,12,Longfellow,Hiawatha,6,1,Westminster
-93.223153000010882,44.933641000331932,261,02/13/2019 03:18am,"3819 Minnehaha Avenue South,Minneapolis,MN",44.933641,-93.223153,12,Longfellow,Howe,6,1,Westminster
-93.265207000402711,44.948376999998629,262,02/13/2019 03:19am,"2998-2900 PARK AVE ,Minneapolis,MN",44.948377,-93.265207,6,Phillips,Phillips West,3,1,Westminster
-93.312885000242545,44.99896099985034,263,02/13/2019 03:19am,"2518 Golden Valley Road,Minneapolis,MN",44.998961,-93.312885,5,Near North,Willard - Hay,1,1,Westminster
-93.276673000358642,44.946668000328032,264,02/13/2019 03:20am,"E 31 ST & 1st Ave S. ,Minneapolis,MN",44.946668,-93.276673,8,Powderhorn,Lyndale,5,1,Westminster
-93.315274999841336,44.998629999874652,265,02/13/2019 03:21am,"2711 Golden valley road,Minneapolis,MN",44.99863,-93.315275,5,Near North,Willard - Hay,1,1,Westminster
-93.268013000299675,44.955299999995077,266,02/13/2019 03:23am,"2600 block of Portland Ave s,Minneapolis,MN",44.9553,-93.268013,6,Phillips,Phillips West,3,1,Westminster
-93.304339000044763,44.980034000268972,267,02/13/2019 03:25am,"1840 3RD AVE ,Minneapolis,MN",44.980034,-93.304339,5,Near North,Harrison,3,1,Westminster
-93.265616000378088,44.949939000084839,268,02/13/2019 03:25am,"2900 Park Ave S,Minneapolis,MN",44.949939,-93.265616,6,Phillips,Phillips West,3,1,Westminster
-93.280254000022069,45.005896000400128,269,02/13/2019 03:26am,"2598 2nd st n,Minneapolis,MN",45.005896,-93.280254,5,Near North,Hawthorne,1,1,Westminster
-93.284352000144679,44.93588999972377,270,02/13/2019 03:26am,"37 ST & GRAND AVE,Minneapolis,MN",44.93589,-93.284352,8,Southwest,King Field,5,1,Westminster
-93.267703000393112,44.953722000070286,271,02/13/2019 03:26am,"2700 block of Portland Ave s,Minneapolis,MN",44.953722,-93.267703,6,Phillips,Phillips West,3,1,Westminster
-93.273028000441855,44.964342999729695,272,02/13/2019 03:28am,"1830 3 ave s,Minneapolis,MN",44.964343,-93.273028,6,Central,Steven's Square - Loring Heights,3,1,Westminster
-93.284336000306155,44.937685999809105,273,02/13/2019 03:29am,"36 ST & GRAND AVE S,Minneapolis,MN",44.937686,-93.284336,8,Southwest,King Field,5,1,Westminster
-93.244323999652806,44.96582499972402,274,02/13/2019 03:31am,"720 20th ave s,Minneapolis,MN",44.965825,-93.244324,6,University,Cedar Riverside,4,1,Westminster
-93.265207000402711,44.948376999998629,275,02/13/2019 03:33am,"2998 Park av ,Minneapolis,MN",44.948377,-93.265207,6,Phillips,Phillips West,3,1,Westminster
-93.289664999639967,45.032373000113921,276,02/13/2019 03:33am,"4247 webber pkwy,Minneapolis,MN",45.032373,-93.289665,4,Camden,Webber - Camden,1,1,Westminster
-93.284293000121806,44.94657999986714,277,02/13/2019 03:33am,"3101-3199 Grand AV S,Minneapolis,MN",44.94658,-93.284293,8,Powderhorn,Lyndale,5,1,Westminster
-93.257056999580811,44.989008999565726,278,02/13/2019 03:34am,"300 1st ave ne,Minneapolis,MN",44.989009,-93.257057,3,University,Nicollet Island - East Bank,2,1,Westminster
-93.257796000385099,44.988759999774231,279,02/13/2019 03:37am,"220 1 avenue ne,Minneapolis,MN",44.98876,-93.257796,3,University,Nicollet Island - East Bank,2,1,Westminster
-93.244323999652806,44.96582499972402,280,02/13/2019 03:38am,"720 20th ave s,Minneapolis,MN",44.965825,-93.244324,6,University,Cedar Riverside,4,1,Westminster
-93.31675199960506,44.999097999872845,281,02/13/2019 03:44am,"2818 Golden valley road,Minneapolis,MN",44.999098,-93.316752,5,Near North,Willard - Hay,1,1,Westminster
-93.289664999639967,45.032373000113921,282,02/13/2019 03:44am,"4247 Webber parkway ,Minneapolis,MN",45.032373,-93.289665,4,Camden,Webber - Camden,1,1,Westminster
-93.286972999604188,45.044423000021482,283,02/13/2019 03:44am,"49th and grand ,Minneapolis,MN",45.044423,-93.286973,4,Camden,Lind - Bohanon,1,1,Westminster
-93.284655999774543,44.933823999777815,284,02/13/2019 03:46am,"3599 grand ,Minneapolis,MN",44.933824,-93.284656,8,Southwest,King Field,5,1,Westminster
-93.293004999880793,45.034779999597333,285,02/13/2019 03:47am,"4330 Webber parkway ,Minneapolis,MN",45.03478,-93.293005,4,Camden,Webber - Camden,1,1,Westminster
-93.272489999913546,44.963775999662687,286,02/13/2019 03:53am,"1905 3RD AVE S,Minneapolis,MN",44.963776,-93.27249,6,Central,Steven's Square - Loring Heights,3,1,Westminster
-93.256574999836346,44.987150000172448,287,02/13/2019 03:54am,"1 2nd street ne,Minneapolis,MN",44.98715,-93.256575,3,University,Nicollet Island - East Bank,4,1,Westminster
-93.26188300000041,45.013293999818302,288,02/13/2019 03:57am,"2500 block 4th street ne,Minneapolis,MN",45.013294,-93.261883,1,Northeast,Holland,2,1,Westminster
-93.272460000328692,44.961445000086712,289,02/13/2019 03:59am,"2115 3RD AVE S,Minneapolis,MN",44.961445,-93.27246,10,Powderhorn,Whittier,3,1,Westminster
-93.257016000388091,45.010399000313669,290,02/13/2019 04:00am,"2200 block of washington street ne,Minneapolis,MN",45.010399,-93.257016,1,Northeast,Holland,2,1,Westminster
-93.272381000282905,44.961610999647974,291,02/13/2019 04:01am,"2101 3rd ave s,Minneapolis,MN",44.961611,-93.272381,10,Powderhorn,Whittier,3,1,Westminster
-93.317448000224999,44.999132999688243,292,02/13/2019 04:04am,"2900 Golden valley road,Minneapolis,MN",44.999133,-93.317448,5,Near North,Willard - Hay,1,1,Westminster
-93.231105999841986,44.963993999823288,293,02/13/2019 04:09am,"2806 riverside ave,Minneapolis,MN",44.963994,-93.231106,2,Longfellow,Seward,4,1,Westminster
-93.278458999982831,44.969515999963505,294,02/13/2019 04:18am,"1350 Nicollet Ave,Minneapolis,MN",44.969516,-93.278459,7,Central,Loring Park,3,1,Westminster
-93.277809999731687,44.96986599991601,295,02/13/2019 04:21am,"1386 NICOLLET MALL,Minneapolis,MN",44.969866,-93.27781,7,Central,Loring Park,3,1,Westminster
-93.252668000427832,45.010135999876525,296,02/13/2019 04:22am,"2200 MONROE ST NE,Minneapolis,MN",45.010136,-93.252668,1,Northeast,Holland,2,1,Westminster
-93.218670000120369,44.926954999573638,297,02/13/2019 04:23am,"42ND & MINNEHAHA AVE S,Minneapolis,MN",44.926955,-93.21867,12,Longfellow,Hiawatha,6,1,Westminster
-93.257552999970926,45.005230000264362,298,02/13/2019 04:24am,"1699 WASHINGTON ST NE,Minneapolis,MN",45.00523,-93.257553,1,Northeast,Sheridan,2,1,Westminster
-93.310116000253174,44.998616000128379,299,02/13/2019 04:25am,"2315 GOLDEN VALLEY RD,Minneapolis,MN",44.998616,-93.310116,5,Near North,Willard - Hay,1,1,Westminster
-93.212852999866016,44.941478000209599,300,02/13/2019 04:27am,"4190 E 34TH ST ,Minneapolis,MN",44.941478,-93.212853,2,Longfellow,Cooper,6,1,Westminster
-93.284751999705009,44.921246999849188,301,02/13/2019 04:36am,"4500 GRAND AVE S,Minneapolis,MN",44.921247,-93.284752,8,Southwest,King Field,5,1,Westminster
-93.288134000084028,44.946598999844014,302,02/13/2019 04:39am,"700 block of 31st street East,Minneapolis,MN",44.946599,-93.288134,10,Calhoun Isle,CARAG,5,1,Westminster
-93.284374000259845,44.934117999845853,303,02/13/2019 04:39am,"3798 GRAND AVE S,Minneapolis,MN",44.934118,-93.284374,8,Southwest,King Field,5,1,Westminster
-93.278626999636288,44.969650999893759,304,02/13/2019 04:44am,"1350 NICOLLET AVE S,Minneapolis,MN",44.969651,-93.278627,7,Central,Loring Park,3,1,Westminster
-93.278626999636288,44.969650999893759,305,02/13/2019 04:51am,"1350 NICOLLET AVE S,Minneapolis,MN",44.969651,-93.278627,7,Central,Loring Park,3,1,Westminster
-93.283376000102294,45.0122249999838,306,02/13/2019 08:13am,"3122 N 3rd St ,Minneapolis,MN",45.012225,-93.283376,5,Near North,Hawthorne,1,2,Westminster
-93.290887000234818,44.965678000139633,307,02/13/2019 08:17am,"1786 Bryant ave s ,Minneapolis,MN",44.965678,-93.290887,7,Calhoun Isle,Lowry Hill,3,2,Westminster
-93.255279000325572,44.939000000149917,308,02/13/2019 08:25am,"3514 14th ave s,Minneapolis,MN",44.939,-93.255279,9,Powderhorn,Powderhorn Park,6,2,Westminster
-93.284648000304912,45.013900999931252,309,02/13/2019 08:26am,"3222 4th st n,Minneapolis,MN",45.013901,-93.284648,4,Camden,McKinley,1,2,Westminster
-93.284665000189591,45.013846000092883,310,02/13/2019 08:26am,"3220 4th st n ,Minneapolis,MN",45.013846,-93.284665,4,Camden,McKinley,1,2,Westminster
-93.25523900027963,44.938636999597918,311,02/13/2019 08:30am,"3524 14th Avenue South,Minneapolis,MN",44.938637,-93.255239,9,Powderhorn,Powderhorn Park,6,2,Westminster
-93.301596000355119,45.011771999778034,312,02/13/2019 08:30am,"3010 Knox ave, Minneapolis,MN",45.011772,-93.301596,5,Near North,Jordan,1,2,Westminster
-93.284631000420291,45.0082730002988,313,02/13/2019 08:36am,"2732 4th st n ,Minneapolis,MN",45.008273,-93.284631,5,Near North,Hawthorne,1,2,Westminster
-93.280491000159486,44.968938000288517,314,02/13/2019 08:37am,"120 14TH ST W,Minneapolis,MN",44.968938,-93.280491,7,Central,Loring Park,3,2,Westminster
-93.250248000344925,44.983353000440673,315,02/13/2019 08:40am,"416 2nd Ave SE,Minneapolis,MN",44.983353,-93.250248,3,University,Marcy Holmes,4,2,Westminster
-93.252530000359172,44.987421000079166,316,02/13/2019 08:43am,"412 2nd Ave SE,Minneapolis,MN",44.987421,-93.25253,3,University,Marcy Holmes,4,2,Westminster
-93.28493299995796,45.007598999794084,317,02/13/2019 08:44am,"2734 4th St. N. ,Minneapolis,MN",45.007599,-93.284933,5,Near North,Hawthorne,1,2,Westminster
-93.289854000261869,44.98559699960191,318,02/13/2019 08:44am,"720 Aldrich avenue North,Minneapolis,MN",44.985597,-93.289854,5,Near North,Sumner - Glenwood,1,2,Westminster
-93.290884000096469,44.965202999818644,319,02/13/2019 08:48am,"1804 Bryant ave s,Minneapolis,MN",44.965203,-93.290884,7,Calhoun Isle,Lowry Hill,3,2,Westminster
-93.260565000374413,44.989942000323083,320,02/13/2019 08:55am,"106 3rd ave ne,Minneapolis,MN",44.989942,-93.260565,3,Northeast,St. Anthony West,2,2,Westminster
-93.280642999974418,44.968798000127663,321,02/13/2019 08:58am,"112 14TH ST W,Minneapolis,MN",44.968798,-93.280643,7,Central,Loring Park,3,2,Westminster
-93.252077000153406,44.993075000011288,322,02/13/2019 08:58am,"708 3rd ave ne,Minneapolis,MN",44.993075,-93.252077,3,Northeast,St. Anthony East,2,2,Westminster
-93.289881999754471,44.985443999740824,323,02/13/2019 08:59am,"723 Aldrich avenue North,Minneapolis,MN",44.985444,-93.289882,5,Near North,Sumner - Glenwood,1,2,Westminster
-93.280638999789971,44.968798000127663,324,02/13/2019 09:01am,"110 14TH ST W,Minneapolis,MN",44.968798,-93.280639,7,Central,Loring Park,3,2,Westminster
-93.250138999814965,44.983241999818517,325,02/13/2019 09:02am,"424 2nd ave se,Minneapolis,MN",44.983242,-93.250139,3,University,Marcy Holmes,4,2,Westminster
-93.284615999728544,45.005554999963351,326,02/13/2019 09:08am,"2520 4th St n,Minneapolis,MN",45.005555,-93.284616,5,Near North,Hawthorne,1,2,Westminster
-93.286181999999258,45.001823999677868,327,02/13/2019 09:09am,"2208 6th st n ,Minneapolis,MN",45.001824,-93.286182,5,Near North,Hawthorne,1,2,Westminster
-93.255189999818583,44.923996999861686,328,02/13/2019 09:10am,"4332 14th ave so,Minneapolis,MN",44.923997,-93.25519,11,Nokomis,Northrop,6,2,Westminster
-93.303683000370143,44.947432999633293,329,02/13/2019 09:10am,"3024 James ave s,Minneapolis,MN",44.947433,-93.303683,10,Calhoun Isle,ECCO,5,2,Westminster
-93.303697000116415,44.947642000278165,330,02/13/2019 09:13am,"3018 James ave s,Minneapolis,MN",44.947642,-93.303697,10,Calhoun Isle,ECCO,5,2,Westminster
-93.292120000437649,44.963977999984763,331,02/13/2019 09:13am,"1910 Colfax Ave s ,Minneapolis,MN",44.963978,-93.29212,7,Calhoun Isle,Lowry Hill,3,2,Westminster
-93.285976000392054,45.01257299984411,332,02/13/2019 09:15am,"3114 6th st n,Minneapolis,MN",45.012573,-93.285976,5,Near North,Hawthorne,1,2,Westminster
-93.290294999914295,44.985603999924706,333,02/13/2019 09:17am,"730 Aldrich avenue North,Minneapolis,MN",44.985604,-93.290295,5,Near North,Sumner - Glenwood,1,2,Westminster
-93.286227000275801,45.02301200010379,334,02/13/2019 09:19am,"3724 6th st n ,Minneapolis,MN",45.023012,-93.286227,4,Camden,McKinley,1,2,Westminster
-93.244435000275018,44.989849999677801,335,02/13/2019 09:27am,"816 5th Ave SE ,Minneapolis,MN",44.98985,-93.244435,3,University,Marcy Holmes,4,2,Westminster
-93.290758999728041,44.988181000053146,336,02/13/2019 09:31am,"1000 aldrich ave n,Minneapolis,MN",44.988181,-93.290759,5,Near North,Sumner - Glenwood,1,2,Westminster
-93.292209000045261,44.96371999977822,337,02/13/2019 09:31am,"1916 Colfax Ave s ,Minneapolis,MN",44.96372,-93.292209,7,Calhoun Isle,Lowry Hill,3,2,Westminster
-93.246332999668141,44.937979999877143,338,02/13/2019 09:31am,"3542 longfellow,Minneapolis,MN",44.93798,-93.246333,9,Powderhorn,Corcoran,6,2,Westminster
-93.303408000278978,44.944735000220135,339,02/13/2019 09:33am,"James ave s and W 32nd St. ,Minneapolis,MN",44.944735,-93.303408,10,Calhoun Isle,ECCO,5,2,Westminster
-93.246314999737422,44.935792999747207,340,02/13/2019 09:33am,"3700 longfellow,Minneapolis,MN",44.935793,-93.246315,12,Powderhorn,Standish,6,2,Westminster
-93.250092000345489,44.985665000039774,341,02/13/2019 09:33am,"316 4th ave se,Minneapolis,MN",44.985665,-93.250092,3,University,Marcy Holmes,4,2,Westminster
-93.29077699965876,44.988337000052582,342,02/13/2019 09:33am,"1028 aldrich ave n,Minneapolis,MN",44.988337,-93.290777,5,Near North,Sumner - Glenwood,1,2,Westminster
-93.255294000117999,44.935507000048062,343,02/13/2019 09:34am,"3708 14th av s,Minneapolis,MN",44.935507,-93.255294,9,Powderhorn,Powderhorn Park,6,2,Westminster
-93.258345999668109,44.992440999552514,344,02/13/2019 09:34am,"326 4th ave ne,Minneapolis,MN",44.992441,-93.258346,3,Northeast,St. Anthony West,2,2,Westminster
-93.290193999753228,44.986066999692355,345,02/13/2019 09:35am,"728 Aldrich avenue North,Minneapolis,MN",44.986067,-93.290194,5,Near North,Sumner - Glenwood,1,2,Westminster
-93.258345999668109,44.992440999552514,346,02/13/2019 09:36am,"326 4th ave ne,Minneapolis,MN",44.992441,-93.258346,3,Northeast,St. Anthony West,2,2,Westminster
-93.255209999841611,44.938136999922676,347,02/13/2019 09:37am,"3538 14th av s,Minneapolis,MN",44.938137,-93.25521,9,Powderhorn,Powderhorn Park,6,2,Westminster
-93.251467999948204,44.945376000102385,348,02/13/2019 09:38am,"3136 16 th ave s,Minneapolis,MN",44.945376,-93.251468,9,Powderhorn,Powderhorn Park,6,2,Westminster
-93.24674399973577,44.986903999619926,349,02/13/2019 09:38am,"520 5th ave se,Minneapolis,MN",44.986904,-93.246744,3,University,Marcy Holmes,4,2,Westminster
-93.254104000099517,44.94323200015674,350,02/13/2019 09:38am,"3250 15th ave s,Minneapolis,MN",44.943232,-93.254104,9,Powderhorn,Powderhorn Park,6,2,Westminster
-93.28114000041063,44.96850600015182,351,02/13/2019 09:40am,"1308 spruce pl,Minneapolis,MN",44.968506,-93.28114,7,Central,Loring Park,3,2,Westminster
-93.234341999783453,44.990244999906849,352,02/13/2019 09:48am,"1078 12th ave se,Minneapolis,MN",44.990245,-93.234342,2,University,Como,4,2,Westminster
-93.290757999681887,44.987954000376874,353,02/13/2019 09:50am,"950 Aldrich avenue North,Minneapolis,MN",44.987954,-93.290758,5,Near North,Sumner - Glenwood,1,2,Westminster
-93.294696999666769,44.963018999827057,354,02/13/2019 09:50am,"1950 Emerson Ave S,Minneapolis,MN",44.963019,-93.294697,7,Calhoun Isle,Lowry Hill,3,2,Westminster
-93.286238999929878,45.024074999661536,355,02/13/2019 09:50am,"3800 6th st n ,Minneapolis,MN",45.024075,-93.286239,4,Camden,Webber - Camden,1,2,Westminster
-93.286215999768558,45.022392000290608,356,02/13/2019 09:52am,"3706 6th st n,Minneapolis,MN",45.022392,-93.286216,4,Camden,McKinley,1,2,Westminster
-93.234318999622076,44.988640999682445,357,02/13/2019 09:52am,"1026 12th ave se,Minneapolis,MN",44.988641,-93.234319,2,University,Como,4,2,Westminster
-93.302089999753662,44.950096000130372,358,02/13/2019 09:53am,"THE MALL / IRVING AVE S ,Minneapolis,MN",44.950096,-93.30209,7,Calhoun Isle,East Isles,3,2,Westminster
-93.289085999918939,45.029132999988008,359,02/13/2019 09:54am,"4050 Aldrich ave n ,Minneapolis,MN",45.029133,-93.289086,4,Camden,Webber - Camden,1,2,Westminster
-93.286238999929878,45.022939000334645,360,02/13/2019 09:54am,"3722 6th st n ,Minneapolis,MN",45.022939,-93.286239,4,Camden,McKinley,1,2,Westminster
-93.303707999724395,44.946377000398286,361,02/13/2019 09:56am,"3102 James Ave S, Minneapolis,MN",44.946377,-93.303708,10,Calhoun Isle,ECCO,5,2,Westminster
-93.231720000277733,44.991731000085622,362,02/13/2019 09:57am,"1126 14th ave se,Minneapolis,MN",44.991731,-93.23172,1,University,Como,2,2,Westminster
-93.244732999628184,44.989443999840773,363,02/13/2019 10:01am,"804 5th ave se,Minneapolis,MN",44.989444,-93.244733,3,University,Marcy Holmes,4,2,Westminster
-93.255508000094096,44.933651999939912,364,02/13/2019 10:01am,"3826 14th Avenue South,Minneapolis,MN",44.933652,-93.255508,8,Powderhorn,Bancroft,6,2,Westminster
-93.233322000409942,44.993285999849093,365,02/13/2019 10:01am,"1200 winter st ne,Minneapolis,MN",44.993286,-93.233322,1,University,Como,2,2,Westminster
-93.303664000393269,44.945557000355336,366,02/13/2019 10:02am,"3128 James ave s,Minneapolis,MN",44.945557,-93.303664,10,Calhoun Isle,ECCO,5,2,Westminster
-93.255200000279729,44.938054999738483,367,02/13/2019 10:04am,"3542 14th Avenue South,Minneapolis,MN",44.938055,-93.2552,9,Powderhorn,Powderhorn Park,6,2,Westminster
-93.243661999701487,44.988970999611979,368,02/13/2019 10:05am,"804 6th ave se,Minneapolis,MN",44.988971,-93.243662,3,University,Marcy Holmes,4,2,Westminster
-93.233308999810447,44.993285999849093,369,02/13/2019 10:06am,"1202 winter st ne,Minneapolis,MN",44.993286,-93.233309,1,University,Como,2,2,Westminster
-93.291050999703828,44.991409999671816,370,02/13/2019 10:06am,"706 Bryant avenue North,Minneapolis,MN",44.99141,-93.291051,5,Near North,Near - North,1,2,Westminster
-93.247904000169456,44.985438000363501,371,02/13/2019 10:06am,"402 5th ave se,Minneapolis,MN",44.985438,-93.247904,3,University,Marcy Holmes,4,2,Westminster
-93.294697999712866,44.964085999569249,372,02/13/2019 10:07am,"1906 Emerson ave s ,Minneapolis,MN",44.964086,-93.294698,7,Calhoun Isle,Lowry Hill,3,2,Westminster
-93.294679999782147,44.961700000154963,373,02/13/2019 10:08am,"2104 EMERSON AVE S,Minneapolis,MN",44.9617,-93.29468,7,Calhoun Isle,Lowry Hill,3,2,Westminster
-93.247463999663807,44.985984000361384,374,02/13/2019 10:10am,"428 5TH AVE SE,Minneapolis,MN",44.985984,-93.247464,3,University,Marcy Holmes,4,2,Westminster
-93.294707000127914,44.962282000014341,375,02/13/2019 10:14am,"2012 Emerson Ave s,Minneapolis,MN",44.962282,-93.294707,7,Calhoun Isle,Lowry Hill,3,2,Westminster
-93.291050999703828,44.991409999671816,376,02/13/2019 10:19am,"722 bryant ave n,Minneapolis,MN",44.99141,-93.291051,5,Near North,Near - North,1,2,Westminster
-93.291050999703828,44.991409999671816,377,02/13/2019 10:20am,"716 Bryant avenue North,Minneapolis,MN",44.99141,-93.291051,5,Near North,Near - North,1,2,Westminster
-93.290778999751012,44.988391999890951,378,02/13/2019 10:22am,"1038 aldrich abr n ,Minneapolis,MN",44.988392,-93.290779,5,Near North,Sumner - Glenwood,1,2,Westminster
-93.289053000195793,45.025412000163726,379,02/13/2019 10:22am,"3850 Aldrich ave n ,Minneapolis,MN",45.025412,-93.289053,4,Camden,Webber - Camden,1,2,Westminster
-93.247177999964663,44.984139999861156,380,02/13/2019 10:22am,"314 6th ave se,Minneapolis,MN",44.98414,-93.247178,3,University,Marcy Holmes,4,2,Westminster
-93.259434000378803,44.997156000249277,381,02/13/2019 10:24am,"722 5th st ne,Minneapolis,MN",44.997156,-93.259434,3,Northeast,St. Anthony West,2,2,Westminster
-93.286224000137452,45.02418000000705,382,02/13/2019 10:25am,"3806 6th st n,Minneapolis,MN",45.02418,-93.286224,4,Camden,Webber - Camden,1,2,Westminster
-93.294663999943623,44.960535000389996,383,02/13/2019 10:25am,"2208 Emerson Ave S,Minneapolis,MN",44.960535,-93.294664,7,Calhoun Isle,East Isles,3,2,Westminster
-93.294720999874187,44.963083000080417,384,02/13/2019 10:27am,"1940 Emerson ave s,Minneapolis,MN",44.963083,-93.294721,7,Calhoun Isle,Lowry Hill,3,2,Westminster
-93.255910999792775,44.996743000089452,385,02/13/2019 10:28am,"646 summer st ne,Minneapolis,MN",44.996743,-93.255911,3,Northeast,St. Anthony East,2,2,Westminster
-93.289108000034162,45.030701000350916,386,02/13/2019 10:28am,"4144 aldrich ave n,Minneapolis,MN",45.030701,-93.289108,4,Camden,Webber - Camden,1,2,Westminster
-93.312351999944781,44.954045999723178,387,02/13/2019 10:30am,"2700 lake of the isles,Minneapolis,MN",44.954046,-93.312352,7,Calhoun Isle,Cedar - Isles - Dean,3,2,Westminster
-93.289072000172609,45.022821000288957,388,02/13/2019 10:30am,"3722 Aldrich ave n ,Minneapolis,MN",45.022821,-93.289072,4,Camden,McKinley,1,2,Westminster
-93.301088000310926,44.947434999725488,389,02/13/2019 10:32am,"3024 humboldt ave s ,Minneapolis,MN",44.947435,-93.301088,10,Calhoun Isle,ECCO,5,2,Westminster
-93.2531490001262,44.996748000319997,390,02/13/2019 10:32am,"688 summer st ne,Minneapolis,MN",44.996748,-93.253149,3,Northeast,St. Anthony East,2,2,Westminster
-93.241498999778969,44.986750999758897,391,02/13/2019 10:33am,"702 8th ave se,Minneapolis,MN",44.986751,-93.241499,3,University,Marcy Holmes,4,2,Westminster
-93.25211099992265,44.996736999812754,392,02/13/2019 10:34am,"706 summer st ne,Minneapolis,MN",44.996737,-93.252111,3,Northeast,St. Anthony East,2,2,Westminster
-93.246112000268567,44.946615999728635,393,02/13/2019 10:34am,"3044 Longfellow ave s,Minneapolis,MN",44.946616,-93.246112,9,Powderhorn,Corcoran,6,2,Westminster
-93.294760999920186,44.960282999560832,394,02/13/2019 10:35am,"2216 Emerson ave s,Minneapolis,MN",44.960283,-93.294761,7,Calhoun Isle,East Isles,3,2,Westminster
-93.291050999703828,44.991409999671816,395,02/13/2019 10:35am,"708 Bryant avenue North,Minneapolis,MN",44.99141,-93.291051,5,Near North,Near - North,1,2,Westminster
-93.256378999790968,44.992630000174415,396,02/13/2019 10:37am,"322 5th st ne,Minneapolis,MN",44.99263,-93.256379,3,Northeast,St. Anthony West,2,2,Westminster
-93.24637299971414,44.944317999875864,397,02/13/2019 10:38am,"3210 longfellow,Minneapolis,MN",44.944318,-93.246373,9,Powderhorn,Corcoran,6,2,Westminster
-93.257107000087956,44.993719000031888,398,02/13/2019 10:39am,"416 5th st ne,Minneapolis,MN",44.993719,-93.257107,3,Northeast,St. Anthony West,2,2,Westminster
-93.298583999951575,44.958020999569555,399,02/13/2019 10:39am,"2428 humboldt Ave s,Minneapolis,MN",44.958021,-93.298584,7,Calhoun Isle,East Isles,3,2,Westminster
-93.244896999996513,44.984620999559525,400,02/13/2019 10:39am,"412 7th ave se,Minneapolis,MN",44.984621,-93.244897,3,University,Marcy Holmes,4,2,Westminster
-93.246373999760237,44.94460999985165,401,02/13/2019 10:40am,"3200 Longfellow,Minneapolis,MN",44.94461,-93.246374,9,Powderhorn,Corcoran,6,2,Westminster
-93.294710000266264,44.963502999663774,402,02/13/2019 10:40am,"1924 Emerson ave s,Minneapolis,MN",44.963503,-93.29471,7,Calhoun Isle,Lowry Hill,3,2,Westminster
-93.242641000281878,44.9439689999694,403,02/13/2019 10:42am,"3218 21 ave s,Minneapolis,MN",44.943969,-93.242641,9,Powderhorn,Corcoran,6,2,Westminster
-93.254079999892042,44.94419000026835,404,02/13/2019 10:44am,"3216 15th ave so,Minneapolis,MN",44.94419,-93.25408,9,Powderhorn,Powderhorn Park,6,2,Westminster
-93.294763000012381,44.959996999861687,405,02/13/2019 10:47am,"2228 EMERSON AVE S,Minneapolis,MN",44.959997,-93.294763,7,Calhoun Isle,East Isles,3,2,Westminster
-93.245337999648939,44.988767000097027,406,02/13/2019 10:47am,"712 5th ave se,Minneapolis,MN",44.988767,-93.245338,3,University,Marcy Holmes,4,2,Westminster
-93.255710000416173,44.991294999764477,407,02/13/2019 10:52am,"214 5th st ne,Minneapolis,MN",44.991295,-93.25571,3,Northeast,St. Anthony West,2,2,Westminster
-93.289486000378588,44.985791999601133,408,02/13/2019 10:52am,"718 Aldrich avenue North,Minneapolis,MN",44.985792,-93.289486,5,Near North,Sumner - Glenwood,1,2,Westminster
-93.243945000161602,44.985755999739638,409,02/13/2019 10:53am,"514 7th ave se ,Minneapolis,MN",44.985756,-93.243945,3,University,Marcy Holmes,4,2,Westminster
-93.289039999596241,45.01910099961151,410,02/13/2019 10:57am,"3518 Aldrich ave n ,Minneapolis,MN",45.019101,-93.28904,4,Camden,McKinley,1,2,Westminster
-93.289050000057443,45.016865999966001,411,02/13/2019 11:05am,"3400 aldrich ave n ,Minneapolis,MN",45.016866,-93.28905,4,Camden,McKinley,1,2,Westminster
-93.294710000266264,44.963502999663774,412,02/13/2019 11:07am,"1924 EMERSON EVE S,Minneapolis,MN",44.963503,-93.29471,7,Calhoun Isle,Lowry Hill,3,2,Westminster
-93.289041999688493,45.017057999826875,413,02/13/2019 11:07am,"3410 aldrich ave n ,Minneapolis,MN",45.017058,-93.289042,4,Camden,McKinley,1,2,Westminster
-93.242590999774791,44.944315999783612,414,02/13/2019 11:08am,"3208 21st av s,Minneapolis,MN",44.944316,-93.242591,9,Powderhorn,Corcoran,6,2,Westminster
-93.299809999831609,44.944902999873591,415,02/13/2019 11:09am,"3148 homes ave,Minneapolis,MN",44.944903,-93.29981,10,Calhoun Isle,ECCO,5,2,Westminster
-93.281078000249465,44.968364999944868,416,02/13/2019 11:09am,"1408 SPRUCE PLACE,Minneapolis,MN",44.968365,-93.281078,7,Central,Loring Park,3,2,Westminster
-93.297573000093848,44.989579999817181,417,02/13/2019 11:10am,"1122 Humboldt avenue North,Minneapolis,MN",44.98958,-93.297573,5,Near North,Near - North,1,2,Westminster
-93.29594499966197,44.958449000421069,418,02/13/2019 11:10am,"2434 FREMONT AVE S,Minneapolis,MN",44.958449,-93.295945,7,Calhoun Isle,East Isles,3,2,Westminster
-93.245123999672785,44.943644000270467,419,02/13/2019 11:11am,"3228 19th Avenue South,Minneapolis,MN",44.943644,-93.245124,9,Powderhorn,Corcoran,6,2,Westminster
-93.298485999928914,44.956381000382919,420,02/13/2019 11:11am,"2524 humboldt Ave s,Minneapolis,MN",44.956381,-93.298486,7,Calhoun Isle,East Isles,3,2,Westminster
-93.283240000125886,44.962492999852088,421,02/13/2019 11:12am,"2024 pleasant ave ,Minneapolis,MN",44.962493,-93.28324,10,Powderhorn,Whittier,3,2,Westminster
-93.243293999818206,44.984384000321427,422,02/13/2019 11:12am,"428. 8th ave se,Minneapolis,MN",44.984384,-93.243294,3,University,Marcy Holmes,4,2,Westminster
-93.25522799977233,44.929571999748021,423,02/13/2019 11:12am,"4030 14th av s,Minneapolis,MN",44.929572,-93.255228,8,Powderhorn,Bancroft,6,2,Westminster
-93.242775000166091,44.985030999580999,424,02/13/2019 11:13am,"502 8th ave se,Minneapolis,MN",44.985031,-93.242775,3,University,Marcy Holmes,4,2,Westminster
-93.289007999919249,45.014424999813968,425,02/13/2019 11:13am,"3238 Aldrich ave n ,Minneapolis,MN",45.014425,-93.289008,4,Camden,McKinley,1,2,Westminster
-93.301109000380052,44.947272000302632,426,02/13/2019 11:13am,"3030 humboldt,Minneapolis,MN",44.947272,-93.301109,10,Calhoun Isle,ECCO,5,2,Westminster
-93.246383000175285,44.941776999608919,427,02/13/2019 11:14am,"3328 Longfellow,Minneapolis,MN",44.941777,-93.246383,9,Powderhorn,Corcoran,6,2,Westminster
-93.291050999703828,44.991409999671816,428,02/13/2019 11:14am,"700 Bryant ave n,Minneapolis,MN",44.99141,-93.291051,5,Near North,Near - North,1,2,Westminster
-93.260467000351753,45.001390000348295,429,02/13/2019 11:15am,"1314 5th st ne,Minneapolis,MN",45.00139,-93.260467,3,Northeast,Sheridan,2,2,Westminster
-93.242590999774791,44.944315999783612,430,02/13/2019 11:16am,"3208 21st ave s,Minneapolis,MN",44.944316,-93.242591,9,Powderhorn,Corcoran,6,2,Westminster
-93.298183000345148,44.991022999811662,431,02/13/2019 11:16am,"1208 humboldt ave n,Minneapolis,MN",44.991023,-93.298183,5,Near North,Near - North,1,2,Westminster
-93.245805999647132,44.983453999702363,432,02/13/2019 11:17am,"320 7th ave se,Minneapolis,MN",44.983454,-93.245806,3,University,Marcy Holmes,4,2,Westminster
-93.274970000065423,44.96545399970239,433,02/13/2019 11:18am,"128 18TH ST E,Minneapolis,MN",44.965454,-93.27497,6,Central,Steven's Square - Loring Heights,3,2,Westminster
-93.243820999839215,44.985912999785171,434,02/13/2019 11:18am,"528 7th ave se,Minneapolis,MN",44.985913,-93.243821,3,University,Marcy Holmes,4,2,Westminster
-93.259174000080009,45.001827999862371,435,02/13/2019 11:19am,"1328 6th st ne,Minneapolis,MN",45.001828,-93.259174,3,Northeast,Sheridan,2,2,Westminster
-93.268092000345518,45.000571000351442,436,02/13/2019 11:21am,"1220 main st ne,Minneapolis,MN",45.000571,-93.268092,3,Northeast,Sheridan,2,2,Westminster
-93.260502000167151,44.999273999895252,437,02/13/2019 11:24am,"1112 5th st ne,Minneapolis,MN",44.999274,-93.260502,3,Northeast,Sheridan,2,2,Westminster
-93.245472999579249,44.982059000122831,438,02/13/2019 11:24am,"220 8th ave se,Minneapolis,MN",44.982059,-93.245473,3,University,Marcy Holmes,4,2,Westminster
-93.27478699972022,44.965321999910429,439,02/13/2019 11:26am,"134 18th av e,Minneapolis,MN",44.965322,-93.274787,6,Central,Steven's Square - Loring Heights,3,2,Westminster
-93.246244000060528,44.983422000025314,440,02/13/2019 11:26am,"304 7TH AVE SE,Minneapolis,MN",44.983422,-93.246244,3,University,Marcy Holmes,4,2,Westminster
-93.275827000016022,44.965468000347983,441,02/13/2019 11:27am,"108 18TH ST E,Minneapolis,MN",44.965468,-93.275827,6,Central,Steven's Square - Loring Heights,3,2,Westminster
-93.255317000279319,45.000746000327695,442,02/13/2019 11:28am,"1234 jefferson st ne,Minneapolis,MN",45.000746,-93.255317,1,Northeast,Logan Park,2,2,Westminster
-93.245427000155871,44.982117000099549,443,02/13/2019 11:28am,"226 8th ave se,Minneapolis,MN",44.982117,-93.245427,3,University,Marcy Holmes,4,2,Westminster
-93.242629999774636,44.944569999805708,444,02/13/2019 11:29am,"3200 21st ave,Minneapolis,MN",44.94457,-93.24263,9,Powderhorn,Corcoran,6,2,Westminster
-93.282538000128568,44.965930000069477,445,02/13/2019 11:29am,"234 Clifton ,Minneapolis,MN",44.96593,-93.282538,7,Central,Loring Park,3,2,Westminster
-93.242629999774636,44.944569999805708,446,02/13/2019 11:30am,"3200 21st ave,Minneapolis,MN",44.94457,-93.24263,9,Powderhorn,Corcoran,6,2,Westminster
-93.231330000279229,44.9783350001602,447,02/13/2019 11:31am,"3548 17 ave a,Minneapolis,MN",44.978335,-93.23133,2,University,University of Minnesota,4,2,Westminster
-93.256275000390929,45.005804999800944,448,02/13/2019 11:32am,"1738 adams st ne,Minneapolis,MN",45.005805,-93.256275,1,Northeast,Logan Park,2,2,Westminster
-93.28114000041063,44.96850600015182,449,02/13/2019 11:32am,"1332 spruce pl,Minneapolis,MN",44.968506,-93.28114,7,Central,Loring Park,3,2,Westminster
-93.238244999906783,44.983773000023973,450,02/13/2019 11:32am,"526 11th ave se,Minneapolis,MN",44.983773,-93.238245,3,University,Marcy Holmes,4,2,Westminster
-93.258858999942845,45.008073000068975,451,02/13/2019 11:36am,"1918 6th st ne,Minneapolis,MN",45.008073,-93.258859,1,Northeast,Holland,2,2,Westminster
-93.296175000375911,44.940180999753409,452,02/13/2019 11:37am,"3434 Fremont ave s,Minneapolis,MN",44.940181,-93.296175,10,Calhoun Isle,CARAG,5,2,Westminster
-93.245868999854451,44.983374999656576,453,02/13/2019 11:38am,"312 7TH AVE SE,Minneapolis,MN",44.983375,-93.245869,3,University,Marcy Holmes,4,2,Westminster
-93.236033000422594,44.986532999598296,454,02/13/2019 11:38am,"814 11th ave se,Minneapolis,MN",44.986533,-93.236033,3,University,Marcy Holmes,4,2,Westminster
-93.297443000394139,44.938536000336228,455,02/13/2019 11:38am,"3534 Gerard ave s,Minneapolis,MN",44.938536,-93.297443,10,Calhoun Isle,CARAG,5,2,Westminster
-93.297944000115479,44.983106999888207,456,02/13/2019 11:40am,"514 Humboldt Ave N,Minneapolis,MN",44.983107,-93.297944,5,Near North,Harrison,3,2,Westminster
-93.283530000009478,44.965202999818644,457,02/13/2019 11:40am,"136 Clifton ave,Minneapolis,MN",44.965203,-93.28353,7,Central,Loring Park,3,2,Westminster
-93.283286999595305,44.959394999979338,458,02/13/2019 11:40am,"2322 pleasant ave ,Minneapolis,MN",44.959395,-93.283287,10,Powderhorn,Whittier,3,2,Westminster
-93.288998000357367,45.014345999768125,459,02/13/2019 11:41am,"3236 Aldrich ave n ,Minneapolis,MN",45.014346,-93.288998,4,Camden,McKinley,1,2,Westminster
-93.255516999609824,45.007300000394764,460,02/13/2019 11:41am,"1836 jefferson st ne,Minneapolis,MN",45.0073,-93.255517,1,Northeast,Logan Park,2,2,Westminster
-93.299838000223474,44.946124000422344,461,02/13/2019 11:41am,"3110 Holmes ave ,Minneapolis,MN",44.946124,-93.299838,10,Calhoun Isle,ECCO,5,2,Westminster
-93.27864899975151,44.966373999860252,462,02/13/2019 11:43am,"24 OAK GROVE ST,Minneapolis,MN",44.966374,-93.278649,7,Central,Loring Park,3,2,Westminster
-93.297469999840587,44.943239999626314,463,02/13/2019 11:44am,"3246 Girard ave s,Minneapolis,MN",44.94324,-93.29747,10,Calhoun Isle,CARAG,5,2,Westminster
-93.235700000354711,44.984768000043232,464,02/13/2019 11:44am,"706 12th ave se,Minneapolis,MN",44.984768,-93.2357,3,University,Marcy Holmes,4,2,Westminster
-93.275353999787228,44.965466000255788,465,02/13/2019 11:44am,"118 18TH ST E,Minneapolis,MN",44.965466,-93.275354,6,Central,Steven's Square - Loring Heights,3,2,Westminster
-93.244187999676399,44.98311800039545,466,02/13/2019 11:44am,"314 8th ave se,Minneapolis,MN",44.983118,-93.244188,3,University,Marcy Holmes,4,2,Westminster
-93.245954000176937,44.989457999587046,467,02/13/2019 11:45am,"422 8th street se,Minneapolis,MN",44.989458,-93.245954,3,University,Marcy Holmes,4,2,Westminster
-93.260383000075365,45.009527999717477,468,02/13/2019 11:45am,"2110 5th st ne,Minneapolis,MN",45.009528,-93.260383,1,Northeast,Holland,2,2,Westminster
-93.275839999716197,44.964078000099676,469,02/13/2019 11:48am,"116 19th st e,Minneapolis,MN",44.964078,-93.27584,6,Central,Steven's Square - Loring Heights,3,2,Westminster
-93.265820999939137,44.975474999571645,470,02/13/2019 11:48am,"412 6th st ,Minneapolis,MN",44.975475,-93.265821,7,Central,Downtown West,3,2,Westminster
-93.289046999919094,45.020888000181117,471,02/13/2019 11:48am,"3618 aldrich ave n ,Minneapolis,MN",45.020888,-93.289047,4,Camden,McKinley,1,2,Westminster
-93.260388000305909,45.009535000040273,472,02/13/2019 11:48am,"2112 5th st ne,Minneapolis,MN",45.009535,-93.260388,1,Northeast,Holland,2,2,Westminster
-93.289028999988318,45.009034000318934,473,02/13/2019 11:51am,"2814 aldrich ave n,Minneapolis,MN",45.009034,-93.289029,5,Near North,Hawthorne,1,2,Westminster
-93.256634999905259,44.947416999794768,474,02/13/2019 11:52am,"3024 13th ave s,Minneapolis,MN",44.947417,-93.256635,9,Powderhorn,Powderhorn Park,6,2,Westminster
-93.290765000004683,45.001105999842082,475,02/13/2019 11:53am,"2124 Bryant ave n ,Minneapolis,MN",45.001106,-93.290765,5,Near North,Hawthorne,1,2,Westminster
-93.290212999730102,44.986765999551267,476,02/13/2019 11:54am,"820 Aldrich ave n,Minneapolis,MN",44.986766,-93.290213,5,Near North,Sumner - Glenwood,1,2,Westminster
-93.250251999630052,44.941985000207637,477,02/13/2019 11:56am,"3330 17th Avenue South,Minneapolis,MN",44.941985,-93.250252,9,Powderhorn,Powderhorn Park,6,2,Westminster
-93.275602999578723,44.966164000068602,478,02/13/2019 12:00pm,"1700 STEVENS AVE S ,Minneapolis,MN",44.966164,-93.275603,6,Central,Steven's Square - Loring Heights,3,2,Westminster
-93.243833000392613,44.985897999992744,479,02/13/2019 12:00pm,"524 7th ave se,Minneapolis,MN",44.985898,-93.243833,3,University,Marcy Holmes,4,2,Westminster
-93.260605000420412,45.011962000446033,480,02/13/2019 12:00pm,"2324 5th St NE,Minneapolis,MN",45.011962,-93.260605,1,Northeast,Holland,2,2,Westminster
-93.259202999618708,45.000004000284434,481,02/13/2019 12:01pm,"1206 6th st ne,Minneapolis,MN",45.000004,-93.259203,3,Northeast,Sheridan,2,2,Westminster
-93.236854999658476,44.983512999725235,482,02/13/2019 12:01pm,"1208 6th st se,Minneapolis,MN",44.983513,-93.236855,3,University,Marcy Holmes,4,2,Westminster
-93.24665800026645,44.937913000384697,483,02/13/2019 12:01pm,"1834 36th Street East,Minneapolis,MN",44.937913,-93.246658,9,Powderhorn,Corcoran,6,2,Westminster
-93.244948999696533,44.986534999690548,484,02/13/2019 12:02pm,"604 6th st se,Minneapolis,MN",44.986535,-93.244949,3,University,Marcy Holmes,4,2,Westminster
-93.238363999998569,44.983606000416614,485,02/13/2019 12:03pm,"514 11th ave se,Minneapolis,MN",44.983606,-93.238364,3,University,Marcy Holmes,4,2,Westminster
-93.286426999606306,44.965488000370954,486,02/13/2019 12:03pm,"24 DELL PL,Minneapolis,MN",44.965488,-93.286427,7,Central,Loring Park,3,2,Westminster
-93.253942999869537,45.002341000137108,487,02/13/2019 12:03pm,"1410 Madison st NE,Minneapolis,MN",45.002341,-93.253943,1,Northeast,Logan Park,2,2,Westminster
-93.275636000201189,44.965004999681071,488,02/13/2019 12:06pm,"1802 stevens,Minneapolis,MN",44.965005,-93.275636,6,Central,Steven's Square - Loring Heights,3,2,Westminster
-93.29977299992396,44.989177000118502,489,02/13/2019 12:09pm,"1102 Irving ave n,Minneapolis,MN",44.989177,-93.299773,5,Near North,Near - North,1,2,Westminster
-93.2816489996016,44.954978000434437,490,02/13/2019 12:11pm,"2612 PILLSBURY AV S,Minneapolis,MN",44.954978,-93.281649,10,Powderhorn,Whittier,3,2,Westminster
-93.308524999728945,44.981589000032386,491,02/13/2019 12:11pm,"2204 4TH AVE N,Minneapolis,MN",44.981589,-93.308525,5,Near North,Harrison,3,2,Westminster
-93.246786999920062,44.937913000384697,492,02/13/2019 12:11pm,"1832 36th st e,Minneapolis,MN",44.937913,-93.246787,9,Powderhorn,Corcoran,6,2,Westminster
-93.274345000021697,44.963266999572397,493,02/13/2019 12:12pm,"1918 2ND AVE S,Minneapolis,MN",44.963267,-93.274345,6,Central,Steven's Square - Loring Heights,3,2,Westminster
-93.283286999595305,44.95834800026006,494,02/13/2019 12:13pm,"2420 pleasant ave ,Minneapolis,MN",44.958348,-93.283287,10,Powderhorn,Whittier,3,2,Westminster
-93.290832000396449,44.997567000316849,495,02/13/2019 12:14pm,"1802 Bryant avenue North,Minneapolis,MN",44.997567,-93.290832,5,Near North,Near - North,1,2,Westminster
-93.275642999624722,44.965927999977282,496,02/13/2019 12:14pm,"1714 Stevens Ave s,Minneapolis,MN",44.965928,-93.275643,6,Central,Steven's Square - Loring Heights,3,2,Westminster
-93.253972000307556,44.997909999946614,497,02/13/2019 12:15pm,"734 Madison st ne,Minneapolis,MN",44.99791,-93.253972,3,Northeast,St. Anthony East,2,2,Westminster
-93.290781999889361,44.998213999576478,498,02/13/2019 12:17pm,"1820 Bryant Ave., n,MN",44.998214,-93.290782,5,Near North,Near - North,1,2,Westminster
-93.250170000345179,44.995499000278699,499,02/13/2019 12:17pm,"606 jackson st ne,Minneapolis,MN",44.995499,-93.25017,3,Northeast,St. Anthony East,2,2,Westminster
-93.255274000094971,44.995994999769493,500,02/13/2019 12:18pm,"628 Jeffreson st ne,Minneapolis,MN",44.995995,-93.255274,3,Northeast,St. Anthony East,2,2,Westminster
-93.296671999912803,45.034570999851837,501,02/13/2019 12:21pm,"4342 Girard ave n ,Minneapolis,MN",45.034571,-93.296672,4,Camden,Webber - Camden,1,2,Westminster
-93.250156999745684,44.997160999580501,502,02/13/2019 12:21pm,"704 jackson st ne,Minneapolis,MN",44.997161,-93.250157,3,Northeast,St. Anthony East,2,2,Westminster
-93.237138000118591,44.985317000179464,503,02/13/2019 12:25pm,"710 11th ave se,Minneapolis,MN",44.985317,-93.237138,3,University,Marcy Holmes,4,2,Westminster
-93.283240000125886,44.962559000197757,504,02/13/2019 12:25pm,"2016 pleasant ave s,Minneapolis,MN",44.962559,-93.28324,10,Powderhorn,Whittier,3,2,Westminster
-93.256535999836501,44.947272000302632,505,02/13/2019 12:26pm,"3030 13 ave s,Minneapolis,MN",44.947272,-93.256536,9,Powderhorn,Powderhorn Park,6,2,Westminster
-93.298083000230235,45.032742000043299,506,02/13/2019 12:26pm,"4234 Humboldt ave n ,Minneapolis,MN",45.032742,-93.298083,4,Camden,Webber - Camden,1,2,Westminster
-93.230462999867541,44.989005000280599,507,02/13/2019 12:27pm,"1038 15th ave se,Minneapolis,MN",44.989005,-93.230463,1,University,Como,4,2,Westminster
-93.242183999891665,44.945031000380425,508,02/13/2019 12:28pm,"2102 32nd st,Minneapolis,MN",44.945031,-93.242184,9,Powderhorn,Corcoran,6,2,Westminster
-93.283717999685905,44.966041999838467,509,02/13/2019 12:28pm,"306 Clifton,Minneapolis,MN",44.966042,-93.283718,7,Central,Loring Park,3,2,Westminster
-93.242067999938229,44.945031000380425,510,02/13/2019 12:30pm,"2104 32nd st,Minneapolis,MN",44.945031,-93.242068,9,Powderhorn,Corcoran,6,2,Westminster
-93.244052999746089,44.983294999564635,511,02/13/2019 12:31pm,"328 8th ave se,Minneapolis,MN",44.983295,-93.244053,3,University,Marcy Holmes,4,2,Westminster
-93.24399499976937,44.983370000325294,512,02/13/2019 12:31pm,"342 8th Avenue SE,Minneapolis,MN",44.98337,-93.243995,3,University,Marcy Holmes,4,2,Westminster
-93.283236999987537,44.96186499967007,513,02/13/2019 12:31pm,"2100 pleasant ave s ,Minneapolis,MN",44.961865,-93.283237,10,Powderhorn,Whittier,3,2,Westminster
-93.234567000266793,44.986975000196139,514,02/13/2019 12:32pm,"922 12th ave se,Minneapolis,MN",44.986975,-93.234567,2,University,Como,4,2,Westminster
-93.285061999611571,44.966768000043203,515,02/13/2019 12:32pm,"400 Clifton,Minneapolis,MN",44.966768,-93.285062,7,Central,Loring Park,3,2,Westminster
-93.304230000414179,44.981793000446658,516,02/13/2019 12:32pm,"1822 4th av n,Minneapolis,MN",44.981793,-93.30423,5,Near North,Harrison,3,2,Westminster
-93.242864999819858,44.985737999808919,517,02/13/2019 12:33pm,"728 6th st se,Minneapolis,MN",44.985738,-93.242865,3,University,Marcy Holmes,4,2,Westminster
-93.297571000001597,44.989439999656327,518,02/13/2019 12:34pm,"1112 Humboldt ave n,Minneapolis,MN",44.98944,-93.297571,5,Near North,Near - North,1,2,Westminster
-93.297397000071442,44.946261000444849,519,02/13/2019 12:35pm,"3104 girard ave s,Minneapolis,MN",44.946261,-93.297397,10,Calhoun Isle,CARAG,5,2,Westminster
-93.244421999675524,44.982811999774015,520,02/13/2019 12:37pm,"304 8th Avenue SE,Minneapolis,MN",44.982812,-93.244422,3,University,Marcy Holmes,4,2,Westminster
-93.275642999624722,44.965884999792934,521,02/13/2019 12:38pm,"1724 STEVENS AVE ,Minneapolis,MN",44.965885,-93.275643,6,Central,Steven's Square - Loring Heights,3,2,Westminster
-93.294874999781371,44.939962999592808,522,02/13/2019 12:38pm,"3440 Emerson ave s,Minneapolis,MN",44.939963,-93.294875,10,Calhoun Isle,CARAG,5,2,Westminster
-93.299180999603436,44.993571000401403,523,02/13/2019 12:38pm,"1414 Irving avenue North,Minneapolis,MN",44.993571,-93.299181,5,Near North,Near - North,1,2,Westminster
-93.275294999764412,44.96587700032336,524,02/13/2019 12:38pm,"1726 Stevens Ave s,Minneapolis,MN",44.965877,-93.275295,6,Central,Steven's Square - Loring Heights,3,2,Westminster
-93.234314000290851,44.988500000374756,525,02/13/2019 12:41pm,"1020 12th ave se,Minneapolis,MN",44.9885,-93.234314,2,University,Como,4,2,Westminster
-93.261682999770585,44.944392999737204,526,02/13/2019 12:41pm,"3208 Elliot ave s,Minneapolis,MN",44.944393,-93.261683,9,Powderhorn,Powderhorn Park,6,2,Westminster
-93.290312999845014,45.007828999608705,527,02/13/2019 12:41pm,"2700 Bryant Ave n ,Minneapolis,MN",45.007829,-93.290313,5,Near North,Hawthorne,1,2,Westminster
-93.274939000434472,44.965441000002215,528,02/13/2019 12:43pm,"124 18TH ST E,Minneapolis,MN",44.965441,-93.274939,6,Central,Steven's Square - Loring Heights,3,2,Westminster
-93.309847000438708,44.981580999663436,529,02/13/2019 12:43pm,"2302 4TH AVE N,Minneapolis,MN",44.981581,-93.309847,5,Near North,Harrison,3,2,Westminster
-93.241237000287299,44.997487000224908,530,02/13/2019 12:45pm,"716 pierce st ne,Minneapolis,MN",44.997487,-93.241237,3,Northeast,Beltrami,2,2,Westminster
-93.29027099970682,45.009179999857167,531,02/13/2019 12:45pm,"2818 Bryant Ave n ,Minneapolis,MN",45.00918,-93.290271,5,Near North,Hawthorne,1,2,Westminster
-93.234350000152347,44.989818000000753,532,02/13/2019 12:47pm,"1205 talmage ave se,Minneapolis,MN",44.989818,-93.23435,2,University,Como,4,2,Westminster
-93.299815000062154,44.988448999821514,533,02/13/2019 12:47pm,"1030 Irving Ave. N.,Minneapolis,MN",44.988449,-93.299815,5,Near North,Near - North,1,2,Westminster
-93.241951999984792,44.945031000380425,534,02/13/2019 12:48pm,"2106 32nd Street East,Minneapolis,MN",44.945031,-93.241952,9,Powderhorn,Corcoran,6,2,Westminster
-93.248893999958113,44.998033000222847,535,02/13/2019 12:49pm,"736 van buren st ne,Minneapolis,MN",44.998033,-93.248894,3,Northeast,St. Anthony East,2,2,Westminster
-93.300326000244695,44.997165999811102,536,02/13/2019 12:49pm,"1726 James ave n,Minneapolis,MN",44.997166,-93.300326,5,Near North,Near - North,1,2,Westminster
-93.283329999779653,44.954329000183293,537,02/13/2019 12:50pm,"2638 pleasant ave ,Minneapolis,MN",44.954329,-93.28333,10,Powderhorn,Whittier,3,2,Westminster
-93.274278999676085,44.965619000116817,538,02/13/2019 12:50pm,"1714 2nd ave s,Minneapolis,MN",44.965619,-93.274279,6,Central,Steven's Square - Loring Heights,3,2,Westminster
-93.241373000263707,44.944933000357707,539,02/13/2019 12:52pm,"2116 32nd Street East,Minneapolis,MN",44.944933,-93.241373,9,Powderhorn,Corcoran,6,2,Westminster
-93.239996999761672,44.995972999654271,540,02/13/2019 12:53pm,"628 buchanan st ne,Minneapolis,MN",44.995973,-93.239997,3,Northeast,Beltrami,2,2,Westminster
-93.285868999954346,44.951405000240641,541,02/13/2019 12:53pm,"2814 Harriet ave s,Minneapolis,MN",44.951405,-93.285869,10,Powderhorn,Whittier,3,2,Westminster
-93.234793999943122,44.986261999691578,542,02/13/2019 12:54pm,"910 12TH AVE SE,Minneapolis,MN",44.986262,-93.234794,3,University,Marcy Holmes,4,2,Westminster
-93.285800000369704,44.958710999912796,543,02/13/2019 12:58pm,"2408 Harriet ave s,Minneapolis,MN",44.958711,-93.2858,10,Powderhorn,Whittier,3,2,Westminster
-93.234567000266793,44.986975000196139,544,02/13/2019 12:58pm,"926 12TH AVE SE,Minneapolis,MN",44.986975,-93.234567,2,University,Como,4,2,Westminster
-93.235130000149354,44.983259999749237,545,02/13/2019 01:02pm,"606 13th ave se,Minneapolis,MN",44.98326,-93.23513,3,University,Marcy Holmes,4,2,Westminster
-93.301215999918441,45.004391000244539,546,02/13/2019 01:02pm,"2420 James ave n ,Minneapolis,MN",45.004391,-93.301216,5,Near North,Jordan,1,2,Westminster
-93.297424000417266,44.944529999759709,547,02/13/2019 01:03pm,"3204 girard ave s,Minneapolis,MN",44.94453,-93.297424,10,Calhoun Isle,CARAG,5,2,Westminster
-93.239005999926917,44.982775999912519,548,02/13/2019 01:04pm,"1102 5th st se,Minneapolis,MN",44.982776,-93.239006,3,University,Marcy Holmes,4,2,Westminster
-93.230386999960047,44.947327000141001,549,02/13/2019 01:06pm,"3026 29th ave so,Minneapolis,MN",44.947327,-93.230387,2,Longfellow,Longfellow,6,2,Westminster
-93.235049000011315,44.983345000071722,550,02/13/2019 01:06pm,"610 13th ave se,Minneapolis,MN",44.983345,-93.235049,3,University,Marcy Holmes,4,2,Westminster
-93.238074000114977,44.93795799976192,551,02/13/2019 01:06pm,"2316 36th st e,Minneapolis,MN",44.937958,-93.238074,9,Powderhorn,Corcoran,6,2,Westminster
-93.236577000328282,44.983398999863994,552,02/13/2019 01:08pm,"1228 6th st se,Minneapolis,MN",44.983399,-93.236577,3,University,Marcy Holmes,4,2,Westminster
-93.299084999672971,45.003141000157086,553,02/13/2019 01:08pm,"2316 Irving ave n ,Minneapolis,MN",45.003141,-93.299085,5,Near North,Jordan,1,2,Westminster
-93.284477999659941,44.966585999744154,554,02/13/2019 01:09pm,"328 CLIFTON AVE,Minneapolis,MN",44.966586,-93.284478,7,Central,Loring Park,3,2,Westminster
-93.260386000213714,44.947380999933273,555,02/13/2019 01:09pm,"3028 10th Avenue South,Minneapolis,MN",44.947381,-93.260386,9,Powderhorn,Powderhorn Park,6,2,Westminster
-93.221856999600789,44.910347999960265,556,02/13/2019 01:10pm,"5112 35th av s,Minneapolis,MN",44.910348,-93.221857,12,Nokomis,Minnehaha,6,2,Westminster
-93.249489000416986,45.013518000255544,557,02/13/2019 01:12pm,"2510 jackson st ne,Minneapolis,MN",45.013518,-93.249489,1,Northeast,Holland,2,2,Westminster
-93.274027999792338,44.963943000169365,558,02/13/2019 01:12pm,"1900 2ND AVE S ,Minneapolis,MN",44.963943,-93.274028,6,Central,Steven's Square - Loring Heights,3,2,Westminster
-93.283314999987226,44.960477999560112,559,02/13/2019 01:12pm,"2216 PLEASANT AVE S,Minneapolis,MN",44.960478,-93.283315,10,Powderhorn,Whittier,3,2,Westminster
-93.244281000367835,44.982996000165315,560,02/13/2019 01:14pm,"310 8th ave se,Minneapolis,MN",44.982996,-93.244281,3,University,Marcy Holmes,4,2,Westminster
-93.244474000274863,44.984870000250339,561,02/13/2019 01:17pm,"710 5th st se,Minneapolis,MN",44.98487,-93.244474,3,University,Marcy Holmes,4,2,Westminster
-93.239971000361322,44.994314999637595,562,02/13/2019 01:17pm,"434 buchanan st ne,Minneapolis,MN",44.994315,-93.239971,3,Northeast,Beltrami,2,2,Westminster
-93.284532000351476,44.957884999593091,563,02/13/2019 01:18pm,"2436 grand Ave ,Minneapolis,MN",44.957885,-93.284532,10,Powderhorn,Whittier,3,2,Westminster
-93.304185000137636,44.993687000354839,564,02/13/2019 01:18pm,"1418 Morgan avenue North,Minneapolis,MN",44.993687,-93.304185,5,Near North,Willard - Hay,1,2,Westminster
-93.241721000124016,44.945031000380425,565,02/13/2019 01:19pm,"2110 32nd st,Minneapolis,MN",44.945031,-93.241721,9,Powderhorn,Corcoran,6,2,Westminster
-93.249405000140598,45.0164010001061,566,02/13/2019 01:20pm,"2648 jackson st ne,Minneapolis,MN",45.016401,-93.249405,1,Northeast,Holland,2,2,Westminster
-93.241837000077453,44.945031000380425,567,02/13/2019 01:21pm,"2108 32nd st,Minneapolis,MN",44.945031,-93.241837,9,Powderhorn,Corcoran,6,2,Westminster
-93.284540999867204,44.961169999995548,568,02/13/2019 01:22pm,"2120 grand ave s ,Minneapolis,MN",44.96117,-93.284541,10,Powderhorn,Whittier,3,2,Westminster
-93.239978999830953,44.9961370000226,569,02/13/2019 01:23pm,"634 buchanan st ne,Minneapolis,MN",44.996137,-93.239979,3,Northeast,Beltrami,2,2,Westminster
-93.245549000386006,44.981964000238463,570,02/13/2019 01:25pm,"210 8th Avenue SE,Minneapolis,MN",44.981964,-93.245549,3,University,Marcy Holmes,4,2,Westminster
-93.280968999719505,44.953605000070752,571,02/13/2019 01:27pm,"2701 pillsbury Ave s,Minneapolis,MN",44.953605,-93.280969,10,Powderhorn,Whittier,3,2,Westminster
-93.293625999740073,44.939680000032013,572,02/13/2019 01:28pm,"3458 DuPont ave s,Minneapolis,MN",44.93968,-93.293626,10,Calhoun Isle,CARAG,5,2,Westminster
-93.29016200007618,45.00796899976956,573,02/13/2019 01:29pm,"2704 Bryant Ave n,Minneapolis,MN",45.007969,-93.290162,5,Near North,Hawthorne,1,2,Westminster
-93.304099999815094,44.992427999852339,574,02/13/2019 01:29pm,"1328 Morgan Ave. N.,Minneapolis,MN",44.992428,-93.3041,5,Near North,Willard - Hay,1,2,Westminster
-93.284453000305689,44.962322000060283,575,02/13/2019 01:30pm,"2008 Grand Ave s,Minneapolis,MN",44.962322,-93.284453,10,Powderhorn,Whittier,3,2,Westminster
-93.248067999638408,44.987643999570992,576,02/13/2019 01:31pm,"408 6th street se,Minneapolis,MN",44.987644,-93.248068,3,University,Marcy Holmes,4,2,Westminster
-93.290273999845169,45.009107000088022,577,02/13/2019 01:33pm,"2816 Bryant Ave n ,Minneapolis,MN",45.009107,-93.290274,5,Near North,Hawthorne,1,2,Westminster
-93.249446000232695,45.006262000191214,578,02/13/2019 01:33pm,"1808 jackson st ne,Minneapolis,MN",45.006262,-93.249446,1,Northeast,Logan Park,2,2,Westminster
-93.275652000039713,44.958899999635321,579,02/13/2019 01:34pm,"2402 Stevens Ave S,Minneapolis,MN",44.9589,-93.275652,10,Powderhorn,Whittier,3,2,Westminster
-93.246790000058411,44.988450999913766,580,02/13/2019 01:35pm,"422 7th street se,Minneapolis,MN",44.988451,-93.24679,3,University,Marcy Holmes,4,2,Westminster
-93.249473999725296,45.01457999976725,581,02/13/2019 01:35pm,"2544 jackson st ne,Minneapolis,MN",45.01458,-93.249474,1,Northeast,Holland,2,2,Westminster
-93.299266999972019,44.993409000125325,582,02/13/2019 01:36pm,"1408 Irving ave n,Minneapolis,MN",44.993409,-93.299267,5,Near North,Near - North,1,2,Westminster
-93.227817000154403,44.985014999742475,583,02/13/2019 01:36pm,"1716 Rollins ave se,Minneapolis,MN",44.985015,-93.227817,2,University,Como,4,2,Westminster
-93.240150999668856,44.943104999696004,584,02/13/2019 01:37pm,"2226 E 33rd St ,Minneapolis,MN",44.943105,-93.240151,9,Powderhorn,Corcoran,6,2,Westminster
-93.234240999622386,44.982202999568813,585,02/13/2019 01:37pm,"1402 6th st se,Minneapolis,MN",44.982203,-93.234241,3,University,Marcy Holmes,4,2,Westminster
-93.226672999559241,44.984483000390185,586,02/13/2019 01:40pm,"832 18th ave se,Minneapolis,MN",44.984483,-93.226673,2,University,Como,4,2,Westminster
-93.297846000092818,45.005014000196013,587,02/13/2019 01:41pm,"2362 Humboldt ave n ,Minneapolis,MN",45.005014,-93.297846,5,Near North,Jordan,1,2,Westminster
-93.284596999751727,44.961315000387003,588,02/13/2019 01:41pm,"2118 Grand Ave s,Minneapolis,MN",44.961315,-93.284597,10,Powderhorn,Whittier,3,2,Westminster
-93.241489000217143,44.945030000334327,589,02/13/2019 01:42pm,"2114 32nd Street East,Minneapolis,MN",44.94503,-93.241489,9,Powderhorn,Corcoran,6,2,Westminster
-93.244709000320086,44.984961999996358,590,02/13/2019 01:43pm,"704 5th st SE,Minneapolis,MN",44.984962,-93.244709,3,University,Marcy Holmes,4,2,Westminster
-93.30289299991199,44.993902000377091,591,02/13/2019 01:43pm,"1426 Logan ave n,Minneapolis,MN",44.993902,-93.302893,5,Near North,Willard - Hay,1,2,Westminster
-93.297775999562703,45.007432000186725,592,02/13/2019 01:44pm,"2646 Humboldt ave n ,Minneapolis,MN",45.007432,-93.297776,5,Near North,Jordan,1,2,Westminster
-93.226623999997571,44.985795999785637,593,02/13/2019 01:45pm,"878 18th ave se,Minneapolis,MN",44.985796,-93.226624,2,University,Como,4,2,Westminster
-93.302817000004495,44.990677000043547,594,02/13/2019 01:47pm,"1230 Logan avenue North,Minneapolis,MN",44.990677,-93.302817,5,Near North,Near - North,1,2,Westminster
-93.321205999956874,44.945122000080289,595,02/13/2019 01:48pm,"3322 32 st e,Minneapolis,MN",44.945122,-93.321206,13,Calhoun Isle,West Calhoun,5,2,Westminster
-93.292195000298989,44.960431000090637,596,02/13/2019 01:48pm,"2210 colfax,Minneapolis,MN",44.960431,-93.292195,10,Calhoun Isle,Lowry Hill East,3,2,Westminster
-93.290529999959517,44.981239000079825,597,02/13/2019 01:49pm,"308 N Bryant Ave ,Minneapolis,MN",44.981239,-93.29053,5,Near North,Sumner - Glenwood,3,2,Westminster
-93.284825000373417,44.956628000082219,598,02/13/2019 01:50pm,"2520 grand Ave s,Minneapolis,MN",44.956628,-93.284825,10,Powderhorn,Whittier,3,2,Westminster
-93.228135000429916,44.989673999655395,599,02/13/2019 01:53pm,"1715 talmage ave se,Minneapolis,MN",44.989674,-93.228135,1,University,Como,4,2,Westminster
-93.297410999817771,44.938049000361104,600,02/13/2019 01:56pm,"3548 girard ave s,Minneapolis,MN",44.938049,-93.297411,10,Calhoun Isle,CARAG,5,2,Westminster
-93.285803999654831,44.958474999821419,601,02/13/2019 01:56pm,"2418 HARRIET AVE S,Minneapolis,MN",44.958475,-93.285804,10,Powderhorn,Whittier,3,2,Westminster
-93.296261999891328,44.942493000251829,602,02/13/2019 01:59pm,"3310 Fremont ave s,Minneapolis,MN",44.942493,-93.296262,10,Calhoun Isle,CARAG,5,2,Westminster
-93.255792999747086,45.012354999683566,603,02/13/2019 01:59pm,"2400 jefferson st ne,Minneapolis,MN",45.012355,-93.255793,1,Northeast,Holland,2,2,Westminster
-93.284549000236154,44.956799999920122,604,02/13/2019 02:00pm,"2516 Grand ave s,Minneapolis,MN",44.9568,-93.284549,10,Powderhorn,Whittier,3,2,Westminster
-93.228727999897217,44.947367000186944,605,02/13/2019 02:01pm,"3026 30th ave so,Minneapolis,MN",44.947367,-93.228728,2,Longfellow,Longfellow,6,2,Westminster
-93.300742999689646,44.986137000222413,606,02/13/2019 02:01pm,"722 Elwood Ave N,Minneapolis,MN",44.986137,-93.300743,5,Near North,Near - North,1,2,Westminster
-93.253381000033073,45.012678000189624,607,02/13/2019 02:01pm,"2414 howard st ne,Minneapolis,MN",45.012678,-93.253381,1,Northeast,Holland,2,2,Westminster
-93.290560999590411,44.98334199993343,608,02/13/2019 02:02pm,"508 Bryant Ave n,Minneapolis,MN",44.983342,-93.290561,5,Near North,Sumner - Glenwood,3,2,Westminster
-93.292220999699339,44.947563000232321,609,02/13/2019 02:05pm,"3020 Colfax ave s,Minneapolis,MN",44.947563,-93.292221,10,Calhoun Isle,CARAG,5,2,Westminster
-93.290571000051557,44.982945999658227,610,02/13/2019 02:05pm,"500 N Bryant Ave ,Minneapolis,MN",44.982946,-93.290571,5,Near North,Sumner - Glenwood,3,2,Westminster
-93.290393999983053,45.008143999745869,611,02/13/2019 02:06pm,"2710 Bryant Ave n,Minneapolis,MN",45.008144,-93.290394,5,Near North,Hawthorne,1,2,Westminster
-93.251202000272031,45.007743000139385,612,02/13/2019 02:06pm,"1852 quincy st ne,Minneapolis,MN",45.007743,-93.251202,1,Northeast,Logan Park,2,2,Westminster
-93.302837000027466,44.990611999744033,613,02/13/2019 02:06pm,"1228 Logan avenue North,Minneapolis,MN",44.990612,-93.302837,5,Near North,Near - North,1,2,Westminster
-93.292177000368213,44.959840999862308,614,02/13/2019 02:09pm,"2306 COLFAX AVE S,Minneapolis,MN",44.959841,-93.292177,10,Calhoun Isle,Lowry Hill East,3,2,Westminster
-93.290292999822043,45.009034000318934,615,02/13/2019 02:10pm,"2814 Bryant Ave n,Minneapolis,MN",45.009034,-93.290293,5,Near North,Hawthorne,1,2,Westminster
-93.254602999728604,45.013700999701427,616,02/13/2019 02:11pm,"2514 madison st ne,Minneapolis,MN",45.013701,-93.254603,1,Northeast,Holland,2,2,Westminster
-93.292358999767998,44.940180999753409,617,02/13/2019 02:11pm,"3434 Colfax ave s,Minneapolis,MN",44.940181,-93.292359,10,Calhoun Isle,CARAG,5,2,Westminster
-93.281752999901016,44.958301999937419,618,02/13/2019 02:12pm,"2420 PILLSBURY AVE S,Minneapolis,MN",44.958302,-93.281753,10,Powderhorn,Whittier,3,2,Westminster
-93.29906499965,45.006646999959116,619,02/13/2019 02:13pm,"2620 Irving ave n ,Minneapolis,MN",45.006647,-93.299065,5,Near North,Jordan,1,2,Westminster
-93.233612000293533,44.981966000330715,620,02/13/2019 02:15pm,"1416 6th st se,Minneapolis,MN",44.981966,-93.233612,3,University,Marcy Holmes,4,2,Westminster
-93.262151999814876,45.001814000116042,621,02/13/2019 02:16pm,"354 14th ave ne,Minneapolis,MN",45.001814,-93.262152,3,Northeast,Sheridan,2,2,Westminster
-93.259047999665427,44.957072999919092,622,02/13/2019 02:16pm,"2504 11TH AVE S ,Minneapolis,MN",44.957073,-93.259048,9,Phillips,Midtown Phillips,3,2,Westminster
-93.259080000241795,44.955969000269192,623,02/13/2019 02:17pm,"2538 11TH AVE S,Minneapolis,MN",44.955969,-93.25908,9,Phillips,Midtown Phillips,3,2,Westminster
-93.305451000063556,44.985261000294997,624,02/13/2019 02:22pm,"702 Newton Ave. N.,Minneapolis,MN",44.985261,-93.305451,5,Near North,Near - North,1,2,Westminster
-93.224267000121927,44.959989000392113,625,02/13/2019 02:23pm,"2304 33rd st,Minneapolis,MN",44.959989,-93.224267,2,Longfellow,Seward,4,2,Westminster
-93.226596999651804,44.986218000360509,626,02/13/2019 02:23pm,"1827 fairmount st se,Minneapolis,MN",44.986218,-93.226597,2,University,Como,4,2,Westminster
-93.284500999821262,44.958968000073185,627,02/13/2019 02:24pm,"2400 grand ave s ,Minneapolis,MN",44.958968,-93.284501,10,Powderhorn,Whittier,3,2,Westminster
-93.269896999946582,45.00133999984115,628,02/13/2019 02:25pm,"116 14th ave ne,Minneapolis,MN",45.00134,-93.269897,3,Northeast,Sheridan,2,2,Westminster
-93.237836999977503,44.944950000242386,629,02/13/2019 02:27pm,"2328 32nd st,Minneapolis,MN",44.94495,-93.237837,9,Powderhorn,Corcoran,6,2,Westminster
-93.292177000368213,44.959840999862308,630,02/13/2019 02:27pm,"2306 colfax,Minneapolis,MN",44.959841,-93.292177,10,Calhoun Isle,Lowry Hill East,3,2,Westminster
-93.262754999743379,45.003988999692638,631,02/13/2019 02:29pm,"332 16th ave ne,Minneapolis,MN",45.003989,-93.262755,3,Northeast,Sheridan,2,2,Westminster
-93.289694000077986,44.982938000188597,632,02/13/2019 02:29pm,"802 5th ave n,Minneapolis,MN",44.982938,-93.289694,5,Near North,Sumner - Glenwood,3,2,Westminster
-93.281697000016493,44.952224000237493,633,02/13/2019 02:32pm,"2748 Pillsbury ave ,Minneapolis,MN",44.952224,-93.281697,10,Powderhorn,Whittier,3,2,Westminster
-93.305412000063711,44.988059999869165,634,02/13/2019 02:32pm,"1002 Newton avenue North,Minneapolis,MN",44.98806,-93.305412,5,Near North,Near - North,1,2,Westminster
-93.270514999667455,45.001100999611481,635,02/13/2019 02:34pm,"104 14th ave ne,Minneapolis,MN",45.001101,-93.270515,3,Northeast,Sheridan,2,2,Westminster
-93.306703000243203,44.987210000241362,636,02/13/2019 02:35pm,"908 Oliver Ave n,Minneapolis,MN",44.98721,-93.306703,5,Near North,Near - North,1,2,Westminster
-93.309381999679488,44.986718000035751,637,02/13/2019 02:37pm,"814 queen ave n ,Minneapolis,MN",44.986718,-93.309382,5,Near North,Willard - Hay,1,2,Westminster
-93.239621999555595,44.98569799976292,638,02/13/2019 02:40pm,"800 7TH ST SE,Minneapolis,MN",44.985698,-93.239622,3,University,Marcy Holmes,4,2,Westminster
-93.314437999913707,44.991809000085311,639,02/13/2019 02:42pm,"1306 Upton ave n ,Minneapolis,MN",44.991809,-93.314438,5,Near North,Willard - Hay,1,2,Westminster
-93.292260999745281,44.945678999686152,640,02/13/2019 02:43pm,"3126 Colfax Ave S ,Minneapolis,MN",44.945679,-93.292261,10,Calhoun Isle,CARAG,5,2,Westminster
-93.297789000162197,44.979959000407575,641,02/13/2019 02:44pm,"258 humboldt Ave n,Minneapolis,MN",44.979959,-93.297789,5,Near North,Harrison,3,2,Westminster
-93.229235999941409,44.988255999914543,642,02/13/2019 02:45pm,"1012 16TH AVE SE,Minneapolis,MN",44.988256,-93.229236,1,University,Como,4,2,Westminster
-93.225979999976971,44.938882000104286,643,02/13/2019 02:45pm,"3520 32nd av s,Minneapolis,MN",44.938882,-93.22598,12,Longfellow,Howe,6,2,Westminster
-93.233804000154464,44.982038000053706,644,02/13/2019 02:45pm,"1410 6th st se,Minneapolis,MN",44.982038,-93.233804,3,University,Marcy Holmes,4,2,Westminster
-93.239621999555595,44.98569799976292,645,02/13/2019 02:48pm,"602 7th st se,Minneapolis,MN",44.985698,-93.239622,3,University,Marcy Holmes,4,2,Westminster
-93.250211000437275,44.940455999844573,646,02/13/2019 02:49pm,"3428 17th av s,Minneapolis,MN",44.940456,-93.250211,9,Powderhorn,Powderhorn Park,6,2,Westminster
-93.270319999668232,45.001169000049345,647,02/13/2019 02:49pm,"110 14th ave ne,Minneapolis,MN",45.001169,-93.27032,3,Northeast,Sheridan,2,2,Westminster
-93.224566000420566,44.926130000199407,648,02/13/2019 02:49pm,"4222 33 st e,Minneapolis,MN",44.92613,-93.224566,12,Nokomis,Ericsson,6,2,Westminster
-93.30541800034041,44.992313999991154,649,02/13/2019 02:50pm,"1322 Newton Ave N,Minneapolis,MN",44.992314,-93.305418,5,Near North,Willard - Hay,1,2,Westminster
-93.259031999826902,44.938378000244541,650,02/13/2019 02:50pm,"3536 11th Avenue South,Minneapolis,MN",44.938378,-93.259032,9,Powderhorn,Powderhorn Park,6,2,Westminster
-93.29309500043388,44.986456999690859,651,02/13/2019 02:51pm,"1100 8th street ,Minneapolis,MN",44.986457,-93.293095,5,Near North,Sumner - Glenwood,1,2,Westminster
-93.289783999731753,44.937430999740911,652,02/13/2019 02:53pm,"3604 Aldrich ave s,Minneapolis,MN",44.937431,-93.289784,10,Southwest,East Harriet,5,2,Westminster
-93.296768999889423,44.980289000337166,653,02/13/2019 02:53pm,"276 Girard Ave N,Minneapolis,MN",44.980289,-93.296769,5,Near North,Harrison,3,2,Westminster
-93.237859000092726,44.944950000242386,654,02/13/2019 02:55pm,"2326 32nd st e,Minneapolis,MN",44.94495,-93.237859,9,Powderhorn,Corcoran,6,2,Westminster
-93.289456999940569,44.963830000354278,655,02/13/2019 02:55pm,"1910 Bryant ave s ,Minneapolis,MN",44.96383,-93.289457,10,Calhoun Isle,Lowry Hill East,3,2,Westminster
-93.237086000418572,44.98466499978997,656,02/13/2019 02:56pm,"1112 7th ave se,Minneapolis,MN",44.984665,-93.237086,3,University,Marcy Holmes,4,2,Westminster
-93.285805999747026,44.958366000190836,657,02/13/2019 02:56pm,"2422 HARRIET AVE S,Minneapolis,MN",44.958366,-93.285806,10,Powderhorn,Whittier,3,2,Westminster
-93.292315000436872,45.000843000304258,658,02/13/2019 02:57pm,"2114 dupont Ave n,Minneapolis,MN",45.000843,-93.292315,5,Near North,Hawthorne,1,2,Westminster
-93.221989000292069,44.944450999713922,659,02/13/2019 02:58pm,"3214 35th ave so,Minneapolis,MN",44.944451,-93.221989,2,Longfellow,Longfellow,6,2,Westminster
-93.284565000074679,44.958250000237399,660,02/13/2019 02:59pm,"2424 grand ave s,Minneapolis,MN",44.95825,-93.284565,10,Powderhorn,Whittier,3,2,Westminster
-93.237173999980087,44.982970999911743,661,02/13/2019 03:00pm,"512 12th ave se,Minneapolis,MN",44.982971,-93.237174,3,University,Marcy Holmes,4,2,Westminster
-93.267556999955559,45.010077999899806,662,02/13/2019 03:00pm,"110 22nd ave ne,Minneapolis,MN",45.010078,-93.267557,3,Northeast,Bottineau,2,2,Westminster
-93.287017999880732,44.9605619998365,663,02/13/2019 03:02pm,"2202 GARFIELD AVE S,Minneapolis,MN",44.960562,-93.287018,10,Powderhorn,Whittier,3,2,Westminster
-93.311751000108529,44.993130999895754,664,02/13/2019 03:04pm,"1350 Sheridan avenue North,Minneapolis,MN",44.993131,-93.311751,5,Near North,Willard - Hay,1,2,Westminster
-93.265250999733837,45.015181999649599,665,02/13/2019 03:05pm,"230 26th ave ne,Minneapolis,MN",45.015182,-93.265251,1,Northeast,Marshall Terrace,2,2,Westminster
-93.270565000174599,45.001082999680762,666,02/13/2019 03:07pm,"102 14th ave ne,Minneapolis,MN",45.001083,-93.270565,3,Northeast,Sheridan,2,2,Westminster
-93.285840000415647,44.954867999858379,667,02/13/2019 03:09pm,"2618 Harrriet Av S,Minneapolis,MN",44.954868,-93.28584,10,Powderhorn,Whittier,3,2,Westminster
-93.311719000431481,44.991180999903293,668,02/13/2019 03:09pm,"1238 Sheridan ave n,Minneapolis,MN",44.991181,-93.311719,5,Near North,Willard - Hay,1,2,Westminster
-93.287089999603779,44.958329000283186,669,02/13/2019 03:10pm,"2424 GARFIELD AVE S,Minneapolis,MN",44.958329,-93.28709,10,Powderhorn,Whittier,3,2,Westminster
-93.233854999808386,44.982092999892075,670,02/13/2019 03:12pm,"1408 6th st se,Minneapolis,MN",44.982093,-93.233855,3,University,Marcy Holmes,4,2,Westminster
-93.259512000378493,45.009783999831768,671,02/13/2019 03:13pm,"504 22nd ave ne,Minneapolis,MN",45.009784,-93.259512,1,Northeast,Holland,2,2,Westminster
-93.257278999925859,45.005119999688304,672,02/13/2019 03:17pm,"624 17th ave ne,Minneapolis,MN",45.00512,-93.257279,1,Northeast,Logan Park,2,2,Westminster
-93.222524999828863,44.986331000175596,673,02/13/2019 03:20pm,"886 21st ave se,Minneapolis,MN",44.986331,-93.222525,2,University,Como,4,2,Westminster
-93.28722200029506,44.93910000026483,674,02/13/2019 03:20pm,"3508 Garfield ave s,Minneapolis,MN",44.9391,-93.287222,8,Powderhorn,Lyndale,5,2,Westminster
-93.28740599978704,44.938647000059063,675,02/13/2019 03:23pm,"3522 Garfield ave s,Minneapolis,MN",44.938647,-93.287406,8,Powderhorn,Lyndale,5,2,Westminster
-93.279126000164752,44.957482999940567,676,02/13/2019 03:23pm,"24 25th st w ,Minneapolis,MN",44.957483,-93.279126,10,Powderhorn,Whittier,3,2,Westminster
-93.25147800040935,44.952954999773453,677,02/13/2019 03:25pm,"2718 16TH AV S,Minneapolis,MN",44.952955,-93.251478,9,Phillips,East Phillips,3,2,Westminster
-93.309187999726362,44.999481000447872,678,02/13/2019 03:26pm,"1922 queen ave n,Minneapolis,MN",44.999481,-93.309188,5,Near North,Willard - Hay,1,2,Westminster
-93.257216999764694,45.008393000436683,679,02/13/2019 03:26pm,"628 20th ave ne,Minneapolis,MN",45.008393,-93.257217,1,Northeast,Holland,2,2,Westminster
-93.289396999871599,44.946507000098052,680,02/13/2019 03:27pm,"3104 Aldrich ave s,Minneapolis,MN",44.946507,-93.289397,10,Calhoun Isle,CARAG,5,2,Westminster
-93.306633999759242,44.995507999794427,681,02/13/2019 03:28pm,"1606 Oliver Ave. N. ,Minneapolis,MN",44.995508,-93.306634,5,Near North,Willard - Hay,1,2,Westminster
-93.254326000444507,44.944976999688834,682,02/13/2019 03:32pm,"1428 32nd st,Minneapolis,MN",44.944977,-93.254326,9,Powderhorn,Powderhorn Park,6,2,Westminster
-93.254375000006235,44.944976999688834,683,02/13/2019 03:34pm,"1422 32nd st,Minneapolis,MN",44.944977,-93.254375,9,Powderhorn,Powderhorn Park,6,2,Westminster
-93.234310000106404,44.983505000255605,684,02/13/2019 03:34pm,"1314 7th st se,Minneapolis,MN",44.983505,-93.23431,3,University,Marcy Holmes,4,2,Westminster
-93.251467999948204,44.952697999613065,685,02/13/2019 03:35pm,"2724 16TH AVE S,Minneapolis,MN",44.952698,-93.251468,9,Phillips,East Phillips,3,2,Westminster
-93.284964999635008,45.000228999868511,686,02/13/2019 03:36pm,"402 21st ave n,Minneapolis,MN",45.000229,-93.284965,5,Near North,Hawthorne,1,2,Westminster
-93.309171999887838,44.993702000147266,687,02/13/2019 03:40pm,"1410 Queen avenue North,Minneapolis,MN",44.993702,-93.309172,5,Near North,Willard - Hay,1,2,Westminster
-93.290287999591499,45.000239000329657,688,02/13/2019 03:41pm,"812 21st ave n,Minneapolis,MN",45.000239,-93.290288,5,Near North,Hawthorne,1,2,Westminster
-93.255019000026778,44.944256999760796,689,02/13/2019 03:58pm,"3226 14th ave s,Minneapolis,MN",44.944257,-93.255019,9,Powderhorn,Powderhorn Park,6,2,Westminster
-93.240962000196134,44.987395999825594,690,02/13/2019 04:05pm,"720 8th ave n,Minneapolis,MN",44.987396,-93.240962,3,University,Marcy Holmes,4,2,Westminster
-93.286449999767626,44.986357999622044,691,02/13/2019 04:08pm,"712 8th ave n,Minneapolis,MN",44.986358,-93.28645,5,Central,North Loop,1,2,Westminster
-93.241066999642271,44.983620000162944,692,02/13/2019 04:21pm,"928 5th street ,Minneapolis,MN",44.98362,-93.241067,3,University,Marcy Holmes,4,2,Westminster
-93.235017000334267,44.985741999993365,693,02/13/2019 04:23pm,"806 12 Avenue se,Minneapolis,MN",44.985742,-93.235017,3,University,Marcy Holmes,4,2,Westminster
-93.299374999556562,44.989773999770307,694,02/13/2019 04:38pm,"1122 Irving Ave n ,Minneapolis,MN",44.989774,-93.299375,5,Near North,Near - North,1,2,Westminster
-93.299802000361979,44.988340000190931,695,02/13/2019 04:40pm,"1026 Irving Ave n,Minneapolis,MN",44.98834,-93.299802,5,Near North,Near - North,1,2,Westminster
-93.233950999738795,44.898190999614997,696,02/13/2019 05:31pm,"5756 27th Avenue South,Minneapolis,MN",44.898191,-93.233951,11,Nokomis,Wenonah,6,2,Westminster
-93.23391199973895,44.899724000162507,697,02/13/2019 05:35pm,"5700 27th ave s,Minneapolis,MN",44.899724,-93.233912,11,Nokomis,Wenonah,6,2,Westminster
-93.23391199973895,44.901329000433066,698,02/13/2019 07:22pm,"5608 27th Ave S,Minneapolis,MN",44.901329,-93.233912,11,Nokomis,Wenonah,6,2,Westminster
-93.285279999772115,44.996215000022289,699,02/14/2019 08:24am,"1613 Lynn Curve Ave. N.,Minneapolis,MN",44.996215,-93.28528,5,Near North,Near - North,1,3,Westminster
-93.281878000269444,44.994180999753382,700,02/14/2019 08:26am,"2421 3rd st n,Minneapolis,MN",44.994181,-93.281878,5,Near North,Near - North,1,3,Westminster
-93.281878000269444,44.994180999753382,701,02/14/2019 08:29am,"2511 3rd st n,Minneapolis,MN",44.994181,-93.281878,5,Near North,Near - North,1,3,Westminster
-93.276467999898216,44.968914000081099,702,02/14/2019 08:33am,"223 14TH ST W,Minneapolis,MN",44.968914,-93.276468,7,Central,Loring Park,3,3,Westminster
-93.303054000141969,44.947450999564012,703,02/14/2019 08:37am,"3025 James ave s,Minneapolis,MN",44.947451,-93.303054,10,Calhoun Isle,ECCO,5,3,Westminster
-93.300557000105414,44.941055999634727,704,02/14/2019 08:40am,"3405 humboldt ave s,Minneapolis,MN",44.941056,-93.300557,10,Calhoun Isle,ECCO,5,3,Westminster
-93.289644999616996,44.987175999572798,705,02/14/2019 08:45am,"829 Lyndale Pl., N.,MN",44.987176,-93.289645,5,Near North,Sumner - Glenwood,1,3,Westminster
-93.30053800012854,44.940518000005738,706,02/14/2019 08:47am,"3423 humboldt ave s,Minneapolis,MN",44.940518,-93.300538,10,Calhoun Isle,ECCO,5,3,Westminster
-93.299376999648757,44.938612000243666,707,02/14/2019 08:55am,"3527 Holmes ave s,Minneapolis,MN",44.938612,-93.299377,10,Calhoun Isle,ECCO,5,3,Westminster
-93.299888999877396,44.944608999805553,708,02/14/2019 08:55am,"3200 Holmes ave s, minneapolis,MN",44.944609,-93.299889,10,Calhoun Isle,ECCO,5,3,Westminster
-93.246532999897966,44.983618000070692,709,02/14/2019 08:57am,"305 7th ave se,Minneapolis,MN",44.983618,-93.246533,3,University,Marcy Holmes,4,3,Westminster
-93.281878000269444,44.994180999753382,710,02/14/2019 08:58am,"2805 3rd st n ,Minneapolis,MN",44.994181,-93.281878,5,Near North,Near - North,1,3,Westminster
-93.281376999648785,44.968645000266577,711,02/14/2019 08:59am,"225 14TH ST W,Minneapolis,MN",44.968645,-93.281377,7,Central,Loring Park,3,3,Westminster
-93.276467999898216,44.968914000081099,712,02/14/2019 09:02am,"211 14TH ST W,Minneapolis,MN",44.968914,-93.276468,7,Central,Loring Park,3,3,Westminster
-93.233143000249243,44.993078000149637,713,02/14/2019 09:02am,"1229 winter st ne,Minneapolis,MN",44.993078,-93.233143,1,University,Como,2,3,Westminster
-93.285178999611105,45.011140000310832,714,02/14/2019 09:04am,"3011 4th st n ,Minneapolis,MN",45.01114,-93.285179,5,Near North,Hawthorne,1,3,Westminster
-93.284899000188659,45.012046999869199,715,02/14/2019 09:05am,"3107 4th st n,Minneapolis,MN",45.012047,-93.284899,5,Near North,Hawthorne,1,3,Westminster
-93.258141000107059,44.99107300031875,716,02/14/2019 09:06am,"305 3rd ave ne,Minneapolis,MN",44.991073,-93.258141,3,Northeast,St. Anthony West,2,3,Westminster
-93.281878000269444,44.994180999753382,717,02/14/2019 09:08am,"2605 3rd st n,Minneapolis,MN",44.994181,-93.281878,5,Near North,Near - North,1,3,Westminster
-93.259396000425056,44.990990000088459,718,02/14/2019 09:08am,"211 3rd ave ne,Minneapolis,MN",44.99099,-93.259396,3,Northeast,St. Anthony West,2,3,Westminster
-93.2422720003525,45.001698000162605,719,02/14/2019 09:12am,"1189 14th ave ne,Minneapolis,MN",45.001698,-93.242272,1,Northeast,Northeast Park,2,3,Westminster
-93.232386999560333,44.992486999875211,720,02/14/2019 09:15am,"1153 14th ave se,Minneapolis,MN",44.992487,-93.232387,1,University,Como,2,3,Westminster
-93.245769999785637,44.945172999734211,721,02/14/2019 09:17am,"3137 longfellow,Minneapolis,MN",44.945173,-93.24577,9,Powderhorn,Corcoran,6,3,Westminster
-93.231719000231635,44.9923469997143,722,02/14/2019 09:17am,"1148 14th ave se,Minneapolis,MN",44.992347,-93.231719,1,University,Como,2,3,Westminster
-93.253392999687151,44.936795000089262,723,02/14/2019 09:20am,"3625 15th ave so,Minneapolis,MN",44.936795,-93.253393,9,Powderhorn,Powderhorn Park,6,3,Westminster
-93.250898999788944,44.9467519997051,724,02/14/2019 09:21am,"3051 16th ave,Minneapolis,MN",44.946752,-93.250899,9,Powderhorn,Powderhorn Park,6,3,Westminster
-93.244538999675058,44.986001000246006,725,02/14/2019 09:23am,"519 7th ave se,Minneapolis,MN",44.986001,-93.244539,3,University,Marcy Holmes,4,3,Westminster
-93.253410999617927,44.939327999987256,726,02/14/2019 09:23am,"3503 15th av s,Minneapolis,MN",44.939328,-93.253411,9,Powderhorn,Powderhorn Park,6,3,Westminster
-93.286759999674189,45.005571999847973,727,02/14/2019 09:26am,"2525 6th st n,Minneapolis,MN",45.005572,-93.28676,5,Near North,Hawthorne,1,3,Westminster
-93.253431999686995,44.938397000221414,728,02/14/2019 09:26am,"3531 15th av s,Minneapolis,MN",44.938397,-93.253432,9,Powderhorn,Powderhorn Park,6,3,Westminster
-93.241935000100113,44.986969999965595,729,02/14/2019 09:28am,"703 8th ave se,Minneapolis,MN",44.98697,-93.241935,3,University,Marcy Holmes,4,3,Westminster
-93.280829999604748,44.966423000321242,730,02/14/2019 09:29am,"1521 spruce place ,Minneapolis,MN",44.966423,-93.28083,7,Central,Loring Park,3,3,Westminster
-93.236462999567721,44.986504000059597,731,02/14/2019 09:31am,"811 11th ave se,Minneapolis,MN",44.986504,-93.236463,3,University,Marcy Holmes,4,3,Westminster
-93.297463999563888,44.996664000043609,732,02/14/2019 09:31am,"1709 Girard Ave. N.,Minneapolis,MN",44.996664,-93.297464,5,Near North,Near - North,1,3,Westminster
-93.246817000404235,44.985489000017367,733,02/14/2019 09:31am,"423 6th ave se,Minneapolis,MN",44.985489,-93.246817,3,University,Marcy Holmes,4,3,Westminster
-93.243860999885214,44.984433999929195,734,02/14/2019 09:32am,"417 8th ave se,Minneapolis,MN",44.984434,-93.243861,3,University,Marcy Holmes,4,3,Westminster
-93.24582999985455,44.94441099966798,735,02/14/2019 09:34am,"3205 Longfellow Avenue South,Minneapolis,MN",44.944411,-93.24583,9,Powderhorn,Corcoran,6,3,Westminster
-93.247906000261651,44.984119999838185,736,02/14/2019 09:34am,"303 6th ave se,Minneapolis,MN",44.98412,-93.247906,3,University,Marcy Holmes,4,3,Westminster
-93.245062999557774,44.988638000443416,737,02/14/2019 09:35am,"507 7th ave se,Minneapolis,MN",44.988638,-93.245063,3,University,Marcy Holmes,4,3,Westminster
-93.255935000000193,44.938766000150849,738,02/14/2019 09:37am,"3521 13th ave s,Minneapolis,MN",44.938766,-93.255935,9,Powderhorn,Powderhorn Park,6,3,Westminster
-93.286877999719877,45.013526999771273,739,02/14/2019 09:38am,"3211 6th st n,Minneapolis,MN",45.013527,-93.286878,4,Camden,McKinley,1,3,Westminster
-93.286826000019857,45.013856999700806,740,02/14/2019 09:41am,"3221 6th st n,Minneapolis,MN",45.013857,-93.286826,4,Camden,McKinley,1,3,Westminster
-93.286718999582149,45.003374000110057,741,02/14/2019 09:43am,"2325 6th st n ,Minneapolis,MN",45.003374,-93.286719,5,Near North,Hawthorne,1,3,Westminster
-93.286581000412809,44.944469999690796,742,02/14/2019 09:48am,"3207 Garfield ave s ,Minneapolis,MN",44.94447,-93.286581,8,Powderhorn,Lyndale,5,3,Westminster
-93.287228999718536,44.939362999802654,743,02/14/2019 09:48am,"3500 Garfield ,Minneapolis,MN",44.939363,-93.287229,8,Powderhorn,Lyndale,5,3,Westminster
-93.280829999604748,44.966423000321242,744,02/14/2019 09:53am,"1523 spruce place ,Minneapolis,MN",44.966423,-93.28083,7,Central,Loring Park,3,3,Westminster
-93.231053000095869,44.99219699999162,745,02/14/2019 09:55am,"1143 15th ave se,Minneapolis,MN",44.992197,-93.231053,1,University,Como,2,3,Westminster
-93.279389999748673,44.968788999712615,746,02/14/2019 09:56am,"111 14TH ST W,Minneapolis,MN",44.968789,-93.27939,7,Central,Loring Park,3,3,Westminster
-93.289680000331714,45.027765999901021,747,02/14/2019 09:57am,"4001 Aldrich ave n ,Minneapolis,MN",45.027766,-93.28968,4,Camden,Webber - Camden,1,3,Westminster
-93.231098000372356,44.992652000289638,748,02/14/2019 09:59am,"1161 15th ave se,Minneapolis,MN",44.992652,-93.231098,1,University,Como,2,3,Westminster
-93.279380000186848,44.968788999712615,749,02/14/2019 10:00am,"109 14TH ST W,Minneapolis,MN",44.968789,-93.27938,7,Central,Loring Park,3,3,Westminster
-93.299689999693669,44.996618999767065,750,02/14/2019 10:03am,"1707 Irving Ave. N.,Minneapolis,MN",44.996619,-93.29969,5,Near North,Near - North,1,3,Westminster
-93.286822999881508,45.001876000277264,751,02/14/2019 10:04am,"2211 N 6th ave ,Minneapolis,MN",45.001876,-93.286823,5,Near North,Hawthorne,1,3,Westminster
-93.317670999716825,44.994239999776198,752,02/14/2019 10:06am,"1427 Washburn avenue North,Minneapolis,MN",44.99424,-93.317671,5,Near North,Willard - Hay,1,3,Westminster
-93.236245000306496,44.984768000043232,753,02/14/2019 10:07am,"703 12th ave se,Minneapolis,MN",44.984768,-93.236245,3,University,Marcy Holmes,4,3,Westminster
-93.236462999567721,44.986504000059597,754,02/14/2019 10:10am,"811 11th Ave se,Minneapolis,MN",44.986504,-93.236463,3,University,Marcy Holmes,4,3,Westminster
-93.245526000224686,44.982471000236501,755,02/14/2019 10:10am,"213 8th ave se,Minneapolis,MN",44.982471,-93.245526,3,University,Marcy Holmes,4,3,Westminster
-93.255882000254076,44.936321999860468,756,02/14/2019 10:11am,"3639 13TH AVE S,Minneapolis,MN",44.936322,-93.255882,9,Powderhorn,Powderhorn Park,6,3,Westminster
-93.296718000235501,44.944439000059845,757,02/14/2019 10:16am,"3205 girard ave s,Minneapolis,MN",44.944439,-93.296718,10,Calhoun Isle,CARAG,5,3,Westminster
-93.299455999694601,44.946084000376345,758,02/14/2019 10:18am,"3111 Holmes ave,Minneapolis,MN",44.946084,-93.299456,10,Calhoun Isle,ECCO,5,3,Westminster
-93.233824000177435,44.994071000076644,759,02/14/2019 10:20am,"1225 winter st ne,Minneapolis,MN",44.994071,-93.233824,1,University,Mid - City Industrial,2,3,Westminster
-93.273730000439116,44.964106999638375,760,02/14/2019 10:21am,"1831 2nd av s ,Minneapolis,MN",44.964107,-93.27373,6,Central,Steven's Square - Loring Heights,3,3,Westminster
-93.286464000413275,44.958533999844292,761,02/14/2019 10:22am,"3041 Garfield ave a,Minneapolis,MN",44.958534,-93.286464,10,Powderhorn,Whittier,3,3,Westminster
-93.289681000377811,45.028459000382611,762,02/14/2019 10:24am,"4027 aldrich ave n,Minneapolis,MN",45.028459,-93.289681,4,Camden,Webber - Camden,1,3,Westminster
-93.289591999870879,45.017369999825689,763,02/14/2019 10:25am,"3419 Aldrich ave n ,Minneapolis,MN",45.01737,-93.289592,4,Camden,McKinley,1,3,Westminster
-93.275290000433131,44.964487000075053,764,02/14/2019 10:25am,"1817 STEVENS AVE ,Minneapolis,MN",44.964487,-93.27529,6,Central,Steven's Square - Loring Heights,3,3,Westminster
-93.235929000123235,44.985272999949018,765,02/14/2019 10:26am,"729 12th Avenue SE ,Minneapolis,MN",44.985273,-93.235929,3,University,Marcy Holmes,4,3,Westminster
-93.314900999681356,45.000089999753754,766,02/14/2019 10:26am,"2013 upton ave n,Minneapolis,MN",45.00009,-93.314901,5,Near North,Willard - Hay,1,3,Westminster
-93.259353000240708,44.990920999604498,767,02/14/2019 10:26am,"213 3rd ave ne,Minneapolis,MN",44.990921,-93.259353,3,Northeast,St. Anthony West,2,3,Westminster
-93.296812000073714,44.940061999661623,768,02/14/2019 10:29am,"3439 girard ave s,Minneapolis,MN",44.940062,-93.296812,10,Calhoun Isle,CARAG,5,3,Westminster
-93.237577999724863,44.985810999578007,769,02/14/2019 10:29am,"725 11TH AVE SE,Minneapolis,MN",44.985811,-93.237578,3,University,Marcy Holmes,4,3,Westminster
-93.290797999727886,45.010331999921902,770,02/14/2019 10:30am,"2927 Bryant ave n ,Minneapolis,MN",45.010332,-93.290798,5,Near North,Hawthorne,1,3,Westminster
-93.304827000065984,44.990548000389936,771,02/14/2019 10:32am,"1227 Morgan Ave. N.,Minneapolis,MN",44.990548,-93.304827,5,Near North,Near - North,1,3,Westminster
-93.235218999757024,44.985773999670414,772,02/14/2019 10:33am,"807 12th Avenue SE,Minneapolis,MN",44.985774,-93.235219,3,University,Marcy Holmes,4,3,Westminster
-93.243420000232788,44.985067000341871,773,02/14/2019 10:33am,"501 8TH AVE SE,Minneapolis,MN",44.985067,-93.24342,3,University,Marcy Holmes,4,3,Westminster
-93.248403999844697,44.946993000026964,774,02/14/2019 10:33am,"3037 18th Ave S,Minneapolis,MN",44.946993,-93.248404,9,Powderhorn,Powderhorn Park,6,3,Westminster
-93.287267999718381,44.933968000123173,775,02/14/2019 10:34am,"3800 Garfield Ave.,Minneapolis,MN",44.933968,-93.287268,8,Southwest,King Field,5,3,Westminster
-93.24451500036696,44.939123999572985,776,02/14/2019 10:35am,"3509 19th ave so,Minneapolis,MN",44.939124,-93.244515,9,Powderhorn,Corcoran,6,3,Westminster
-93.296781999589598,44.943096000180333,777,02/14/2019 10:36am,"3253 girard ave s,Minneapolis,MN",44.943096,-93.296782,10,Calhoun Isle,CARAG,5,3,Westminster
-93.25048599962912,44.941213999726358,778,02/14/2019 10:37am,"1611 34TH ST E,Minneapolis,MN",44.941214,-93.250486,9,Powderhorn,Powderhorn Park,6,3,Westminster
-93.254475000121147,44.970578000374474,779,02/14/2019 10:41am,"521 12th ave s,Minneapolis,MN",44.970578,-93.254475,6,Central,Elliot Park,3,3,Westminster
-93.235066999942035,44.984191000414398,780,02/14/2019 10:43am,"703 13th ave se,Minneapolis,MN",44.984191,-93.235067,3,University,Marcy Holmes,4,3,Westminster
-93.235008999965316,44.984267000321836,781,02/14/2019 10:43am,"705 13th ave se,Minneapolis,MN",44.984267,-93.235009,3,University,Marcy Holmes,4,3,Westminster
-93.275294999764412,44.965860000438738,782,02/14/2019 10:43am,"1711 Stevens av s ,Minneapolis,MN",44.96586,-93.275295,6,Central,Steven's Square - Loring Heights,3,3,Westminster
-93.234652999736113,44.984621999605622,783,02/14/2019 10:44am,"715 13th ave se,Minneapolis,MN",44.984622,-93.234653,3,University,Marcy Holmes,4,3,Westminster
-93.240414000106,44.985247999695503,784,02/14/2019 10:45am,"907 6th st se,Minneapolis,MN",44.985248,-93.240414,3,University,Marcy Holmes,4,3,Westminster
-93.275290000433131,44.964499999775228,785,02/14/2019 10:45am,"1815 Stevens Ave ,Minneapolis,MN",44.9645,-93.27529,6,Central,Steven's Square - Loring Heights,3,3,Westminster
-93.245460999925172,44.982552000374596,786,02/14/2019 10:46am,"215 8th ave se,Minneapolis,MN",44.982552,-93.245461,3,University,Marcy Holmes,4,3,Westminster
-93.234187999876269,44.985773999670414,787,02/14/2019 10:47am,"815 13th ave se,Minneapolis,MN",44.985774,-93.234188,3,University,Marcy Holmes,4,3,Westminster
-93.316266999722245,44.992713999551484,788,02/14/2019 10:48am,"1339 Vincent avenue North,Minneapolis,MN",44.992714,-93.316267,5,Near North,Willard - Hay,1,3,Westminster
-93.254834999635477,44.991614000086088,789,02/14/2019 10:49am,"215 5th st ne,Minneapolis,MN",44.991614,-93.254835,3,Northeast,St. Anthony East,2,3,Westminster
-93.234950999988598,44.98434300022933,790,02/14/2019 10:50am,"707 13th ave se,Minneapolis,MN",44.984343,-93.234951,3,University,Marcy Holmes,4,3,Westminster
-93.303510999632863,44.986591999621112,791,02/14/2019 10:50am,"815 Logan Ave., North,MN",44.986592,-93.303511,5,Near North,Near - North,1,3,Westminster
-93.313670999616875,44.985434000178998,792,02/14/2019 10:57am,"711 thomas ave n,Minneapolis,MN",44.985434,-93.313671,5,Near North,Willard - Hay,1,3,Westminster
-93.233947999600446,44.985381000432881,793,02/14/2019 10:57am,"817 13th ave se,Minneapolis,MN",44.985381,-93.233948,3,University,Marcy Holmes,4,3,Westminster
-93.229676999593835,44.943075000111207,794,02/14/2019 10:58am,"3303 29th av s,Minneapolis,MN",44.943075,-93.229677,2,Longfellow,Longfellow,6,3,Westminster
-93.246817999551013,44.924944000365372,795,02/14/2019 11:00am,"1835 43RD ST E,Minneapolis,MN",44.924944,-93.246818,12,Nokomis,Ericsson,6,3,Westminster
-93.249645000416422,44.946952999981022,796,02/14/2019 11:02am,"3041 17th av s,Minneapolis,MN",44.946953,-93.249645,9,Powderhorn,Powderhorn Park,6,3,Westminster
-93.29682199963554,44.943531999602158,797,02/14/2019 11:03am,"3237 girad,Minneapolis,MN",44.943532,-93.296822,10,Calhoun Isle,CARAG,5,3,Westminster
-93.261868000207983,45.009857999647011,798,02/14/2019 11:06am,"2152 ne 4th ave,Minneapolis,MN",45.009858,-93.261868,1,Northeast,Holland,2,3,Westminster
-93.28547699986359,44.940293999568496,799,02/14/2019 11:07am,"3429 Harriet ave S,Minneapolis,MN",44.940294,-93.285477,8,Powderhorn,Lyndale,5,3,Westminster
-93.290265000329441,44.941480000301851,800,02/14/2019 11:08am,"844 34th st,Minneapolis,MN",44.94148,-93.290265,10,Calhoun Isle,CARAG,5,3,Westminster
-93.259988999892414,45.00251600011336,801,02/14/2019 11:08am,"1419 5th st ne,Minneapolis,MN",45.002516,-93.259989,3,Northeast,Sheridan,2,3,Westminster
-93.238718000135577,44.985843000154375,802,02/14/2019 11:10am,"917 7th st se ,Minneapolis,MN",44.985843,-93.238718,3,University,Marcy Holmes,4,3,Westminster
-93.250851000273428,44.944564000428329,803,02/14/2019 11:10am,"1605 32nd st,Minneapolis,MN",44.944564,-93.250851,9,Powderhorn,Powderhorn Park,6,3,Westminster
-93.303539000024784,44.990455999744654,804,02/14/2019 11:10am,"1227 Logan Ave. earth,Minneapolis,MN",44.990456,-93.303539,5,Near North,Near - North,1,3,Westminster
-93.253441000102043,44.996192999907066,805,02/14/2019 11:11am,"639 Madison St ne,Minneapolis,MN",44.996193,-93.253441,3,Northeast,St. Anthony East,2,3,Westminster
-93.299670999716852,45.007414000255949,806,02/14/2019 11:12am,"2647 Irving Ave n,Minneapolis,MN",45.007414,-93.299671,5,Near North,Jordan,1,3,Westminster
-93.311093000341657,44.995451999909903,807,02/14/2019 11:13am,"1605 Russell avenue North,Minneapolis,MN",44.995452,-93.311093,5,Near North,Willard - Hay,1,3,Westminster
-93.259983999661813,45.001394999679519,808,02/14/2019 11:14am,"1315 5th st ne,Minneapolis,MN",45.001395,-93.259984,3,Northeast,Sheridan,2,3,Westminster
-93.299743000339163,45.005296999756808,809,02/14/2019 11:15am,"2521 Irving ave n ,Minneapolis,MN",45.005297,-93.299743,5,Near North,Jordan,1,3,Westminster
-93.280499999675214,44.967170999741882,810,02/14/2019 11:16am,"1517 SPRUCE PL,Minneapolis,MN",44.967171,-93.2805,7,Central,Loring Park,3,3,Westminster
-93.275296999856607,44.966274999791437,811,02/14/2019 11:18am,"1701 Stevens av s ,Minneapolis,MN",44.966275,-93.275297,6,Central,Steven's Square - Loring Heights,3,3,Westminster
-93.274940999627404,44.966029000138292,812,02/14/2019 11:19am,"1707 STEVENS AVE S,Minneapolis,MN",44.966029,-93.274941,6,Central,Steven's Square - Loring Heights,3,3,Westminster
-93.246477000013499,44.988843000004522,813,02/14/2019 11:21am,"421 7th St. SE,Minneapolis,MN",44.988843,-93.246477,3,University,Marcy Holmes,4,3,Westminster
-93.260008999915385,45.002569999905631,814,02/14/2019 11:21am,"1421 5th st ne,Minneapolis,MN",45.00257,-93.260009,3,Northeast,Sheridan,2,3,Westminster
-93.295478999755971,44.944458000036718,815,02/14/2019 11:22am,"3205 Fremont ave s,Minneapolis,MN",44.944458,-93.295479,10,Calhoun Isle,CARAG,5,3,Westminster
-93.259353000240708,44.990920999604498,816,02/14/2019 11:23am,"213 3rd ave ne,Minneapolis,MN",44.990921,-93.259353,3,Northeast,St. Anthony West,2,3,Westminster
-93.290818999796954,45.008106999838219,817,02/14/2019 11:24am,"2711 Bryant Ave n,Minneapolis,MN",45.008107,-93.290819,5,Near North,Hawthorne,1,3,Westminster
-93.25998799984626,45.002387999606526,818,02/14/2019 11:24am,"1415 5th st ne,Minneapolis,MN",45.002388,-93.259988,3,Northeast,Sheridan,2,3,Westminster
-93.237571000301386,44.985821000039152,819,02/14/2019 11:24am,"727 11th ave se,Minneapolis,MN",44.985821,-93.237571,3,University,Marcy Holmes,4,3,Westminster
-93.238129999999444,44.985615000432006,820,02/14/2019 11:25am,"1023 7th st SE ,Minneapolis,MN",44.985615,-93.23813,3,University,Marcy Holmes,4,3,Westminster
-93.246290000383169,44.988813000419668,821,02/14/2019 11:26am,"423 7th ST SE,Minneapolis,MN",44.988813,-93.24629,3,University,Marcy Holmes,4,3,Westminster
-93.295524000032515,44.94171100016257,822,02/14/2019 11:27am,"3341 Fremont ave s,Minneapolis,MN",44.941711,-93.295524,10,Calhoun Isle,CARAG,5,3,Westminster
-93.285380999933182,44.940107999984264,823,02/14/2019 11:30am,"3435 Harriet ,Minneapolis,MN",44.940108,-93.285381,8,Powderhorn,Lyndale,5,3,Westminster
-93.228080999738324,44.947549999632827,824,02/14/2019 11:30am,"3025 30th ave so,Minneapolis,MN",44.94755,-93.228081,2,Longfellow,Longfellow,6,3,Westminster
-93.238258999653056,44.985665000039774,825,02/14/2019 11:30am,"1005 7TH ST SE,Minneapolis,MN",44.985665,-93.238259,3,University,Marcy Holmes,4,3,Westminster
-93.311095999580687,44.993938000238586,826,02/14/2019 11:31am,"1419 Russell avenue North,Minneapolis,MN",44.993938,-93.311096,5,Near North,Willard - Hay,1,3,Westminster
-93.234485000082657,44.98495299958131,827,02/14/2019 11:33am,"729 13th ave se,Minneapolis,MN",44.984953,-93.234485,3,University,Marcy Holmes,4,3,Westminster
-93.23425999959926,44.984022999861622,828,02/14/2019 11:34am,"1307 7th st se,Minneapolis,MN",44.984023,-93.23426,3,University,Marcy Holmes,4,3,Westminster
-93.238186999930065,44.985636999647852,829,02/14/2019 11:34am,"1017 7TH ST SE,Minneapolis,MN",44.985637,-93.238187,3,University,Marcy Holmes,4,3,Westminster
-93.294208999645605,44.94628399970685,830,02/14/2019 11:35am,"3105 Emerson ave s,Minneapolis,MN",44.946284,-93.294209,10,Calhoun Isle,CARAG,5,3,Westminster
-93.232362000206081,44.988313999891261,831,02/14/2019 11:36am,"1009 14th ave se,Minneapolis,MN",44.988314,-93.232362,2,University,Como,4,3,Westminster
-93.254735000419885,44.946787000419761,832,02/14/2019 11:37am,"3055 14th Avenue South,Minneapolis,MN",44.946787,-93.254735,9,Powderhorn,Powderhorn Park,6,3,Westminster
-93.30985599995438,45.002934999650563,833,02/14/2019 11:37am,"2321 queen ave n,Minneapolis,MN",45.002935,-93.309856,5,Near North,Willard - Hay,1,3,Westminster
-93.306001000245942,44.988999000003901,834,02/14/2019 11:38am,"1103 Newton Ave. N.,Minneapolis,MN",44.988999,-93.306001,5,Near North,Near - North,1,3,Westminster
-93.238112000068725,44.985607000063055,835,02/14/2019 11:38am,"1025 7th st se,Minneapolis,MN",44.985607,-93.238112,3,University,Marcy Holmes,4,3,Westminster
-93.248403999844697,44.944479000105844,836,02/14/2019 11:40am,"3205 18th Ave S,Minneapolis,MN",44.944479,-93.248404,9,Powderhorn,Powderhorn Park,6,3,Westminster
-93.28532700014091,44.939916000123333,837,02/14/2019 11:41am,"3441 Harriet ,Minneapolis,MN",44.939916,-93.285327,8,Powderhorn,Lyndale,5,3,Westminster
-93.238168999999289,44.985630000224376,838,02/14/2019 11:42am,"1019 7th st se,Minneapolis,MN",44.98563,-93.238169,3,University,Marcy Holmes,4,3,Westminster
-93.29415900003778,44.942599999790218,839,02/14/2019 11:44am,"3309 Emerson ave s,Minneapolis,MN",44.9426,-93.294159,10,Calhoun Isle,CARAG,5,3,Westminster
-93.286450999813781,44.958602000282156,840,02/14/2019 11:46am,"2417 Garfield av s ,Minneapolis,MN",44.958602,-93.286451,10,Powderhorn,Whittier,3,3,Westminster
-93.233450000017456,44.982409000075336,841,02/14/2019 11:49am,"1405 6th st se,Minneapolis,MN",44.982409,-93.23345,3,University,Marcy Holmes,4,3,Westminster
-93.268661999651499,45.014029999584864,842,02/14/2019 11:49am,"2527 california st ne,Minneapolis,MN",45.01403,-93.268662,1,Northeast,Marshall Terrace,2,3,Westminster
-93.258598999644107,44.999546999894164,843,02/14/2019 11:51am,"1127 6th st ne,Minneapolis,MN",44.999547,-93.258599,3,Northeast,Sheridan,2,3,Westminster
-93.259492000355522,44.970178999960922,844,02/14/2019 11:53am,"845 10th ave n,Minneapolis,MN",44.970179,-93.259492,6,Central,Elliot Park,3,3,Westminster
-93.253433999779247,45.001773000024002,845,02/14/2019 11:55am,"1305 madison st ne,Minneapolis,MN",45.001773,-93.253434,1,Northeast,Logan Park,2,3,Westminster
-93.281096000180241,44.933854000261931,846,02/14/2019 11:55am,"3805 pillsbury ave ,Minneapolis,MN",44.933854,-93.281096,8,Southwest,King Field,5,3,Westminster
-93.240199000083749,44.986860000288857,847,02/14/2019 11:55am,"717 9th Ave SE ,Minneapolis,MN",44.98686,-93.240199,3,University,Marcy Holmes,4,3,Westminster
-93.310034000069038,44.987172000287615,848,02/14/2019 11:55am,"905 Queen avenue North,Minneapolis,MN",44.987172,-93.310034,5,Near North,Willard - Hay,1,3,Westminster
-93.291802000162136,45.012605999567256,849,02/14/2019 11:57am,"3121 Colfax ave n ,Minneapolis,MN",45.012606,-93.291802,5,Near North,Hawthorne,1,3,Westminster
-93.261415000002216,45.002977999834854,850,02/14/2019 11:57am,"411 15th ave ne,Minneapolis,MN",45.002978,-93.261415,3,Northeast,Sheridan,2,3,Westminster
-93.286447999675431,44.955796000385135,851,02/14/2019 11:57am,"2543 GRAFILELD AVE S ,Minneapolis,MN",44.955796,-93.286448,10,Powderhorn,Whittier,3,3,Westminster
-93.294190999714829,44.989774999816461,852,02/14/2019 11:58am,"1207 Fremont Ave n,Minneapolis,MN",44.989775,-93.294191,5,Near North,Near - North,1,3,Westminster
-93.291881000207979,45.012097000376343,853,02/14/2019 12:00pm,"3021 Colfax ave n ,Minneapolis,MN",45.012097,-93.291881,5,Near North,Hawthorne,1,3,Westminster
-93.326284000306316,44.947818000300515,854,02/14/2019 12:03pm,"1915 30 1/2 st e,Minneapolis,MN",44.947818,-93.326284,13,Calhoun Isle,West Calhoun,3,3,Westminster
-93.225947000253825,44.984915999673717,855,02/14/2019 12:04pm,"849 19th ave se,Minneapolis,MN",44.984916,-93.225947,2,University,Como,4,3,Westminster
-93.217579000170701,44.946552000374595,856,02/14/2019 12:07pm,"3105 38th av s,Minneapolis,MN",44.946552,-93.217579,2,Longfellow,Cooper,6,3,Westminster
-93.228882999850498,44.987460000079011,857,02/14/2019 12:08pm,"989 17th Ave se,Minneapolis,MN",44.98746,-93.228883,2,University,Como,4,3,Westminster
-93.229671000216456,44.947559000047875,858,02/14/2019 12:10pm,"3021 29th av s,Minneapolis,MN",44.947559,-93.229671,2,Longfellow,Longfellow,6,3,Westminster
-93.285916000323141,44.95014599973814,859,02/14/2019 12:10pm,"2900 Harriet ,Minneapolis,MN",44.950146,-93.285916,10,Powderhorn,Whittier,3,3,Westminster
-93.291325999794992,44.985336000156337,860,02/14/2019 12:14pm,"855 Gertrude brown place,Minneapolis,MN",44.985336,-93.291326,5,Near North,Sumner - Glenwood,1,3,Westminster
-93.286719999628247,44.911913000184882,861,02/14/2019 12:15pm,"2015 Garfield ave s,Minneapolis,MN",44.911913,-93.28672,11,Southwest,Tangletown,5,3,Westminster
-93.221317999925702,44.932205999807081,862,02/14/2019 12:17pm,"3505 39th st,Minneapolis,MN",44.932206,-93.221318,12,Longfellow,Howe,6,3,Westminster
-93.265096999826653,45.000030999730882,863,02/14/2019 12:20pm,"227 12th ave ne,Minneapolis,MN",45.000031,-93.265097,3,Northeast,Sheridan,2,3,Westminster
-93.224017000284277,44.951179999757244,864,02/14/2019 12:20pm,"2821 33rd st,Minneapolis,MN",44.95118,-93.224017,2,Longfellow,Longfellow,4,3,Westminster
-93.2289219998504,44.985549000086337,865,02/14/2019 12:20pm,"925 17th ave se,Minneapolis,MN",44.985549,-93.228922,2,University,Como,4,3,Westminster
-93.264455999944403,45.01571900013181,866,02/14/2019 12:25pm,"315 26 1/2 Ave Ne,Minneapolis,MN",45.015719,-93.264456,1,Northeast,Marshall Terrace,2,3,Westminster
-93.298411000067574,45.015293000271811,867,02/14/2019 12:25pm,"3309 humboldt ave n,Minneapolis,MN",45.015293,-93.298411,4,Camden,Folwell,1,3,Westminster
-93.286440000205801,44.96258399955201,868,02/14/2019 12:25pm,"2003 GARFIELD AVE S,Minneapolis,MN",44.962584,-93.28644,10,Powderhorn,Whittier,3,3,Westminster
-93.299681000177998,45.015729999739733,869,02/14/2019 12:27pm,"3323 Irving avenue North,Minneapolis,MN",45.01573,-93.299681,4,Camden,Folwell,1,3,Westminster
-93.28647700011345,44.955723999762824,870,02/14/2019 12:28pm,"2545 GARFIELD AVE S ,Minneapolis,MN",44.955724,-93.286477,10,Powderhorn,Whittier,3,3,Westminster
-93.286462000321023,44.959230999611009,871,02/14/2019 12:28pm,"2351 GARFIELD AVE S,Minneapolis,MN",44.959231,-93.286462,10,Powderhorn,Whittier,3,3,Westminster
-93.2929679999732,44.944371999668078,872,02/14/2019 12:29pm,"3209 DuPont Ave S ,Minneapolis,MN",44.944372,-93.292968,10,Calhoun Isle,CARAG,5,3,Westminster
-93.290948000349886,45.030539000074839,873,02/14/2019 12:29pm,"4127 Bryant ave n ,Minneapolis,MN",45.030539,-93.290948,4,Camden,Webber - Camden,1,3,Westminster
-93.29418500033745,44.940803999704883,874,02/14/2019 12:29pm,"3413 Emerson ave s,Minneapolis,MN",44.940804,-93.294185,10,Calhoun Isle,CARAG,5,3,Westminster
-93.264350999598889,45.009485000432505,875,02/14/2019 12:30pm,"2107 3rd st ne,Minneapolis,MN",45.009485,-93.264351,3,Northeast,Bottineau,2,3,Westminster
-93.222669000174164,44.942783000135421,876,02/14/2019 12:31pm,"3311 34th ave so,Minneapolis,MN",44.942783,-93.222669,2,Longfellow,Longfellow,6,3,Westminster
-93.280945999558185,44.946225999730132,877,02/14/2019 12:34pm,"3111 pillsbury ave ,Minneapolis,MN",44.946226,-93.280946,8,Powderhorn,Lyndale,5,3,Westminster
-93.290795999635634,45.010660999805339,878,02/14/2019 12:34pm,"2939 Bryant ave n ,Minneapolis,MN",45.010661,-93.290796,5,Near North,Hawthorne,1,3,Westminster
-93.265915999823505,45.00725800025657,879,02/14/2019 12:35pm,"217 19th ave ne,Minneapolis,MN",45.007258,-93.265916,3,Northeast,Bottineau,2,3,Westminster
-93.219234000049028,44.990197000391333,880,02/14/2019 12:36pm,"1069 24TH AVE SE,Minneapolis,MN",44.990197,-93.219234,1,University,Como,4,3,Westminster
-93.264343000129315,45.008147999930316,881,02/14/2019 12:39pm,"1917 3rd st ne,Minneapolis,MN",45.008148,-93.264343,3,Northeast,Bottineau,2,3,Westminster
-93.218748000120058,44.990757000135488,882,02/14/2019 12:40pm,"1088 24TH AVE SE,Minneapolis,MN",44.990757,-93.218748,1,University,Como,4,3,Westminster
-93.306000000199788,44.993775999962509,883,02/14/2019 12:40pm,"1421 Newton ave n,Minneapolis,MN",44.993776,-93.306,5,Near North,Willard - Hay,1,3,Westminster
-93.280945000411407,44.946152999961043,884,02/14/2019 12:43pm,"3113 pills bury ,Minneapolis,MN",44.946153,-93.280945,8,Powderhorn,Lyndale,5,3,Westminster
-93.250361000160012,45.005938999685156,885,02/14/2019 12:44pm,"833 18Th Ave Ne,Minneapolis,MN",45.005939,-93.250361,1,Northeast,Logan Park,2,3,Westminster
-93.262687000204835,45.002165000114701,886,02/14/2019 12:48pm,"337 14th ave ne,Minneapolis,MN",45.002165,-93.262687,3,Northeast,Sheridan,2,3,Westminster
-93.286486999675276,44.955103999949699,887,02/14/2019 12:48pm,"2609 Garfield av s,Minneapolis,MN",44.955104,-93.286487,10,Powderhorn,Whittier,3,3,Westminster
-93.224521000144023,44.989437000417297,888,02/14/2019 12:49pm,"1055 20th ave se,Minneapolis,MN",44.989437,-93.224521,1,University,Como,4,3,Westminster
-93.283877999869787,44.962180999853331,889,02/14/2019 12:49pm,"2015 Grand ave s,Minneapolis,MN",44.962181,-93.283878,10,Powderhorn,Whittier,3,3,Westminster
-93.293411999763919,45.006580999613504,890,02/14/2019 12:51pm,"2619 dupont Ave n ,Minneapolis,MN",45.006581,-93.293412,5,Near North,Hawthorne,1,3,Westminster
-93.291779000000815,44.935068999634666,891,02/14/2019 12:52pm,"3725 Colfax ave s,Minneapolis,MN",44.935069,-93.291779,10,Southwest,East Harriet,5,3,Westminster
-93.289130000149328,44.963316000033444,892,02/14/2019 12:52pm,"1925 Aldrich Ave S,Minneapolis,MN",44.963316,-93.28913,10,Calhoun Isle,Lowry Hill East,3,3,Westminster
-93.220568000412868,44.989959000207762,893,02/14/2019 12:53pm,"1061 23rd Ave se,Minneapolis,MN",44.989959,-93.220568,1,University,Como,4,3,Westminster
-93.248795999935396,45.008631999767033,894,02/14/2019 12:53pm,"1921 jackson st ne,Minneapolis,MN",45.008632,-93.248796,1,Northeast,Holland,2,3,Westminster
-93.292892000065706,45.004144999692016,895,02/14/2019 12:53pm,"2409 dupont Ave n,Minneapolis,MN",45.004145,-93.292892,5,Near North,Hawthorne,1,3,Westminster
-93.28649199990582,44.952525999775105,896,02/14/2019 12:55pm,"2737 GARFIELD AVE S ,Minneapolis,MN",44.952526,-93.286492,10,Powderhorn,Whittier,3,3,Westminster
-93.294232999853023,44.939252000079819,897,02/14/2019 12:58pm,"3505 Emerson ave s,Minneapolis,MN",44.939252,-93.294233,10,Calhoun Isle,CARAG,5,3,Westminster
-93.25091699971972,45.009947000154,898,02/14/2019 12:59pm,"2207 quincy st ne,Minneapolis,MN",45.009947,-93.250917,1,Northeast,Holland,2,3,Westminster
-93.220613999836189,44.990938000388439,899,02/14/2019 01:00pm,"1095 23rd ave se,Minneapolis,MN",44.990938,-93.220614,1,University,Como,4,3,Westminster
-93.298378000344428,45.018831999796987,900,02/14/2019 01:03pm,"3505 humboldt ave n ,Minneapolis,MN",45.018832,-93.298378,4,Camden,Folwell,1,3,Westminster
-93.264455999944403,45.01571900013181,901,02/14/2019 01:03pm,"315 26 1/2 Ave Ne,Minneapolis,MN",45.015719,-93.264456,1,Northeast,Marshall Terrace,2,3,Westminster
-93.294772999574207,45.027353999787294,902,02/14/2019 01:03pm,"3955 Emerson ave n ,Minneapolis,MN",45.027354,-93.294773,4,Camden,Webber - Camden,1,3,Westminster
-93.282495999990374,44.961594999809449,903,02/14/2019 01:07pm,"2107 Pleasent ave ,Minneapolis,MN",44.961595,-93.282496,10,Powderhorn,Whittier,3,3,Westminster
-93.217160999780276,44.985220000202901,904,02/14/2019 01:08pm,"2511 cole ave se ,Minneapolis,MN",44.98522,-93.217161,2,University,Como,4,3,Westminster
-93.219321999610543,44.991174999626594,905,02/14/2019 01:08pm,"1105 24th ave se,Minneapolis,MN",44.991175,-93.219322,1,University,Como,4,3,Westminster
-93.289128000057133,45.037414999702548,906,02/14/2019 01:09pm,"4523 camden ave n ,Minneapolis,MN",45.037415,-93.289128,4,Camden,Lind - Bohanon,1,3,Westminster
-93.225894999654486,44.984578000274553,907,02/14/2019 01:12pm,"837 19th ave se,Minneapolis,MN",44.984578,-93.225895,2,University,Como,4,3,Westminster
-93.280940000180806,44.945199000033881,908,02/14/2019 01:12pm,"3147 pillabury ave ,Minneapolis,MN",44.945199,-93.28094,8,Powderhorn,Lyndale,5,3,Westminster
-93.208426999906067,44.947981999769524,909,02/14/2019 01:12pm,"3007 45th ave s,Minneapolis,MN",44.947982,-93.208427,2,Longfellow,Cooper,6,3,Westminster
-93.25470700002802,44.943166999857226,910,02/14/2019 01:13pm,"3253 14th ave s,Minneapolis,MN",44.943167,-93.254707,9,Powderhorn,Powderhorn Park,6,3,Westminster
-93.213770999931683,44.940026999846225,911,02/14/2019 01:16pm,"3443 41st av s,Minneapolis,MN",44.940027,-93.213771,12,Longfellow,Howe,6,3,Westminster
-93.228135999576693,44.937610999947765,912,02/14/2019 01:18pm,"3011 36th st e,Minneapolis,MN",44.937611,-93.228136,12,Longfellow,Howe,6,3,Westminster
-93.30599900015369,45.018065000399474,913,02/14/2019 01:19pm,"3443 Newton avenue North,Minneapolis,MN",45.018065,-93.305999,4,Camden,Folwell,1,3,Westminster
-93.286496000090267,44.954870999996729,914,02/14/2019 01:20pm,"2619 Garfield av s ,Minneapolis,MN",44.954871,-93.286496,10,Powderhorn,Whittier,3,3,Westminster
-93.286475000021198,44.948781999789503,915,02/14/2019 01:21pm,"2949 GARFIELD ,Minneapolis,MN",44.948782,-93.286475,10,Powderhorn,Whittier,3,3,Westminster
-93.281096000180241,44.93363500005529,916,02/14/2019 01:24pm,"3815 pills bury ,Minneapolis,MN",44.933635,-93.281096,8,Southwest,King Field,5,3,Westminster
-93.228490999759799,44.989061000165066,917,02/14/2019 01:25pm,"1043 17th ave se,Minneapolis,MN",44.989061,-93.228491,1,University,Como,4,3,Westminster
-93.291301999587574,44.995048000165127,918,02/14/2019 01:26pm,"915 16th Ave. N.,Minneapolis,MN",44.995048,-93.291302,5,Near North,Near - North,1,3,Westminster
-93.289194000402745,44.938577000428268,919,02/14/2019 01:27pm,"3529 Aldrich ave s,Minneapolis,MN",44.938577,-93.289194,10,Calhoun Isle,CARAG,5,3,Westminster
-93.220613999836189,44.986694999874373,920,02/14/2019 01:28pm,"899 23rd ave se,Minneapolis,MN",44.986695,-93.220614,2,University,Como,4,3,Westminster
-93.293073000318657,44.911110000026554,921,02/14/2019 01:31pm,"5039 dupont Ave S ,Minneapolis,MN",44.91111,-93.293073,13,Southwest,Lynnhurst,5,3,Westminster
-93.305980000176817,45.009895999600758,922,02/14/2019 01:31pm,"2907 newton ave n,Minneapolis,MN",45.009896,-93.30598,5,Near North,Jordan,1,3,Westminster
-93.286431999836907,44.952588999982424,923,02/14/2019 01:31pm,"2735 Garfield Ave S,Minneapolis,MN",44.952589,-93.286432,10,Powderhorn,Whittier,3,3,Westminster
-93.285241999818425,44.956305999622259,924,02/14/2019 01:32pm,"2525 Harriet Ave s,Minneapolis,MN",44.956306,-93.285242,10,Powderhorn,Whittier,3,3,Westminster
-93.250565999721061,45.01257599998246,925,02/14/2019 01:33pm,"2409 Quincy st ne,Minneapolis,MN",45.012576,-93.250566,1,Northeast,Holland,2,3,Westminster
-93.294373000013877,45.046900000035009,926,02/14/2019 01:34pm,"5037 dupont Ave n,Minneapolis,MN",45.0469,-93.294373,4,Camden,Lind - Bohanon,1,3,Westminster
-93.286448999721529,44.959786000023939,927,02/14/2019 01:35pm,"2305 GARFIELD AVE S,Minneapolis,MN",44.959786,-93.286449,10,Powderhorn,Whittier,3,3,Westminster
-93.284819000096718,44.955414999902359,928,02/14/2019 01:37pm,"2607 HARRIET AVE S,Minneapolis,MN",44.955415,-93.284819,10,Powderhorn,Whittier,3,3,Westminster
-93.219288999887397,44.988572000097804,929,02/14/2019 01:38pm,"1019 24th ave se,Minneapolis,MN",44.988572,-93.219289,1,University,Como,4,3,Westminster
-93.243491999955779,45.010077999899806,930,02/14/2019 01:39pm,"2203 taylor st ne,Minneapolis,MN",45.010078,-93.243492,1,Northeast,Windom Park,2,3,Westminster
-93.215437000317252,44.990393000436654,931,02/14/2019 01:40pm,"1075 27th Ave se,Minneapolis,MN",44.990393,-93.215437,1,University,Como,4,3,Westminster
-93.245250000087424,45.012743999635916,932,02/14/2019 01:43pm,"2417 Polk st ne,Minneapolis,MN",45.012744,-93.24525,1,Northeast,Windom Park,2,3,Westminster
-93.209786999670257,44.911178999611195,933,02/14/2019 01:44pm,"5043 44th ave S,Minneapolis,MN",44.911179,-93.209787,12,Nokomis,Minnehaha,6,3,Westminster
-93.224958999658099,44.89895499977348,934,02/14/2019 01:46pm,"5737 sander dr,Minneapolis,MN",44.898955,-93.224959,11,Nokomis,Wenonah,6,3,Westminster
-93.290510999982644,45.047376000402153,935,02/14/2019 01:47pm,"5045 Aldrich ave n ,Minneapolis,MN",45.047376,-93.290511,4,Camden,Lind - Bohanon,1,3,Westminster
-93.250578000274459,45.011110999872812,936,02/14/2019 01:49pm,"2303 Quincy St ne,Minneapolis,MN",45.011111,-93.250578,1,Northeast,Holland,2,3,Westminster
-93.28391799991573,44.960479999652307,937,02/14/2019 01:49pm,"2209 GRAND AVE S,Minneapolis,MN",44.96048,-93.283918,10,Powderhorn,Whittier,3,3,Westminster
-93.287875999877429,45.04131999991813,938,02/14/2019 01:50pm,"4735 6th st n ,Minneapolis,MN",45.04132,-93.287876,4,Camden,Lind - Bohanon,1,3,Westminster
-93.298678999835943,44.99504399998068,939,02/14/2019 01:51pm,"1411 16th Ave. N.,Minneapolis,MN",44.995044,-93.298679,5,Near North,Near - North,1,3,Westminster
-93.218655000327942,44.975787999616557,940,02/14/2019 01:54pm,"481 25th ave se,Minneapolis,MN",44.975788,-93.218655,2,University,Prospect Park - East River Road,4,3,Westminster
-93.243495000094128,45.007158000141658,941,02/14/2019 01:55pm,"1835 taylor st NE,Minneapolis,MN",45.007158,-93.243495,1,Northeast,Windom Park,2,3,Westminster
-93.244516000413057,45.005505000355527,942,02/14/2019 02:02pm,"1717 polk st ne,Minneapolis,MN",45.005505,-93.244516,1,Northeast,Northeast Park,2,3,Westminster
-93.310081000437776,45.032504999905882,943,02/14/2019 02:13pm,"4239 Queen avenue North,Minneapolis,MN",45.032505,-93.310081,4,Camden,Victory,1,3,Westminster
-93.217322000010256,44.932236000291255,944,02/14/2019 02:13pm,"3817 39th st e ,Minneapolis,MN",44.932236,-93.217322,12,Longfellow,Howe,6,3,Westminster
-93.299707999624445,45.005749999962575,945,02/14/2019 02:18pm,"2535 Irving Ave n,Minneapolis,MN",45.00575,-93.299708,5,Near North,Jordan,1,3,Westminster
-93.216760000173849,44.987423000171361,946,02/14/2019 02:19pm,"925 26TH AVE SE,Minneapolis,MN",44.987423,-93.21676,2,University,Como,4,3,Westminster
-93.280833999789195,44.962315999783641,947,02/14/2019 02:19pm,"2009 Pillsbury Ave S,Minneapolis,MN",44.962316,-93.280834,10,Powderhorn,Whittier,3,3,Westminster
-93.29434300042908,45.043542999909562,948,02/14/2019 02:21pm,"4851 dupont ave n ,Minneapolis,MN",45.043543,-93.294343,4,Camden,Lind - Bohanon,1,3,Westminster
-93.281129999949485,44.932090999899799,949,02/14/2019 02:21pm,"3905 pillbury ave ,Minneapolis,MN",44.932091,-93.28113,8,Southwest,King Field,5,3,Westminster
-93.294367999783333,45.047027999642523,950,02/14/2019 02:23pm,"5041 dupont ave n ,Minneapolis,MN",45.047028,-93.294368,4,Camden,Lind - Bohanon,1,3,Westminster
-93.295439999756127,45.00465499982846,951,02/14/2019 02:23pm,"1123 25th ave ,Minneapolis,MN",45.004655,-93.29544,5,Near North,Jordan,1,3,Westminster
-93.3094930003017,45.004688999597704,952,02/14/2019 02:24pm,"2511 queen ave n,Minneapolis,MN",45.004689,-93.309493,5,Near North,Willard - Hay,1,3,Westminster
-93.216103999599852,44.99075900022774,953,02/14/2019 02:27pm,"1088 26TH AVE SE,Minneapolis,MN",44.990759,-93.216104,1,University,Como,4,3,Westminster
-93.285396999771706,44.997233000202868,954,02/14/2019 02:27pm,"421 18th Ave. N.,Minneapolis,MN",44.997233,-93.285397,5,Near North,Near - North,1,3,Westminster
-93.221132000341527,44.971470000140471,955,02/14/2019 02:27pm,"155 26th ave se,Minneapolis,MN",44.97147,-93.221132,2,University,Prospect Park - East River Road,4,3,Westminster
-93.284005000330467,44.952790000258346,956,02/14/2019 02:28pm,"2723 GRAND AVE S ,Minneapolis,MN",44.95279,-93.284005,10,Powderhorn,Whittier,3,3,Westminster
-93.239371999718003,45.012383000075431,957,02/14/2019 02:31pm,"2401 buchannan st ne,Minneapolis,MN",45.012383,-93.239372,1,Northeast,Windom Park,2,3,Westminster
-93.242898999589102,45.018775999912521,958,02/14/2019 02:33pm,"1115 28th ave ne,Minneapolis,MN",45.018776,-93.242899,1,Northeast,Audubon Park,2,3,Westminster
-93.267286000048841,44.944833000242795,959,02/14/2019 02:49pm,"607 32nd st w,Minneapolis,MN",44.944833,-93.267286,9,Powderhorn,Central,5,3,Westminster
-93.216387000059967,44.968735999966498,960,02/14/2019 02:51pm,"53 Arthur ave se,Minneapolis,MN",44.968736,-93.216387,2,University,Prospect Park - East River Road,4,3,Westminster
-93.243095999680577,45.018769999635822,961,02/14/2019 02:54pm,"1111 28th ave ne,Minneapolis,MN",45.01877,-93.243096,1,Northeast,Audubon Park,2,3,Westminster
-93.257721999670537,44.972041000391926,962,02/14/2019 02:54pm,"1007 6th street ,Minneapolis,MN",44.972041,-93.257722,3,Central,Elliot Park,3,3,Westminster
-93.293355999879452,45.007487000025094,963,02/14/2019 02:59pm,"2651 dupont Ave n,Minneapolis,MN",45.007487,-93.293356,5,Near North,Hawthorne,1,3,Westminster
-93.2920770002533,45.006948000350008,964,02/14/2019 03:02pm,"2633 Colfax Ave n,Minneapolis,MN",45.006948,-93.292077,5,Near North,Hawthorne,1,3,Westminster
-93.314405000190561,45.020302000137235,965,02/14/2019 03:06pm,"2623 36th avenue North,Minneapolis,MN",45.020302,-93.314405,4,Camden,Cleveland,1,3,Westminster
-93.296960999750297,45.048065999846074,966,02/14/2019 03:06pm,"5113 Fremont ave n ,Minneapolis,MN",45.048066,-93.296961,4,Camden,Lind - Bohanon,1,3,Westminster
-93.296935000349947,45.047155000103203,967,02/14/2019 03:09pm,"5045 Fremont ave n ,Minneapolis,MN",45.047155,-93.296935,4,Camden,Lind - Bohanon,1,3,Westminster
-93.283965000284525,44.951141999803497,968,02/14/2019 03:09pm,"2829 GRAND AVE S,Minneapolis,MN",44.951142,-93.283965,10,Powderhorn,Whittier,3,3,Westminster
-93.221147000133897,44.971451000163597,969,02/14/2019 03:11pm,"153 26th ave se,Minneapolis,MN",44.971451,-93.221147,2,University,Prospect Park - East River Road,4,3,Westminster
-93.287225999580187,44.945110000426212,970,02/14/2019 03:11pm,"3142 Garfield ave S,Minneapolis,MN",44.94511,-93.287226,8,Powderhorn,Lyndale,5,3,Westminster
-93.282771000081539,44.95178199963965,971,02/14/2019 03:12pm,"2803 PLEASANT AVE S,Minneapolis,MN",44.951782,-93.282771,10,Powderhorn,Whittier,3,3,Westminster
-93.303544000255386,44.995216999864681,972,02/14/2019 03:14pm,"1829 16th Ave. N.,Minneapolis,MN",44.995217,-93.303544,5,Near North,Willard - Hay,1,3,Westminster
-93.263862000430947,45.010061000015185,973,02/14/2019 03:28pm,"311 22nd ave ne,Minneapolis,MN",45.010061,-93.263862,3,Northeast,Bottineau,2,3,Westminster
-93.225967000276796,44.946700000005023,974,02/14/2019 03:31pm,"3129 E 31st st ,Minneapolis,MN",44.9467,-93.225967,2,Longfellow,Longfellow,6,3,Westminster
-93.260968000073092,44.937918999762076,975,02/14/2019 03:32pm,"3555 Elliot Avenue South,Minneapolis,MN",44.937919,-93.260968,9,Powderhorn,Powderhorn Park,6,3,Westminster
-93.239409999671693,44.933546999594398,976,02/14/2019 03:34pm,"3817 STANDISH AVE S ,Minneapolis,MN",44.933547,-93.23941,12,Powderhorn,Standish,6,3,Westminster
-93.294688000151041,45.019576999978597,977,02/14/2019 03:37pm,"3535 Emerson avenue North,Minneapolis,MN",45.019577,-93.294688,4,Camden,Folwell,1,3,Westminster
-93.224220999799286,44.899198000187596,978,02/14/2019 03:38pm,"5701 sander Drive,Minneapolis,MN",44.899198,-93.224221,11,Nokomis,Wenonah,6,3,Westminster
-93.293341000087025,45.007012999750202,979,02/14/2019 03:49pm,"2635 dupont Ave n,Minneapolis,MN",45.007013,-93.293341,5,Near North,Hawthorne,1,3,Westminster
-93.283550000032449,45.004800000219859,980,02/14/2019 03:52pm,"311 25th ave n ,Minneapolis,MN",45.0048,-93.28355,5,Near North,Hawthorne,1,3,Westminster
