X,Y,OBJECTID,Call_Taken,Location,Tow_Reason,Latitude,Longitude,Ward,Community,Neighborho,Tow_Zone,Day,Snow_Emerg
-93.287717999785798,45.038699999605342,1,02/20/2019 09:17pm,"4601 Lyndale Ave n ,Minneapolis,MN",Snow Emergency,45.0387,-93.287718,4,Camden,Lind - Bohanon,1,1,Yale
-93.287344999671973,45.040553999667395,2,02/20/2019 09:21pm,"4699 Lyndale Ave n,Minneapolis,MN",Snow Emergency,45.040554,-93.287345,4,Camden,Lind - Bohanon,1,1,Yale
-93.235448999571645,44.987643000424157,3,02/20/2019 09:23pm,"1100 COMO AVE SE,Minneapolis,MN",Snow Emergency,44.987643,-93.235449,2,University,Como,4,1,Yale
-93.262689000297087,44.948356999975601,4,02/20/2019 09:25pm,"3000 Chicago ave ,Minneapolis,MN",Snow Emergency,44.948357,-93.262689,6,Phillips,Phillips West,3,1,Yale
-93.288451000313387,45.027751000108594,5,02/20/2019 09:33pm,"4001 LYNDALE AVE N ,Minneapolis,MN",Snow Emergency,45.027751,-93.288451,4,Camden,Webber - Camden,1,1,Yale
-93.288451000313387,45.027751000108594,6,02/20/2019 09:36pm,"4001 LYNDALE AVE N ,Minneapolis,MN",Snow Emergency,45.027751,-93.288451,4,Camden,Webber - Camden,1,1,Yale
-93.269138000018643,44.939811999823974,7,02/20/2019 09:38pm,"482 E 35TH ST ,Minneapolis,MN",Snow Emergency,44.939812,-93.269138,9,Powderhorn,Central,5,1,Yale
-93.288074000015058,45.025756999885687,8,02/20/2019 09:41pm,"3901-3999 LYNDALE AVE N,Minneapolis,MN",Snow Emergency,45.025757,-93.288074,4,Camden,Webber - Camden,1,1,Yale
-93.28833500035995,45.022258000406453,9,02/20/2019 09:58pm,"3701 LYNDALE AVE N ,Minneapolis,MN",Snow Emergency,45.022258,-93.288335,4,Camden,McKinley,1,1,Yale
-93.273433000232728,44.939561999986381,10,02/20/2019 10:02pm,"250 35th street East,Minneapolis,MN",Snow Emergency,44.939562,-93.273433,9,Powderhorn,Central,5,1,Yale
-93.280216000068322,44.999172999734185,11,02/20/2019 10:04pm,"2001 2ND ST N ,Minneapolis,MN",Snow Emergency,44.999173,-93.280216,5,Near North,Hawthorne,1,1,Yale
-93.28833500035995,45.022258000406453,12,02/20/2019 10:05pm,"3701LYNDALE AVE N ,Minneapolis,MN",Snow Emergency,45.022258,-93.288335,4,Camden,McKinley,1,1,Yale
-93.281184999787854,45.015058000226588,13,02/20/2019 10:07pm,"3301 2ND ST N ,Minneapolis,MN",Snow Emergency,45.015058,-93.281185,4,Camden,McKinley,1,1,Yale
-93.28838700005997,45.01685799959705,14,02/20/2019 10:09pm,"3401 LYNDALE AVE N,Minneapolis,MN",Snow Emergency,45.016858,-93.288387,4,Camden,McKinley,1,1,Yale
-93.287992999877019,45.00024999993758,15,02/20/2019 10:11pm,"2101 LYNDALE AVE N ,Minneapolis,MN",Snow Emergency,45.00025,-93.287993,5,Near North,Hawthorne,1,1,Yale
-93.246819999643208,44.990529000413119,16,02/20/2019 10:16pm,"333 8TH ST SE,Minneapolis,MN",Snow Emergency,44.990529,-93.24682,3,University,Marcy Holmes,4,1,Yale
-93.288083000430106,45.0275360000864,17,02/20/2019 10:17pm,"3999 LYNDALE AVE N ,Minneapolis,MN",Snow Emergency,45.027536,-93.288083,4,Camden,Webber - Camden,1,1,Yale
-93.227087999811317,44.987995999615748,18,02/20/2019 10:17pm,"1741 COMO AVE SE,Minneapolis,MN",Snow Emergency,44.987996,-93.227088,1,University,Como,4,1,Yale
-93.232681999674526,44.984427999652496,19,02/20/2019 10:18pm,"1399 8TH ST SE,Minneapolis,MN",Snow Emergency,44.984428,-93.232682,3,University,Marcy Holmes,4,1,Yale
-93.272827000165876,44.964049999707754,20,02/20/2019 10:20pm,"00 block of 19TH ST E,Minneapolis,MN",Snow Emergency,44.96405,-93.272827,6,Central,Steven's Square - Loring Heights,3,1,Yale
-93.260879999612257,44.994061999661596,21,02/20/2019 10:20pm,"516 UNIVERSITY AVE NE,Minneapolis,MN",Snow Emergency,44.994062,-93.26088,3,Northeast,St. Anthony West,2,1,Yale
-93.246739999551323,45.019049999957588,22,02/20/2019 10:20pm,"2803 Central Ave Ne,Minneapolis,MN",Snow Emergency,45.01905,-93.24674,1,Northeast,Audubon Park,2,1,Yale
-93.246811000127536,45.018975000096248,23,02/20/2019 10:23pm,"2801 Central Ave NE,Minneapolis,MN",Snow Emergency,45.018975,-93.246811,1,Northeast,Audubon Park,2,1,Yale
-93.294725000058691,44.951578000124641,24,02/20/2019 10:27pm,"2800 emerson ave s,Minneapolis,MN",Snow Emergency,44.951578,-93.294725,10,Calhoun Isle,Lowry Hill East,3,1,Yale
-93.274273000298706,44.963693000331773,25,02/20/2019 10:30pm,"00 E 19th St ,Minneapolis,MN",Snow Emergency,44.963693,-93.274273,6,Central,Steven's Square - Loring Heights,3,1,Yale
-93.294725000058691,44.951578000124641,26,02/20/2019 10:30pm,"2800 emerson ave s,Minneapolis,MN",Snow Emergency,44.951578,-93.294725,10,Calhoun Isle,Lowry Hill East,3,1,Yale
-93.274557999951696,44.98806199996136,27,02/20/2019 10:31pm,"600 2nd st n,Minneapolis,MN",Snow Emergency,44.988062,-93.274558,3,Central,North Loop,1,1,Yale
-93.245527000270783,44.983475999817585,28,02/20/2019 10:42pm,"707 UNIVERSITY AVE SE,Minneapolis,MN",Snow Emergency,44.983476,-93.245527,3,University,Marcy Holmes,4,1,Yale
-93.297368999679577,44.958818000350504,29,02/20/2019 10:43pm,"1435 W 24TH ST ,Minneapolis,MN",Snow Emergency,44.958818,-93.297369,7,Calhoun Isle,East Isles,3,1,Yale
-93.288355000382921,45.018646000212811,30,02/20/2019 10:48pm,"3501 LYNDALE AVE N,Minneapolis,MN",Snow Emergency,45.018646,-93.288355,4,Camden,McKinley,1,1,Yale
-93.298438999560119,44.949120000087987,31,02/20/2019 10:49pm,"2900 HENNEPIN AVE ,Minneapolis,MN",Snow Emergency,44.94912,-93.298439,7,Calhoun Isle,East Isles,3,1,Yale
-93.276557000405205,44.978652000389559,32,02/20/2019 10:50pm,"700 1st N,Minneapolis,MN",Snow Emergency,44.978652,-93.276557,7,Central,Downtown West,3,1,Yale
-93.280516000413058,45.004838000173606,33,02/20/2019 10:52pm,"2501 2nd st n,Minneapolis,MN",Snow Emergency,45.004838,-93.280516,5,Near North,Hawthorne,1,1,Yale
-93.273078000049622,44.938856999850714,34,02/20/2019 10:53pm,"3520 3rd Avenue South,Minneapolis,MN",Snow Emergency,44.938857,-93.273078,9,Powderhorn,Central,5,1,Yale
-93.231024999703948,44.977307000417795,35,02/20/2019 10:53pm,"301 18th ave se,Minneapolis,MN",Snow Emergency,44.977307,-93.231025,2,University,University of Minnesota,4,1,Yale
-93.250589999928536,44.983423000071468,36,02/20/2019 10:54pm,"400 2nd Street Southeast,Minneapolis,MN",Snow Emergency,44.983423,-93.25059,3,University,Marcy Holmes,4,1,Yale
-93.299289000087242,44.960091999746055,37,02/20/2019 10:55pm,"2225 Irving Ave S,Minneapolis,MN",Snow Emergency,44.960092,-93.299289,7,Calhoun Isle,East Isles,3,1,Yale
-93.270058000176505,44.987573999940196,38,02/20/2019 10:55pm,"77 4th ave n ,Minneapolis,MN",Snow Emergency,44.987574,-93.270058,3,Central,North Loop,3,1,Yale
-93.246873000288701,44.98978100009316,39,02/20/2019 10:56pm,"338 8TH ST SE,Minneapolis,MN",Snow Emergency,44.989781,-93.246873,3,University,Marcy Holmes,4,1,Yale
-93.310258999653058,45.024092000445535,40,02/20/2019 11:00pm,"2300 dowling av n,Minneapolis,MN",Snow Emergency,45.024092,-93.310259,4,Camden,Victory,1,1,Yale
-93.279466999702265,44.98780299970872,41,02/20/2019 11:02pm,"771 3rdst n ,Minneapolis,MN",Snow Emergency,44.987803,-93.279467,3,Central,North Loop,1,1,Yale
-93.246832000196605,45.015855000108218,42,02/20/2019 11:03pm,"2625 Central ave NE,Minneapolis,MN",Snow Emergency,45.015855,-93.246832,1,Northeast,Audubon Park,2,1,Yale
-93.247038999849906,44.982722000120248,43,02/20/2019 11:04pm,"629 2st se,Minneapolis,MN",Snow Emergency,44.982722,-93.247039,3,University,Marcy Holmes,4,1,Yale
-93.220165999860967,44.968726000404672,44,02/20/2019 11:09pm,"100 Blk 27th Ave Se,Minneapolis,MN",Snow Emergency,44.968726,-93.220166,2,University,Prospect Park - East River Road,4,1,Yale
-93.258086000268634,44.946740000051022,45,02/20/2019 11:10pm,"1158 31st e,Minneapolis,MN",Snow Emergency,44.94674,-93.258086,9,Powderhorn,Powderhorn Park,6,1,Yale
-93.231024999703948,44.977307000417795,46,02/20/2019 11:10pm,"301 18th Ave se,Minneapolis,MN",Snow Emergency,44.977307,-93.231025,2,University,University of Minnesota,4,1,Yale
-93.279534000093975,44.967451000063647,47,02/20/2019 11:12pm,"1500 lasalle av s,Minneapolis,MN",Snow Emergency,44.967451,-93.279534,7,Central,Loring Park,3,1,Yale
-93.241736999962541,44.980456999990622,48,02/20/2019 11:19pm,"1099-1001 2nd st se,Minneapolis,MN",Snow Emergency,44.980457,-93.241737,3,University,Marcy Holmes,4,1,Yale
-93.30181499966244,44.948926000134861,49,02/20/2019 11:21pm,"2909 IRVING AVE S,Minneapolis,MN",Snow Emergency,44.948926,-93.301815,7,Calhoun Isle,East Isles,3,1,Yale
-93.247038999849906,44.982722000120248,50,02/20/2019 11:22pm,"629 2nd ST SE,Minneapolis,MN",Snow Emergency,44.982722,-93.247039,3,University,Marcy Holmes,4,1,Yale
-93.2498010004158,44.984088000161137,51,02/20/2019 11:24pm,"201 5TH AVE SE,Minneapolis,MN",Snow Emergency,44.984088,-93.249801,3,University,Marcy Holmes,4,1,Yale
-93.275972999554256,44.978553000320744,52,02/20/2019 11:24pm,"701 1ST ST N,Minneapolis,MN",Snow Emergency,44.978553,-93.275973,7,Central,Downtown West,3,1,Yale
-93.263038000203494,44.903256000264264,53,02/20/2019 11:25pm,"5500 CHICAGO AVE S,Minneapolis,MN",Snow Emergency,44.903256,-93.263038,11,Nokomis,Diamond Lake,5,1,Yale
-93.275903999969614,44.985280000271871,54,02/20/2019 11:25pm,"500 3RD ST N ,Minneapolis,MN",Snow Emergency,44.98528,-93.275904,3,Central,North Loop,1,1,Yale
-93.253689999893538,44.984016999584924,55,02/20/2019 11:26pm,"101 3RD AVE SE,Minneapolis,MN",Snow Emergency,44.984017,-93.25369,3,University,Marcy Holmes,4,1,Yale
-93.262821000089048,44.919581000362939,56,02/20/2019 11:27pm,"4600 CHICAGO AVE S,Minneapolis,MN",Snow Emergency,44.919581,-93.262821,8,Nokomis,Field,5,1,Yale
-93.270058000176505,44.987573999940196,57,02/20/2019 11:27pm,"77 4TH AVE N ,Minneapolis,MN",Snow Emergency,44.987574,-93.270058,3,Central,North Loop,3,1,Yale
-93.279315999933431,45.003057999926796,58,02/20/2019 11:27pm,"2300 2ND ST N ,Minneapolis,MN",Snow Emergency,45.003058,-93.279316,5,Near North,Hawthorne,1,1,Yale
-93.232788000066137,44.987630999870817,59,02/20/2019 11:30pm,"1300 COMO AVE SE,Minneapolis,MN",Snow Emergency,44.987631,-93.232788,2,University,Como,4,1,Yale
-93.238919000411499,44.946554999613568,60,02/20/2019 11:30pm,"2300 31ST ST E,Minneapolis,MN",Snow Emergency,44.946555,-93.238919,9,Powderhorn,Corcoran,6,1,Yale
-93.252746000427521,44.917172999934053,61,02/20/2019 11:32pm,"4722 Bloomington Avenue South,Minneapolis,MN",Snow Emergency,44.917173,-93.252746,11,Nokomis,Northrop,6,1,Yale
-93.241710999662871,44.980471999782992,62,02/20/2019 11:33pm,"201 11TH AVE SE,Minneapolis,MN",Snow Emergency,44.980472,-93.241711,3,University,Marcy Holmes,4,1,Yale
-93.27933399986415,44.968778000104692,63,02/20/2019 11:34pm,"1400 LaSalle ave,Minneapolis,MN",Snow Emergency,44.968778,-93.279334,7,Central,Loring Park,3,1,Yale
-93.240403999644855,44.946240000375781,64,02/20/2019 11:35pm,"2205 31ST E,Minneapolis,MN",Snow Emergency,44.94624,-93.240404,9,Powderhorn,Corcoran,6,1,Yale
-93.27747599961765,44.984980999973232,65,02/20/2019 11:36pm,"500 4th st n,Minneapolis,MN",Snow Emergency,44.984981,-93.277476,3,Central,North Loop,1,1,Yale
-93.273078000049622,44.940643000374223,66,02/20/2019 11:36pm,"3420 3rd Avenue South,Minneapolis,MN",Snow Emergency,44.940643,-93.273078,9,Powderhorn,Central,5,1,Yale
-93.285436999817648,44.946372000167742,67,02/20/2019 11:37pm,"453 W 31ST ST ,Minneapolis,MN",Snow Emergency,44.946372,-93.285437,8,Powderhorn,Lyndale,5,1,Yale
-93.267894000207889,44.982989999888616,68,02/20/2019 11:42pm,"200 HENNEPIN AVE ,Minneapolis,MN",Snow Emergency,44.98299,-93.267894,3,Central,North Loop,3,1,Yale
-93.227115000157085,44.969417999940788,69,02/20/2019 11:43pm,"621 OAK ST SE,Minneapolis,MN",Snow Emergency,44.969418,-93.227115,2,University,University of Minnesota,4,1,Yale
-93.302086999615312,44.950297000406295,70,02/20/2019 11:47pm,"2867 IRVING AVE S,Minneapolis,MN",Snow Emergency,44.950297,-93.302087,7,Calhoun Isle,East Isles,3,1,Yale
-93.289757000285306,44.983415999748615,71,02/20/2019 11:47pm,"800 5th St N,Minneapolis,MN",Snow Emergency,44.983416,-93.289757,5,Near North,Sumner - Glenwood,3,1,Yale
-93.254559000397535,44.988323000306252,72,02/20/2019 11:48pm,400 HENNEPIN AVE E,Snow Emergency,44.988323,-93.254559,3,University,Nicollet Island - East Bank,4,1,Yale
-93.279679999632265,44.965246000002935,73,02/20/2019 11:49pm,"1800 LASALLE AVE ,Minneapolis,MN",Snow Emergency,44.965246,-93.27968,7,Central,Steven's Square - Loring Heights,3,1,Yale
-93.279534000093975,44.967451000063647,74,02/20/2019 11:54pm,"1500 lasalle av s,Minneapolis,MN",Snow Emergency,44.967451,-93.279534,7,Central,Loring Park,3,1,Yale
-93.299121999580564,44.951718000285553,75,02/20/2019 11:54pm,"2800 HENNEPIN AVE ,Minneapolis,MN",Snow Emergency,44.951718,-93.299122,7,Calhoun Isle,East Isles,3,1,Yale
-93.237418000440357,45.016629999874624,76,02/20/2019 11:55pm,"2670 Johnson st NE,Minneapolis,MN",Snow Emergency,45.01663,-93.237418,1,Northeast,Audubon Park,2,1,Yale
-93.279776999608828,44.963917999915793,77,02/21/2019 12:02am,"1900 LASALLE AVE ,Minneapolis,MN",Snow Emergency,44.963918,-93.279777,7,Central,Steven's Square - Loring Heights,3,1,Yale
-93.219395000279007,44.971329999979559,78,02/21/2019 12:03am,"1-99 blk 27th ave se,Minneapolis,MN",Snow Emergency,44.97133,-93.219395,2,University,Prospect Park - East River Road,4,1,Yale
-93.279679999632265,44.965246000002935,79,02/21/2019 12:05am,"1800 Lasalle AVE,Minneapolis,MN",Snow Emergency,44.965246,-93.27968,7,Central,Steven's Square - Loring Heights,3,1,Yale
-93.280689000297116,44.98588200015422,80,02/21/2019 12:05am,"700 5th St N,Minneapolis,MN",Snow Emergency,44.985882,-93.280689,5,Central,North Loop,1,1,Yale
-93.228694000127973,44.973385000317592,81,02/21/2019 12:07am,"314 Walnut Street Southeast,Minneapolis,MN",Snow Emergency,44.973385,-93.228694,2,University,University of Minnesota,4,1,Yale
-93.219395000279007,44.971329999979559,82,02/21/2019 12:08am,"1-99 blk 27th ave se,Minneapolis,MN",Snow Emergency,44.97133,-93.219395,2,University,Prospect Park - East River Road,4,1,Yale
-93.281495999740571,44.985639999786201,83,02/21/2019 12:08am,"701 5th st n,Minneapolis,MN",Snow Emergency,44.98564,-93.281496,5,Central,North Loop,1,1,Yale
-93.279335999956402,44.970600999636474,84,02/21/2019 12:08am,"1300 block of LaSalle ave S,Minneapolis,MN",Snow Emergency,44.970601,-93.279336,7,Central,Loring Park,3,1,Yale
-93.297790000208295,45.024193999753322,85,02/21/2019 12:09am,"1420 block Dowling ave n ,Minneapolis,MN",Snow Emergency,45.024194,-93.29779,4,Camden,Webber - Camden,1,1,Yale
-93.253689999893538,44.984016999584924,86,02/21/2019 12:10am,"101-199 3rd Ave. SE,Minneapolis,MN",Snow Emergency,44.984017,-93.25369,3,University,Marcy Holmes,4,1,Yale
-93.284025000353438,44.946396000375159,87,02/21/2019 12:11am,"323 west 31st street,Minneapolis,MN",Snow Emergency,44.946396,-93.284025,8,Powderhorn,Lyndale,5,1,Yale
-93.290991999681012,44.984097999722962,88,02/21/2019 12:13am,"601 6th ave n,Minneapolis,MN",Snow Emergency,44.984098,-93.290992,5,Near North,Sumner - Glenwood,3,1,Yale
-93.308078999845918,45.013599000393583,89,02/21/2019 12:13am,"3200 PENN AVE N ,Minneapolis,MN",Snow Emergency,45.013599,-93.308079,4,Camden,Folwell,1,1,Yale
-93.276463999713769,44.968904999666051,90,02/21/2019 12:14am,"1400 block of 1st ave S,Minneapolis,MN",Snow Emergency,44.968905,-93.276464,7,Central,Loring Park,3,1,Yale
-93.273078000049622,44.944833000242795,91,02/21/2019 12:16am,"3200 3RD AVE SO,Minneapolis,MN",Snow Emergency,44.944833,-93.273078,9,Powderhorn,Central,5,1,Yale
-93.281358999718009,44.94659100037444,92,02/21/2019 12:17am,"Pillsbury & 31st West,Minneapolis,MN",Snow Emergency,44.946591,-93.281359,8,Powderhorn,Lyndale,5,1,Yale
-93.273078000049622,44.939841000261993,93,02/21/2019 12:17am,"3448 3RD AVE S,Minneapolis,MN",Snow Emergency,44.939841,-93.273078,9,Powderhorn,Central,5,1,Yale
-93.249865999815995,44.983513999771333,94,02/21/2019 12:21am,"482 2nd st se,Minneapolis,MN",Snow Emergency,44.983514,-93.249866,3,University,Marcy Holmes,4,1,Yale
-93.281358999718009,44.94659100037444,95,02/21/2019 12:22am,"Pillsbury & 31st west,Minneapolis,MN",Snow Emergency,44.946591,-93.281359,8,Powderhorn,Lyndale,5,1,Yale
-93.24942200002522,44.98367600004741,96,02/21/2019 12:23am,"200 block 5th ave se,Minneapolis,MN",Snow Emergency,44.983676,-93.249422,3,University,Marcy Holmes,4,1,Yale
-93.277685000262522,44.959193999703359,97,02/21/2019 12:25am,"24 24th st e,Minneapolis,MN",Snow Emergency,44.959194,-93.277685,10,Powderhorn,Whittier,3,1,Yale
-93.278715000097122,44.958934000303941,98,02/21/2019 12:26am,"49 24th st,Minneapolis,MN",Snow Emergency,44.958934,-93.278715,10,Powderhorn,Whittier,3,1,Yale
-93.276590000128351,44.953742000093257,99,02/21/2019 12:31am,"2700 block of 1ST AVE S,Minneapolis,MN",Snow Emergency,44.953742,-93.27659,10,Powderhorn,Whittier,3,1,Yale
-93.273078000049622,44.940643000374223,100,02/21/2019 12:31am,"3420 3rd Ave S,Minneapolis,MN",Snow Emergency,44.940643,-93.273078,9,Powderhorn,Central,5,1,Yale
-93.258050000407138,45.001102999703733,101,02/21/2019 12:31am,"611 13th ave ne,Minneapolis,MN",Snow Emergency,45.001103,-93.25805,3,Northeast,Sheridan,2,1,Yale
-93.30784499984685,44.996584999997822,102,02/21/2019 12:33am,"1700 block penn ave n ,Minneapolis,MN",Snow Emergency,44.996585,-93.307845,5,Near North,Willard - Hay,1,1,Yale
-93.242523000236247,44.964018000030705,103,02/21/2019 12:33am,"2099 - 2001 9th St S,Minneapolis,MN",Snow Emergency,44.964018,-93.242523,6,Longfellow,Seward,4,1,Yale
-93.263091999995765,44.995183000095437,104,02/21/2019 12:34am,"698 2nd st ne,Minneapolis,MN",Snow Emergency,44.995183,-93.263092,3,Northeast,St. Anthony West,2,1,Yale
-93.28011299981506,44.958876000327223,105,02/21/2019 12:37am,"2400 Blaisdell Ave,Minneapolis,MN",Snow Emergency,44.958876,-93.280113,10,Powderhorn,Whittier,3,1,Yale
-93.294416000198225,44.998860999735427,106,02/21/2019 12:37am,"1901-2099 EMERSON AVE N,Minneapolis,MN",Snow Emergency,44.998861,-93.294416,5,Near North,Near - North,1,1,Yale
-93.257368000432848,45.006166000260748,107,02/21/2019 12:37am,"1799 wshington st ne,Minneapolis,MN",Snow Emergency,45.006166,-93.257368,1,Northeast,Holland,2,1,Yale
-93.283564999824819,44.946779000050867,108,02/21/2019 12:38am,"342 west 31st street,Minneapolis,MN",Snow Emergency,44.946779,-93.283565,8,Powderhorn,Lyndale,5,1,Yale
-93.228694000127973,44.973385000317592,109,02/21/2019 12:39am,"314 Walnut Street Southeast,Minneapolis,MN",Snow Emergency,44.973385,-93.228694,2,University,University of Minnesota,4,1,Yale
-93.270058000176505,44.987573999940196,110,02/21/2019 12:40am,"77 4th ave n ,Minneapolis,MN",Snow Emergency,44.987574,-93.270058,3,Central,North Loop,3,1,Yale
-93.26997800008462,44.974083000130406,111,02/21/2019 12:40am,"811 2nd ave,Minneapolis,MN",Snow Emergency,44.974083,-93.269978,7,Central,Downtown West,3,1,Yale
-93.307966000030831,45.01523600034119,112,02/21/2019 12:43am,"3300 block penn ave n ,Minneapolis,MN",Snow Emergency,45.015236,-93.307966,4,Camden,Folwell,1,1,Yale
-93.240734999620486,44.98120000007998,113,02/21/2019 12:45am,"301-399 11th Ave SE,Minneapolis,MN",Snow Emergency,44.9812,-93.240735,3,University,Marcy Holmes,4,1,Yale
-93.300077999599978,44.979127999857383,114,02/21/2019 12:47am,"1550 2nd av n,Minneapolis,MN",Snow Emergency,44.979128,-93.300078,5,Near North,Harrison,3,1,Yale
-93.243709000070282,44.963793000446685,115,02/21/2019 12:48am,"2001 9th st s,Minneapolis,MN",Snow Emergency,44.963793,-93.243709,6,Longfellow,Seward,4,1,Yale
-93.247032999573207,44.946406999983139,116,02/21/2019 12:48am,"1823 E 31st st,Minneapolis,MN",Snow Emergency,44.946407,-93.247033,9,Powderhorn,Corcoran,6,1,Yale
-93.294133999784208,45.004829999804713,117,02/21/2019 12:49am,"2501 Emerson Ave N,Minneapolis,MN",Snow Emergency,45.00483,-93.294134,5,Near North,Jordan,1,1,Yale
-93.25209600013028,44.940001999592653,118,02/21/2019 12:51am,"3445 BLOOMINGTON Ave S,Minneapolis,MN",Snow Emergency,44.940002,-93.252096,9,Powderhorn,Powderhorn Park,6,1,Yale
-93.242523000236247,44.964018000030705,119,02/21/2019 12:52am,"2099-2001 9 st s,Minneapolis,MN",Snow Emergency,44.964018,-93.242523,6,Longfellow,Seward,4,1,Yale
-93.295589000332086,45.014954999973327,120,02/21/2019 12:53am,"3298 fremont ave n,Minneapolis,MN",Snow Emergency,45.014955,-93.295589,4,Camden,Folwell,1,1,Yale
-93.240928999573612,44.963996999961637,121,02/21/2019 12:53am,"2199-2101 9th st s,Minneapolis,MN",Snow Emergency,44.963997,-93.240929,6,Longfellow,Seward,4,1,Yale
-93.239232999603189,44.946433000282809,122,02/21/2019 12:58am,"3100 23rd ave,Minneapolis,MN",Snow Emergency,44.946433,-93.239233,9,Powderhorn,Corcoran,6,1,Yale
-93.273078000049622,44.940643000374223,123,02/21/2019 01:00am,"3420 3rd Avenue South,Minneapolis,MN",Snow Emergency,44.940643,-93.273078,9,Powderhorn,Central,5,1,Yale
-93.218128000306933,44.951819000446562,124,02/21/2019 01:01am,"2800 38th st,Minneapolis,MN",Snow Emergency,44.951819,-93.218128,2,Longfellow,Longfellow,4,1,Yale
-93.242490999659879,44.964018000030705,125,02/21/2019 01:01am,"2100-2199 9 ST,Minneapolis,MN",Snow Emergency,44.964018,-93.242491,6,Longfellow,Seward,4,1,Yale
-93.244075999907409,44.962701999597641,126,02/21/2019 01:09am,"20th ave so / Franklin ave e,Minneapolis,MN",Snow Emergency,44.962702,-93.244076,6,Longfellow,Seward,4,1,Yale
-93.279335999956402,44.970600999636474,127,02/21/2019 01:10am,"1300 block of LaSalle ave S,Minneapolis,MN",Snow Emergency,44.970601,-93.279336,7,Central,Loring Park,3,1,Yale
-93.295651999640029,45.001507000347829,128,02/21/2019 01:11am,"2199-2101 FREMONT AVE N ,Minneapolis,MN",Snow Emergency,45.001507,-93.295652,5,Near North,Jordan,1,1,Yale
-93.239304000179402,44.96368600000892,129,02/21/2019 01:12am,"2263 9TH ST S,Minneapolis,MN",Snow Emergency,44.963686,-93.239304,6,Longfellow,Seward,4,1,Yale
-93.292391000344367,44.985808000338977,130,02/21/2019 01:13am,"700 Van White Memorial Blvd,Minneapolis,MN",Snow Emergency,44.985808,-93.292391,5,Near North,Sumner - Glenwood,1,1,Yale
-93.242490999659879,44.964018000030705,131,02/21/2019 01:14am,"2101 9th Street South,Minneapolis,MN",Snow Emergency,44.964018,-93.242491,6,Longfellow,Seward,4,1,Yale
-93.247774999616524,44.974433000082968,132,02/21/2019 01:14am,"1438 2st s,Minneapolis,MN",Snow Emergency,44.974433,-93.247775,6,University,Cedar Riverside,4,1,Yale
-93.308078999845918,45.013599000393583,133,02/21/2019 01:15am,"3200 block penn ave n ,Minneapolis,MN",Snow Emergency,45.013599,-93.308079,4,Camden,Folwell,1,1,Yale
-93.242490999659879,44.964018000030705,134,02/21/2019 01:15am,"2101 9th st s,Minneapolis,MN",Snow Emergency,44.964018,-93.242491,6,Longfellow,Seward,4,1,Yale
-93.268935999696566,44.997350000202402,135,02/21/2019 01:15am,"1000 block mashall st ne,Minneapolis,MN",Snow Emergency,44.99735,-93.268936,3,Northeast,St. Anthony West,2,1,Yale
-93.27933399986415,44.968778000104692,136,02/21/2019 01:15am,"1400 block of LaSalle ave S,Minneapolis,MN",Snow Emergency,44.968778,-93.279334,7,Central,Loring Park,3,1,Yale
-93.241710999662871,44.980471999782992,137,02/21/2019 01:17am,"201 11TH AVE SE,Minneapolis,MN",Snow Emergency,44.980472,-93.241711,3,University,Marcy Holmes,4,1,Yale
-93.278715000097122,44.958934000303941,138,02/21/2019 01:19am,"49 24th st,Minneapolis,MN",Snow Emergency,44.958934,-93.278715,10,Powderhorn,Whittier,3,1,Yale
-93.265967000376747,44.994204999960857,139,02/21/2019 01:20am,"700 block marshall st ne,Minneapolis,MN",Snow Emergency,44.994205,-93.265967,3,Northeast,St. Anthony West,2,1,Yale
-93.275650999993616,44.953483999886714,140,02/21/2019 01:24am,"2700 BLOCK OF STEVENS,Minneapolis,MN",Snow Emergency,44.953484,-93.275651,10,Powderhorn,Whittier,3,1,Yale
-93.278325000098619,44.960591000274519,141,02/21/2019 01:24am,"2200 nicollet av s,Minneapolis,MN",Snow Emergency,44.960591,-93.278325,10,Powderhorn,Whittier,3,1,Yale
-93.295597999847757,45.013123000026496,142,02/21/2019 01:29am,"3199-3099 Fremont ave n ,Minneapolis,MN",Snow Emergency,45.013123,-93.295598,5,Near North,Jordan,1,1,Yale
-93.293585999694074,44.985779999947113,143,02/21/2019 01:30am,"705 Van Memorial Blvd,Minneapolis,MN",Snow Emergency,44.98578,-93.293586,5,Near North,Sumner - Glenwood,1,1,Yale
-93.29688199970451,44.99659100027452,144,02/21/2019 01:31am,"1801 Fremont Ave n,Minneapolis,MN",Snow Emergency,44.996591,-93.296882,5,Near North,Near - North,1,1,Yale
-93.275650999993616,44.953483999886714,145,02/21/2019 01:34am,"2700 block of STEVENS AVE,Minneapolis,MN",Snow Emergency,44.953484,-93.275651,10,Powderhorn,Whittier,3,1,Yale
-93.284583000005398,44.947983999861776,146,02/21/2019 01:34am,"3008 grand ave s,Minneapolis,MN",Snow Emergency,44.947984,-93.284583,8,Powderhorn,Lyndale,5,1,Yale
-93.239176999718723,44.96398200016921,147,02/21/2019 01:35am,"2238 9th st s,Minneapolis,MN",Snow Emergency,44.963982,-93.239177,6,Longfellow,Seward,4,1,Yale
-93.275325000248529,44.955515000017272,148,02/21/2019 01:35am,"2600 Stevens ave,Minneapolis,MN",Snow Emergency,44.955515,-93.275325,10,Powderhorn,Whittier,3,1,Yale
-93.271481000148015,45.001202999818645,149,02/21/2019 01:36am,"1400 marshall street ne,Minneapolis,MN",Snow Emergency,45.001203,-93.271481,3,Northeast,Sheridan,2,1,Yale
-93.230341999683503,44.942368999929442,150,02/21/2019 01:38am,"3314 Minnehaha av,Minneapolis,MN",Snow Emergency,44.942369,-93.230342,9,Longfellow,Longfellow,6,1,Yale
-93.268935999696566,44.997350000202402,151,02/21/2019 01:39am,"1000 block of Marshall street ne,Minneapolis,MN",Snow Emergency,44.99735,-93.268936,3,Northeast,St. Anthony West,2,1,Yale
-93.273131999841894,44.939683000170362,152,02/21/2019 01:39am,"3450 3rd Ave S,Minneapolis,MN",Snow Emergency,44.939683,-93.273132,9,Powderhorn,Central,5,1,Yale
-93.238709999766627,44.963920000008045,153,02/21/2019 01:40am,"2305 9th st S,Minneapolis,MN",Snow Emergency,44.96392,-93.23871,6,Longfellow,Seward,4,1,Yale
-93.237782000139134,44.963976999938666,154,02/21/2019 01:40am,"2385 9th st so,Minneapolis,MN",Snow Emergency,44.963977,-93.237782,6,Longfellow,Seward,4,1,Yale
-93.295904999616027,45.00611899989201,155,02/21/2019 01:41am,"2601 freMont ave n,Minneapolis,MN",Snow Emergency,45.006119,-93.295905,5,Near North,Jordan,1,1,Yale
-93.237051999749951,44.963839999916104,156,02/21/2019 01:42am,"2409 9th st s,Minneapolis,MN",Snow Emergency,44.96384,-93.237052,6,Longfellow,Seward,4,1,Yale
-93.237782000139134,44.963976999938666,157,02/21/2019 01:42am,"2385 9th Street South,Minneapolis,MN",Snow Emergency,44.963977,-93.237782,6,Longfellow,Seward,4,1,Yale
-93.275325000248529,44.955515000017272,158,02/21/2019 01:44am,"2600 Stevens Avenue,Minneapolis,MN",Snow Emergency,44.955515,-93.275325,10,Powderhorn,Whittier,3,1,Yale
-93.225174999726391,44.935316000233286,159,02/21/2019 01:45am,"3720 Minnehaha Ave S,Minneapolis,MN",Snow Emergency,44.935316,-93.225175,12,Longfellow,Howe,6,1,Yale
-93.271481000148015,45.001202999818645,160,02/21/2019 01:47am,"1400 block marshall st ne,Minneapolis,MN",Snow Emergency,45.001203,-93.271481,3,Northeast,Sheridan,2,1,Yale
-93.295582000009233,45.007733999724337,161,02/21/2019 01:47am,"2699-2601 FREMONT AVE N,Minneapolis,MN",Snow Emergency,45.007734,-93.295582,5,Near North,Jordan,1,1,Yale
-93.278329000283122,44.961772999924051,162,02/21/2019 01:47am,"2100 NICOLLET AVE S,Minneapolis,MN",Snow Emergency,44.961773,-93.278329,10,Powderhorn,Whittier,3,1,Yale
-93.277806000446503,44.969832000146766,163,02/21/2019 01:48am,"1300 nicollet. Av so ,Minneapolis,MN",Snow Emergency,44.969832,-93.277806,7,Central,Loring Park,3,1,Yale
-93.293504999556035,44.985814999762454,164,02/21/2019 01:49am,"707 Van White Memorial Blvd,Minneapolis,MN",Snow Emergency,44.985815,-93.293505,5,Near North,Sumner - Glenwood,1,1,Yale
-93.224529999659694,44.935527000071033,165,02/21/2019 01:50am,"3705 Minnehaha Ave S,Minneapolis,MN",Snow Emergency,44.935527,-93.22453,12,Longfellow,Howe,6,1,Yale
-93.251172999834012,44.975389000102325,166,02/21/2019 01:51am,"199 12th avenue ,Minneapolis,MN",Snow Emergency,44.975389,-93.251173,3,Central,Downtown East,3,1,Yale
-93.240734999620486,44.98120000007998,167,02/21/2019 01:51am,"301-399 11th Ave SE,Minneapolis,MN",Snow Emergency,44.9812,-93.240735,3,University,Marcy Holmes,4,1,Yale
-93.275325000248529,44.955515000017272,168,02/21/2019 01:52am,"2600 block of stevens,Minneapolis,MN",Snow Emergency,44.955515,-93.275325,10,Powderhorn,Whittier,3,1,Yale
-93.237910999792746,44.963916999869696,169,02/21/2019 01:53am,"2331 9TH ST S,Minneapolis,MN",Snow Emergency,44.963917,-93.237911,6,Longfellow,Seward,4,1,Yale
-93.284574999636504,44.947690999839836,170,02/21/2019 01:55am,"3016 grand ave s,Minneapolis,MN",Snow Emergency,44.947691,-93.284575,8,Powderhorn,Lyndale,5,1,Yale
-93.295635999801505,45.022187999876337,171,02/21/2019 01:57am,"3700 Fremont av n,Minneapolis,MN",Snow Emergency,45.022188,-93.295636,4,Camden,Folwell,1,1,Yale
-93.237729000393017,44.964652999636257,172,02/21/2019 02:03am,"2390 butler pl,Minneapolis,MN",Snow Emergency,44.964653,-93.237729,2,University,Cedar Riverside,4,1,Yale
-93.307966000030831,45.01523600034119,173,02/21/2019 02:04am,"3300 block penn ave n ,Minneapolis,MN",Snow Emergency,45.015236,-93.307966,4,Camden,Folwell,1,1,Yale
-93.242071000076578,44.963760999870317,174,02/21/2019 02:04am,"2111 9 th street s,Minneapolis,MN",Snow Emergency,44.963761,-93.242071,6,Longfellow,Seward,4,1,Yale
-93.278365000144618,44.970639999636319,175,02/21/2019 02:05am,"1300 Nicollet ave,Minneapolis,MN",Snow Emergency,44.97064,-93.278365,7,Central,Loring Park,3,1,Yale
-93.224154000306839,44.933595000009291,176,02/21/2019 02:06am,"3800 minnehaha,Minneapolis,MN",Snow Emergency,44.933595,-93.224154,12,Longfellow,Howe,6,1,Yale
-93.278365000144618,44.970639999636319,177,02/21/2019 02:07am,"1300 block of NICOLLET AVE,Minneapolis,MN",Snow Emergency,44.97064,-93.278365,7,Central,Loring Park,3,1,Yale
-93.237910999792746,44.963916999869696,178,02/21/2019 02:08am,"2331 9th street s,Minneapolis,MN",Snow Emergency,44.963917,-93.237911,6,Longfellow,Seward,4,1,Yale
-93.221531999901856,44.930374999906348,179,02/21/2019 02:08am,"4000 minnehaha ,Minneapolis,MN",Snow Emergency,44.930375,-93.221532,12,Longfellow,Hiawatha,6,1,Yale
-93.299948999946366,44.999036999757777,180,02/21/2019 02:10am,"1500 Golden Valley Rd,Minneapolis,MN",Snow Emergency,44.999037,-93.299949,5,Near North,Willard - Hay,1,1,Yale
-93.23990500001571,44.963688000101172,181,02/21/2019 02:11am,"2211 9th st s,Minneapolis,MN",Snow Emergency,44.963688,-93.239905,6,Longfellow,Seward,4,1,Yale
-93.278329000283122,44.961772999924051,182,02/21/2019 02:12am,"2100 nicollet. AV s,Minneapolis,MN",Snow Emergency,44.961773,-93.278329,10,Powderhorn,Whittier,3,1,Yale
-93.235870000100363,44.96464900035113,183,02/21/2019 02:13am,"2542 butler pl,Minneapolis,MN",Snow Emergency,44.964649,-93.23587,2,University,Cedar Riverside,4,1,Yale
-93.275325000248529,44.955515000017272,184,02/21/2019 02:14am,"2600 Stevens Avenue,Minneapolis,MN",Snow Emergency,44.955515,-93.275325,10,Powderhorn,Whittier,3,1,Yale
-93.276590000128351,44.953742000093257,185,02/21/2019 02:15am,"2700 block of1 st ave S,Minneapolis,MN",Snow Emergency,44.953742,-93.27659,10,Powderhorn,Whittier,3,1,Yale
-93.278329000283122,44.961772999924051,186,02/21/2019 02:15am,"2100 NICOLLET AVE S,Minneapolis,MN",Snow Emergency,44.961773,-93.278329,10,Powderhorn,Whittier,3,1,Yale
-93.270660000058911,44.894156999745803,187,02/21/2019 02:16am,"3508 4TH AVE SO,Minneapolis,MN",Snow Emergency,44.894157,-93.27066,11,Nokomis,Diamond Lake,5,1,Yale
-93.284672999659165,44.947525000278574,188,02/21/2019 02:18am,"3022 grand ave s ,Minneapolis,MN",Snow Emergency,44.947525,-93.284673,8,Powderhorn,Lyndale,5,1,Yale
-93.273786000323639,44.922691999935921,189,02/21/2019 02:21am,"4417 2nd Ave S Minneapolis, MN,MN",Snow Emergency,44.922692,-93.273786,8,Nokomis,Regina,5,1,Yale
-93.278260999845202,44.95895200023466,190,02/21/2019 02:24am,"2400 block of nicollet ave S,Minneapolis,MN",Snow Emergency,44.958952,-93.278261,10,Powderhorn,Whittier,3,1,Yale
-93.220165999860967,44.968726000404672,191,02/21/2019 02:25am,"100 block/27th Ave SE,Minneapolis,MN",Snow Emergency,44.968726,-93.220166,2,University,Prospect Park - East River Road,4,1,Yale
-93.261574000139944,45.006349999752729,192,02/21/2019 02:27am,"1798 4th street ne,Minneapolis,MN",Snow Emergency,45.00635,-93.261574,1,Northeast,Holland,2,1,Yale
-93.272459000282595,44.924301000390926,193,02/21/2019 02:27am,"4319 3rd Ave S,Minneapolis,MN",Snow Emergency,44.924301,-93.272459,8,Nokomis,Regina,5,1,Yale
-93.227354000386754,44.951814000216018,194,02/21/2019 02:28am,"2800 31st avenue South,Minneapolis,MN",Snow Emergency,44.951814,-93.227354,2,Longfellow,Longfellow,4,1,Yale
-93.295714999847348,45.027627999832362,195,02/21/2019 02:28am,"4001-4099 FREMONT AVE N,Minneapolis,MN",Snow Emergency,45.027628,-93.295715,4,Camden,Webber - Camden,1,1,Yale
-93.261578000324391,45.004183999691861,196,02/21/2019 02:29am,"1598 4th street ne,Minneapolis,MN",Snow Emergency,45.004184,-93.261578,3,Northeast,Sheridan,2,1,Yale
-93.303182999795581,44.99874799992034,197,02/21/2019 02:33am,"1800 golden valley rd ,Minneapolis,MN",Snow Emergency,44.998748,-93.303183,5,Near North,Willard - Hay,1,1,Yale
-93.278260999845202,44.95895200023466,198,02/21/2019 02:34am,"2400 nicollet. Av s,Minneapolis,MN",Snow Emergency,44.958952,-93.278261,10,Powderhorn,Whittier,3,1,Yale
-93.275325000248529,44.955515000017272,199,02/21/2019 02:36am,"2600 block of stevens,Minneapolis,MN",Snow Emergency,44.955515,-93.275325,10,Powderhorn,Whittier,3,1,Yale
-93.299948999946366,44.999036999757777,200,02/21/2019 02:37am,"1500 golden valley rd ,Minneapolis,MN",Snow Emergency,44.999037,-93.299949,5,Near North,Willard - Hay,1,1,Yale
-93.316179000160673,44.999096999826747,201,02/21/2019 02:39am,"2800 Golden Valley Rd,Minneapolis,MN",Snow Emergency,44.999097,-93.316179,5,Near North,Willard - Hay,1,1,Yale
-93.290412999959926,44.947067999888361,202,02/21/2019 02:40am,"3039 Bryant ave s,Minneapolis,MN",Snow Emergency,44.947068,-93.290413,10,Calhoun Isle,CARAG,5,1,Yale
-93.275325000248529,44.955515000017272,203,02/21/2019 02:40am,"2600 Stevens Avenue South,Minneapolis,MN",Snow Emergency,44.955515,-93.275325,10,Powderhorn,Whittier,3,1,Yale
-93.295576999778689,45.027815000362011,204,02/21/2019 02:42am,"4000 Fremont av n,Minneapolis,MN",Snow Emergency,45.027815,-93.295577,4,Camden,Webber - Camden,1,1,Yale
-93.216741000196976,44.923344000325415,205,02/21/2019 02:42am,"3900 44th st e,Minneapolis,MN",Snow Emergency,44.923344,-93.216741,12,Longfellow,Hiawatha,6,1,Yale
-93.213099000418481,44.934775999612725,206,02/21/2019 02:45am,"3728 42nd Ave S,Minneapolis,MN",Snow Emergency,44.934776,-93.213099,12,Longfellow,Howe,6,1,Yale
-93.278329000283122,44.961772999924051,207,02/21/2019 02:46am,"2100 NICOLLET AVE S,Minneapolis,MN",Snow Emergency,44.961773,-93.278329,10,Powderhorn,Whittier,3,1,Yale
-93.213086999865141,44.931865000269624,208,02/21/2019 02:48am,"3918 42nd Ave S,Minneapolis,MN",Snow Emergency,44.931865,-93.213087,12,Longfellow,Howe,6,1,Yale
-93.251451000063582,45.002479000205767,209,02/21/2019 02:49am,"1404 quincy street,Minneapolis,MN",Snow Emergency,45.002479,-93.251451,1,Northeast,Logan Park,2,1,Yale
-93.251025000203583,44.999416000148358,210,02/21/2019 02:52am,"1121 quincy street,Minneapolis,MN",Snow Emergency,44.999416,-93.251025,1,Northeast,Logan Park,2,1,Yale
-93.278329000283122,44.961772999924051,211,02/21/2019 02:55am,"2100 nicollet. AV s,Minneapolis,MN",Snow Emergency,44.961773,-93.278329,10,Powderhorn,Whittier,3,1,Yale
-93.296901999727481,44.946585000097741,212,02/21/2019 02:55am,"263 31ST ST W,Minneapolis,MN",Snow Emergency,44.946585,-93.296902,10,Calhoun Isle,CARAG,5,1,Yale
-93.314926999981026,44.998965000034786,213,02/21/2019 03:03am,"2700 Golden Valley Rd,Minneapolis,MN",Snow Emergency,44.998965,-93.314927,5,Near North,Willard - Hay,1,1,Yale
-93.278329000283122,44.961772999924051,214,02/21/2019 03:07am,"2100 block of nicollet ave S,Minneapolis,MN",Snow Emergency,44.961773,-93.278329,10,Powderhorn,Whittier,3,1,Yale
-93.279705999931934,44.946573999590441,215,02/21/2019 03:07am,"3101 blaisdell ave ,Minneapolis,MN",Snow Emergency,44.946574,-93.279706,8,Powderhorn,Lyndale,5,1,Yale
-93.316179000160673,44.999096999826747,216,02/21/2019 03:08am,"2800 Golden Valley Rd ,Minneapolis,MN",Snow Emergency,44.999097,-93.316179,5,Near North,Willard - Hay,1,1,Yale
-93.247024000057536,44.990993000226808,217,02/21/2019 03:08am,"301 harrison street,Minneapolis,MN",Snow Emergency,44.990993,-93.247024,3,University,Marcy Holmes,4,1,Yale
-93.227082000433938,44.948376999998629,218,02/21/2019 03:10am,"3000 31st ave,Minneapolis,MN",Snow Emergency,44.948377,-93.227082,2,Longfellow,Longfellow,4,1,Yale
-93.295714999847348,45.027627999832362,219,02/21/2019 03:11am,"4001-4099 FREMONT AVE N,Minneapolis,MN",Snow Emergency,45.027628,-93.295715,4,Camden,Webber - Camden,1,1,Yale
-93.314926999981026,44.998965000034786,220,02/21/2019 03:13am,"2700 Golden Valley Rd,Minneapolis,MN",Snow Emergency,44.998965,-93.314927,5,Near North,Willard - Hay,1,1,Yale
-93.275325000248529,44.955515000017272,221,02/21/2019 03:13am,"2600 Stevens Avenue South,Minneapolis,MN",Snow Emergency,44.955515,-93.275325,10,Powderhorn,Whittier,3,1,Yale
-93.213393999633354,44.941469999840649,222,02/21/2019 03:13am,"4147 34th st,Minneapolis,MN",Snow Emergency,44.94147,-93.213394,12,Longfellow,Howe,6,1,Yale
-93.275325000248529,44.955515000017272,223,02/21/2019 03:14am,"2600 block of stevens,Minneapolis,MN",Snow Emergency,44.955515,-93.275325,10,Powderhorn,Whittier,3,1,Yale
-93.278329000283122,44.961772999924051,224,02/21/2019 03:14am,"2100 block of nicollet ave S,Minneapolis,MN",Snow Emergency,44.961773,-93.278329,10,Powderhorn,Whittier,3,1,Yale
-93.247222000195109,44.993681000078141,225,02/21/2019 03:15am,"401 harrison street,Minneapolis,MN",Snow Emergency,44.993681,-93.247222,3,Northeast,Beltrami,2,1,Yale
-93.277919000261591,44.953707000277916,226,02/21/2019 03:16am,"2700 NICOLLET AVE S,Minneapolis,MN",Snow Emergency,44.953707,-93.277919,10,Powderhorn,Whittier,3,1,Yale
-93.241053999942096,44.95759199957115,227,02/21/2019 03:20am,"2480 minnehaha avenue,Minneapolis,MN",Snow Emergency,44.957592,-93.241054,2,Longfellow,Seward,4,1,Yale
-93.276544999851808,44.964161000329966,228,02/21/2019 03:23am,"100 19th st e,Minneapolis,MN",Snow Emergency,44.964161,-93.276545,6,Central,Steven's Square - Loring Heights,3,1,Yale
-93.279700999701333,44.948359000067853,229,02/21/2019 03:26am,"3000 block of blaisdelll ave ,Minneapolis,MN",Snow Emergency,44.948359,-93.279701,10,Powderhorn,Whittier,3,1,Yale
-93.298146999584333,45.035755999639719,230,02/21/2019 03:29am,"1400 44th av n,Minneapolis,MN",Snow Emergency,45.035756,-93.298147,4,Camden,Webber - Camden,1,1,Yale
-93.279700999701333,44.948359000067853,231,02/21/2019 03:29am,"3000 block of blaisdell Ave s,Minneapolis,MN",Snow Emergency,44.948359,-93.279701,10,Powderhorn,Whittier,3,1,Yale
-93.317448000224999,44.999132999688243,232,02/21/2019 03:36am,"2900 Golden Valley Rd ,Minneapolis,MN",Snow Emergency,44.999133,-93.317448,5,Near North,Willard - Hay,1,1,Yale
-93.317448000224999,44.999132999688243,233,02/21/2019 03:40am,"2900 Golden Valley Rd ,Minneapolis,MN",Snow Emergency,44.999133,-93.317448,5,Near North,Willard - Hay,1,1,Yale
-93.30483400038878,44.946561999936421,234,02/21/2019 03:40am,"1749 West 31st St. ,Minneapolis,MN",Snow Emergency,44.946562,-93.304834,10,Calhoun Isle,ECCO,5,1,Yale
-93.27497100011152,44.965420999979244,235,02/21/2019 03:46am,"00 block 18th st e,Minneapolis,MN",Snow Emergency,44.965421,-93.274971,6,Central,Steven's Square - Loring Heights,3,1,Yale
-93.312045000176568,44.998801999712555,236,02/21/2019 03:47am,"2500 Golden Valley Road ,Minneapolis,MN",Snow Emergency,44.998802,-93.312045,5,Near North,Willard - Hay,1,1,Yale
-93.301411999963818,44.979071999972859,237,02/21/2019 03:52am,"199 cedar lake rd,Minneapolis,MN",Snow Emergency,44.979072,-93.301412,5,Near North,Harrison,3,1,Yale
-93.278329000283122,44.961772999924051,238,02/21/2019 03:53am,"2100 BLOCK OF NICOLLET AVE,Minneapolis,MN",Snow Emergency,44.961773,-93.278329,10,Powderhorn,Whittier,3,1,Yale
-93.240767000196854,44.956572000197696,239,02/21/2019 04:01am,"2510 minnehaha avenue,Minneapolis,MN",Snow Emergency,44.956572,-93.240767,2,Longfellow,Seward,4,1,Yale
-93.212482999890483,44.93151899960219,240,02/21/2019 04:15am,"3931 42nd Ave S,Minneapolis,MN",Snow Emergency,44.931519,-93.212483,12,Longfellow,Howe,6,1,Yale
-93.279705999931934,44.946573999590441,241,02/21/2019 04:15am,"3101 Blasidell AVE,Minneapolis,MN",Snow Emergency,44.946574,-93.279706,8,Powderhorn,Lyndale,5,1,Yale
-93.279705999931934,44.946573999590441,242,02/21/2019 04:18am,"3101 Blaisdell AVE,Minneapolis,MN",Snow Emergency,44.946574,-93.279706,8,Powderhorn,Lyndale,5,1,Yale
-93.247031000380332,44.936712999905069,243,02/21/2019 04:20am,"3633 Cedar Avenue South,Minneapolis,MN",Snow Emergency,44.936713,-93.247031,12,Powderhorn,Standish,6,1,Yale
-93.314926999981026,44.998965000034786,244,02/21/2019 04:21am,"2700 Golden Valley Road,Minneapolis,MN",Snow Emergency,44.998965,-93.314927,5,Near North,Willard - Hay,1,1,Yale
-93.279705999931934,44.946573999590441,245,02/21/2019 04:25am,"3100 block of Blaisdell Avenue so,Minneapolis,MN",Snow Emergency,44.946574,-93.279706,8,Powderhorn,Lyndale,5,1,Yale
-93.27040099980627,45.01646100017507,246,02/21/2019 04:29am,"2650 grand street ne,Minneapolis,MN",Snow Emergency,45.016461,-93.270401,1,Northeast,Marshall Terrace,2,1,Yale
-93.236431999936826,44.955802999808668,247,02/21/2019 04:36am,"2460 26th Street East,Minneapolis,MN",Snow Emergency,44.955803,-93.236432,2,Longfellow,Seward,4,1,Yale
-93.279705999931934,44.946573999590441,248,02/21/2019 05:00am,"3100 block of Blaisdell Avenue so,Minneapolis,MN",Snow Emergency,44.946574,-93.279706,8,Powderhorn,Lyndale,5,1,Yale
-93.247634000308835,44.927415000102201,249,02/21/2019 05:18am,"4146 Cedar Ave S,Minneapolis,MN",Snow Emergency,44.927415,-93.247634,8,Powderhorn,Bancroft,6,1,Yale
-93.24740300044806,44.943349000156275,250,02/21/2019 05:23am,"3235 Cedar Ave S,Minneapolis,MN",Snow Emergency,44.943349,-93.247403,9,Powderhorn,Corcoran,6,1,Yale
-93.281878000269444,44.994180999753382,251,02/21/2019 08:16am,"2612 3rd st n ,Minneapolis,MN",Snow Emergency,44.994181,-93.281878,5,Near North,Near - North,1,2,Yale
-93.250138999814965,44.983241999818517,252,02/21/2019 08:25am,"424 2ND AVE SE,Minneapolis,MN",Snow Emergency,44.983242,-93.250139,3,University,Marcy Holmes,4,2,Yale
-93.303683000370143,44.947579000070846,253,02/21/2019 08:28am,"3020 James ave s ,Minneapolis,MN",Snow Emergency,44.947579,-93.303683,10,Calhoun Isle,ECCO,5,2,Yale
-93.286424000367276,44.997076000157335,254,02/21/2019 08:28am,"500 Lynn Park Circle, North,MN",Snow Emergency,44.997076,-93.286424,5,Near North,Near - North,1,2,Yale
-93.303742000392958,44.947303999979681,255,02/21/2019 08:30am,"3028 James ave s ,Minneapolis,MN",Snow Emergency,44.947304,-93.303742,10,Calhoun Isle,ECCO,5,2,Yale
-93.252531999552104,44.987417999940817,256,02/21/2019 08:32am,"408 2nd Ave SE,Minneapolis,MN",Snow Emergency,44.987418,-93.252532,3,University,Marcy Holmes,4,2,Yale
-93.283698999709031,45.013449999817681,257,02/21/2019 08:34am,"3224 N 3rd st ,Minneapolis,MN",Snow Emergency,45.01345,-93.283699,4,Camden,McKinley,1,2,Yale
-93.27536800043282,44.984899999835193,258,02/21/2019 08:36am,"322 3rd st n ,Minneapolis,MN",Snow Emergency,44.9849,-93.275368,3,Central,North Loop,3,2,Yale
-93.252528000266977,44.987422000125264,259,02/21/2019 08:37am,"414 2nd Ave SE,Minneapolis,MN",Snow Emergency,44.987422,-93.252528,3,University,Marcy Holmes,4,2,Yale
-93.250248000344925,44.983353000440673,260,02/21/2019 08:38am,"416 2nd ave se,Minneapolis,MN",Snow Emergency,44.983353,-93.250248,3,University,Marcy Holmes,4,2,Yale
-93.284703000143281,45.018166999707319,261,02/21/2019 08:39am,"3450 4th st n,Minneapolis,MN",Snow Emergency,45.018167,-93.284703,4,Camden,McKinley,1,2,Yale
-93.247696999616778,44.928828999658663,262,02/21/2019 08:44am,"1818 41 st e,Minneapolis,MN",Snow Emergency,44.928829,-93.247697,8,Powderhorn,Bancroft,6,2,Yale
-93.25051199992879,44.983457999886866,263,02/21/2019 08:47am,"402 2nd ave se,Minneapolis,MN",Snow Emergency,44.983458,-93.250512,3,University,Marcy Holmes,4,2,Yale
-93.300832000196635,44.949883000200373,264,02/21/2019 08:49am,"Humboldt/ The Mall,Minneapolis,MN",Snow Emergency,44.949883,-93.300832,7,Calhoun Isle,East Isles,3,2,Yale
-93.249176000372074,44.982896000050403,265,02/21/2019 08:51am,"520 2nd ave se,Minneapolis,MN",Snow Emergency,44.982896,-93.249176,3,University,Marcy Holmes,4,2,Yale
-93.290778999751012,44.988414000006173,266,02/21/2019 08:57am,"1042Aldrich Avenue n,Minneapolis,MN",Snow Emergency,44.988414,-93.290779,5,Near North,Sumner - Glenwood,1,2,Yale
-93.284648000304912,45.013900999931252,267,02/21/2019 09:05am,"3222 4th st n ,Minneapolis,MN",Snow Emergency,45.013901,-93.284648,4,Camden,McKinley,1,2,Yale
-93.299848999831454,44.94530300033324,268,02/21/2019 09:06am,"3136 Holmes ave,Minneapolis,MN",Snow Emergency,44.945303,-93.299849,10,Calhoun Isle,ECCO,5,2,Yale
-93.284663000097339,45.013681999724554,269,02/21/2019 09:08am,"3214 4th st n ,Minneapolis,MN",Snow Emergency,45.013682,-93.284663,4,Camden,McKinley,1,2,Yale
-93.303683000370143,44.947214000325914,270,02/21/2019 09:12am,"3032 James ave s,Minneapolis,MN",Snow Emergency,44.947214,-93.303683,10,Calhoun Isle,ECCO,5,2,Yale
-93.284646000212717,45.013536000186321,271,02/21/2019 09:14am,"3210 4th st n,Minneapolis,MN",Snow Emergency,45.013536,-93.284646,4,Camden,McKinley,1,2,Yale
-93.253953000330682,44.934564999774977,272,02/21/2019 09:16am,"3736 15th ave,Minneapolis,MN",Snow Emergency,44.934565,-93.253953,9,Powderhorn,Powderhorn Park,6,2,Yale
-93.301068000287955,44.945923000146365,273,02/21/2019 09:17am,"3116 humboldt ave s,Minneapolis,MN",Snow Emergency,44.945923,-93.301068,10,Calhoun Isle,ECCO,5,2,Yale
-93.248319000421475,44.988092999592311,274,02/21/2019 09:18am,"600 4TH AVE SE,Minneapolis,MN",Snow Emergency,44.988093,-93.248319,3,University,Marcy Holmes,4,2,Yale
-93.2621790001607,44.928945999658197,275,02/21/2019 09:18am,"824 41st st,Minneapolis,MN",Snow Emergency,44.928946,-93.262179,8,Powderhorn,Bancroft,6,2,Yale
-93.291050999703828,44.991409999671816,276,02/21/2019 09:19am,"626 Bryant Avenue n,Minneapolis,MN",Snow Emergency,44.99141,-93.291051,5,Near North,Near - North,1,2,Yale
-93.284652999636194,45.005564000378342,277,02/21/2019 09:21am,"2522 4th st n,Minneapolis,MN",Snow Emergency,45.005564,-93.284653,5,Near North,Hawthorne,1,2,Yale
-93.294708000174012,44.962117999646011,278,02/21/2019 09:22am,"2016 Emerson Ave S,Minneapolis,MN",Snow Emergency,44.962118,-93.294708,7,Calhoun Isle,Lowry Hill,3,2,Yale
-93.245968999969364,44.984213999676399,279,02/21/2019 09:22am,"630 4th st se,Minneapolis,MN",Snow Emergency,44.984214,-93.245969,3,University,Marcy Holmes,4,2,Yale
-93.291050999703828,44.991409999671816,280,02/21/2019 09:23am,"624 bryant ave n,Minneapolis,MN",Snow Emergency,44.99141,-93.291051,5,Near North,Near - North,1,2,Yale
-93.23430900006025,44.9894249998639,281,02/21/2019 09:24am,"1054 12th ave se,Minneapolis,MN",Snow Emergency,44.989425,-93.234309,2,University,Como,4,2,Yale
-93.270414999552543,45.003454000201998,282,02/21/2019 09:24am,"1526 Grand st ne,Minneapolis,MN",Snow Emergency,45.003454,-93.270415,3,Northeast,Sheridan,2,2,Yale
-93.246828000012158,44.928986999750293,283,02/21/2019 09:26am,"1830 41st st e,Minneapolis,MN",Snow Emergency,44.928987,-93.246828,12,Powderhorn,Standish,6,2,Yale
-93.246357999921713,44.928965999681168,284,02/21/2019 09:29am,"1838 41st st e,Minneapolis,MN",Snow Emergency,44.928966,-93.246358,12,Powderhorn,Standish,6,2,Yale
-93.234356999575823,44.990025999700151,285,02/21/2019 09:29am,"1070 12th ave se,Minneapolis,MN",Snow Emergency,44.990026,-93.234357,2,University,Como,4,2,Yale
-93.290698999659071,44.98645100031348,286,02/21/2019 09:31am,"800 Aldrich av n ,Minneapolis,MN",Snow Emergency,44.986451,-93.290699,5,Near North,Sumner - Glenwood,1,2,Yale
-93.270395000428891,45.009494999994331,287,02/21/2019 09:31am,"2118 grand st ne,Minneapolis,MN",Snow Emergency,45.009495,-93.270395,3,Northeast,Bottineau,2,2,Yale
-93.284553000420601,45.002742999789689,288,02/21/2019 09:33am,"2300 4th st n ,Minneapolis,MN",Snow Emergency,45.002743,-93.284553,5,Near North,Hawthorne,1,2,Yale
-93.276752000404485,44.968915000127197,289,02/21/2019 09:33am,"114 14TH ST W,Minneapolis,MN",Snow Emergency,44.968915,-93.276752,7,Central,Loring Park,3,2,Yale
-93.284673999705262,45.00457199959817,290,02/21/2019 09:37am,"2426 4th st n ,Minneapolis,MN",Snow Emergency,45.004572,-93.284674,5,Near North,Hawthorne,1,2,Yale
-93.299858000246502,44.945121000034192,291,02/21/2019 09:41am,"3142 Holmes ave s,Minneapolis,MN",Snow Emergency,44.945121,-93.299858,10,Calhoun Isle,ECCO,5,2,Yale
-93.246653000035906,44.98703200012676,292,02/21/2019 09:43am,"526 5th ave se,Minneapolis,MN",Snow Emergency,44.987032,-93.246653,3,University,Marcy Holmes,4,2,Yale
-93.248481999844387,44.930627999882347,293,02/21/2019 09:48am,"1802 40th Street East,Minneapolis,MN",Snow Emergency,44.930628,-93.248482,8,Powderhorn,Bancroft,6,2,Yale
-93.246708999920372,44.987471999733032,294,02/21/2019 09:49am,"602 5th ave se,Minneapolis,MN",Snow Emergency,44.987472,-93.246709,3,University,Marcy Holmes,4,2,Yale
-93.288831999896843,44.983005999727141,295,02/21/2019 09:49am,"501 lyndale pl,Minneapolis,MN",Snow Emergency,44.983006,-93.288832,5,Near North,Sumner - Glenwood,3,2,Yale
-93.250090000253294,44.987748999916448,296,02/21/2019 09:49am,"506 3rd ave se,Minneapolis,MN",Snow Emergency,44.987749,-93.25009,3,University,Marcy Holmes,4,2,Yale
-93.244796999881601,44.989363999748832,297,02/21/2019 09:49am,"802 5TH AVE SE,Minneapolis,MN",Snow Emergency,44.989364,-93.244797,3,University,Marcy Holmes,4,2,Yale
-93.248366999937048,44.930628999928445,298,02/21/2019 09:50am,"1804 40th Street East,Minneapolis,MN",Snow Emergency,44.930629,-93.248367,8,Powderhorn,Bancroft,6,2,Yale
-93.246314999737422,44.935792999747207,299,02/21/2019 09:51am,"3700 Longfellow,Minneapolis,MN",Snow Emergency,44.935793,-93.246315,12,Powderhorn,Standish,6,2,Yale
-93.29596799982329,44.961918000315507,300,02/21/2019 09:53am,"2020 Fremont Ave S,Minneapolis,MN",Snow Emergency,44.961918,-93.295968,7,Calhoun Isle,Lowry Hill,3,2,Yale
-93.299848999831454,44.944136999622913,301,02/21/2019 09:54am,"3216 Holmes ave ,Minneapolis,MN",Snow Emergency,44.944137,-93.299849,10,Calhoun Isle,ECCO,5,2,Yale
-93.290696000420041,44.985978000084685,302,02/21/2019 09:55am,"740 Aldrich ave n ,Minneapolis,MN",Snow Emergency,44.985978,-93.290696,5,Near North,Sumner - Glenwood,1,2,Yale
-93.28492999981961,45.004804000404363,303,02/21/2019 09:56am,"2500 4th st n,Minneapolis,MN",Snow Emergency,45.004804,-93.28493,5,Near North,Hawthorne,1,2,Yale
-93.301145000241547,44.942488000021228,304,02/21/2019 09:57am,"3320 humboldt ave s,Minneapolis,MN",Snow Emergency,44.942488,-93.301145,10,Calhoun Isle,ECCO,5,2,Yale
-93.295982999615717,44.962877999620048,305,02/21/2019 09:58am,"1940 Fremont ave s,Minneapolis,MN",Snow Emergency,44.962878,-93.295983,7,Calhoun Isle,Lowry Hill,3,2,Yale
-93.286757999581994,45.009566999717322,306,02/21/2019 09:59am,"2904 6th st n ,Minneapolis,MN",Snow Emergency,45.009567,-93.286758,5,Near North,Hawthorne,1,2,Yale
-93.248438999660095,44.994742999589789,307,02/21/2019 10:00am,"1002 3rd ave ne,Minneapolis,MN",Snow Emergency,44.994743,-93.248439,3,University,Marcy Holmes,2,2,Yale
-93.259618999916881,44.994572999844138,308,02/21/2019 10:01am,"324 6th ave ne,Minneapolis,MN",Snow Emergency,44.994573,-93.259619,3,Northeast,St. Anthony West,2,2,Yale
-93.234328000037124,44.990464000113548,309,02/21/2019 10:02am,"1086 12th ave se,Minneapolis,MN",Snow Emergency,44.990464,-93.234328,2,University,Como,4,2,Yale
-93.248265999776038,44.986059000222724,310,02/21/2019 10:04am,"415 5th ave se,Minneapolis,MN",Snow Emergency,44.986059,-93.248266,3,University,Marcy Holmes,4,2,Yale
-93.269257000110429,45.00105500018816,311,02/21/2019 10:05am,"1318 grand st ne,Minneapolis,MN",Snow Emergency,45.001055,-93.269257,3,Northeast,Sheridan,2,2,Yale
-93.233051999650002,44.991000999696439,312,02/21/2019 10:06am,"1106 13th ave se,Minneapolis,MN",Snow Emergency,44.991001,-93.233052,2,University,Como,4,2,Yale
-93.297572000047751,44.989496000440113,313,02/21/2019 10:06am,"1116 Humboldt ave n ,Minneapolis,MN",Snow Emergency,44.989496,-93.297572,5,Near North,Near - North,1,2,Yale
-93.267975000345928,45.000023000261308,314,02/21/2019 10:06am,"1208 NE main st ,Minneapolis,MN",Snow Emergency,45.000023,-93.267975,3,Northeast,Sheridan,2,2,Yale
-93.298184000391245,44.99089400015805,315,02/21/2019 10:07am,"1202 Humboldt Ave. N.,Minneapolis,MN",Snow Emergency,44.990894,-93.298184,5,Near North,Near - North,1,2,Yale
-93.249982999815529,44.985623999947677,316,02/21/2019 10:07am,"326 4th ave se,Minneapolis,MN",Snow Emergency,44.985624,-93.249983,3,University,Marcy Holmes,4,2,Yale
-93.259301999687523,44.996883000250307,317,02/21/2019 10:09am,"708 5th ave n ,Minneapolis,MN",Snow Emergency,44.996883,-93.259302,3,Northeast,St. Anthony West,2,2,Yale
-93.2437330002777,44.988357000075553,318,02/21/2019 10:09am,"720 6th ave se,Minneapolis,MN",Snow Emergency,44.988357,-93.243733,3,University,Marcy Holmes,4,2,Yale
-93.315577000278324,44.996633999559492,319,02/21/2019 10:09am,"1642 vincent ave n,Minneapolis,MN",Snow Emergency,44.996634,-93.315577,5,Near North,Willard - Hay,1,2,Yale
-93.246759999574294,44.984606999813252,320,02/21/2019 10:14am,"326 6th ave se,Minneapolis,MN",Snow Emergency,44.984607,-93.24676,3,University,Marcy Holmes,4,2,Yale
-93.247083000080352,44.986469000244199,321,02/21/2019 10:18am,"504 5th ave se ,Minneapolis,MN",Snow Emergency,44.986469,-93.247083,3,University,Marcy Holmes,4,2,Yale
-93.292691999835881,44.982898000142654,322,02/21/2019 10:18am,"1012 5th av n,Minneapolis,MN",Snow Emergency,44.982898,-93.292692,5,Near North,Sumner - Glenwood,3,2,Yale
-93.249096000280133,44.984812000273621,323,02/21/2019 10:18am,"305 5TH AVE SE,Minneapolis,MN",Snow Emergency,44.984812,-93.249096,3,University,Marcy Holmes,4,2,Yale
-93.299888999877396,44.944354999783457,324,02/21/2019 10:19am,"3208 Holmes ave s,Minneapolis,MN",Snow Emergency,44.944355,-93.299889,10,Calhoun Isle,ECCO,5,2,Yale
-93.260324000052549,44.998404000244477,325,02/21/2019 10:24am,"826 5th av n ,Minneapolis,MN",Snow Emergency,44.998404,-93.260324,3,Northeast,St. Anthony West,2,2,Yale
-93.295650000447154,44.99198400006162,326,02/21/2019 10:27am,"1020 N Fremont ave ,Minneapolis,MN",Snow Emergency,44.991984,-93.29565,5,Near North,Near - North,1,2,Yale
-93.296863999773734,44.993345999918006,327,02/21/2019 10:31am,"1406 Girard Ave. N.,Minneapolis,MN",Snow Emergency,44.993346,-93.296864,5,Near North,Near - North,1,2,Yale
-93.286224000137452,45.014408999975444,328,02/21/2019 10:31am,"3238 6th st n ,Minneapolis,MN",Snow Emergency,45.014409,-93.286224,4,Camden,McKinley,1,2,Yale
-93.315550999978655,44.99674400013555,329,02/21/2019 10:32am,"1646 vincent ave n,Minneapolis,MN",Snow Emergency,44.996744,-93.315551,5,Near North,Willard - Hay,1,2,Yale
-93.297148000279947,44.962458000036747,330,02/21/2019 10:33am,"2004 Girard Ave S,Minneapolis,MN",Snow Emergency,44.962458,-93.297148,7,Calhoun Isle,Lowry Hill,3,2,Yale
-93.244836999927543,44.984696000320184,331,02/21/2019 10:34am,"416 7th ave se,Minneapolis,MN",Snow Emergency,44.984696,-93.244837,3,University,Marcy Holmes,4,2,Yale
-93.257559000247625,44.991801999762515,332,02/21/2019 10:35am,"310 4th st ne,Minneapolis,MN",Snow Emergency,44.991802,-93.257559,3,Northeast,St. Anthony West,2,2,Yale
-93.293426000409568,44.96492499958913,333,02/21/2019 10:35am,"1810 Dupont ave s,Minneapolis,MN",Snow Emergency,44.964925,-93.293426,7,Calhoun Isle,Lowry Hill,3,2,Yale
-93.286243000114325,45.019874000185041,334,02/21/2019 10:35am,"3546 6th st ,Minneapolis,MN",Snow Emergency,45.019874,-93.286243,4,Camden,McKinley,1,2,Yale
-93.257107000087956,44.993719000031888,335,02/21/2019 10:36am,"416 5th st ne,Minneapolis,MN",Snow Emergency,44.993719,-93.257107,3,Northeast,St. Anthony West,2,2,Yale
-93.299126999811165,44.997663000247314,336,02/21/2019 10:36am,"1804 Irving ave n ,Minneapolis,MN",Snow Emergency,44.997663,-93.299127,5,Near North,Near - North,1,2,Yale
-93.299432000386446,44.983099000418576,337,02/21/2019 10:37am,"530 irving av n,Minneapolis,MN",Snow Emergency,44.983099,-93.299432,5,Near North,Harrison,3,2,Yale
-93.297400000209791,44.946052999846131,338,02/21/2019 10:38am,"3112 GIRARD AVE S ,Minneapolis,MN",Snow Emergency,44.946053,-93.2974,10,Calhoun Isle,CARAG,5,2,Yale
-93.249038000303415,44.984495000044262,339,02/21/2019 10:38am,"300 5th ave se,Minneapolis,MN",Snow Emergency,44.984495,-93.249038,3,University,Marcy Holmes,4,2,Yale
-93.259686000308648,44.936081000437866,340,02/21/2019 10:38am,"1008 37th st e,Minneapolis,MN",Snow Emergency,44.936081,-93.259686,9,Powderhorn,Powderhorn Park,6,2,Yale
-93.290903000073342,44.964639999936082,341,02/21/2019 10:39am,"1820 BRYANT AVE S,Minneapolis,MN",Snow Emergency,44.96464,-93.290903,7,Calhoun Isle,Lowry Hill,3,2,Yale
-93.23435799962192,44.988114999707534,342,02/21/2019 10:40am,"1006 12th ave se,Minneapolis,MN",Snow Emergency,44.988115,-93.234358,2,University,Como,4,2,Yale
-93.290887000234818,44.965933000207826,343,02/21/2019 10:41am,"1774 BRYANT AVE S,Minneapolis,MN",Snow Emergency,44.965933,-93.290887,7,Calhoun Isle,Lowry Hill,3,2,Yale
-93.261069000234158,44.936128999953439,344,02/21/2019 10:41am,"914 37th st e,Minneapolis,MN",Snow Emergency,44.936129,-93.261069,9,Powderhorn,Powderhorn Park,6,2,Yale
-93.246319999967966,44.936522000090292,345,02/21/2019 10:42am,"3638 Longfellow Avenue South,Minneapolis,MN",Snow Emergency,44.936522,-93.24632,12,Powderhorn,Standish,6,2,Yale
-93.247127000310797,44.986411000267481,346,02/21/2019 10:42am,"502 5th ave se,Minneapolis,MN",Snow Emergency,44.986411,-93.247127,3,University,Marcy Holmes,4,2,Yale
-93.234192000060716,44.988541999613631,347,02/21/2019 10:42am,"1022 12th ave se,Minneapolis,MN",Snow Emergency,44.988542,-93.234192,2,University,Como,4,2,Yale
-93.271619000216674,44.961490000363256,348,02/21/2019 10:42am,"2102 Clinton Avenue South,Minneapolis,MN",Snow Emergency,44.96149,-93.271619,10,Powderhorn,Whittier,3,2,Yale
-93.264946000057819,45.009504000409322,349,02/21/2019 10:44am,"2104 3rd st ne,Minneapolis,MN",Snow Emergency,45.009504,-93.264946,3,Northeast,Bottineau,2,2,Yale
-93.234567000266793,44.986975000196139,350,02/21/2019 10:44am,"922 12th Ave se,Minneapolis,MN",Snow Emergency,44.986975,-93.234567,2,University,Como,4,2,Yale
-93.262285999699088,44.930553000021007,351,02/21/2019 10:44am,"816 40th st e,Minneapolis,MN",Snow Emergency,44.930553,-93.262286,8,Powderhorn,Bancroft,6,2,Yale
-93.244153999907155,44.988365000444446,352,02/21/2019 10:46am,"716 6TH AVE SE,Minneapolis,MN",Snow Emergency,44.988365,-93.244154,3,University,Marcy Holmes,4,2,Yale
-93.264978999780965,45.012566999567412,353,02/21/2019 10:47am,"2410 3rd st ne,Minneapolis,MN",Snow Emergency,45.012567,-93.264979,3,Northeast,Bottineau,2,2,Yale
-93.315612000093665,44.998319999968089,354,02/21/2019 10:50am,"1818 VINCENT AVE N,Minneapolis,MN",Snow Emergency,44.99832,-93.315612,5,Near North,Willard - Hay,1,2,Yale
-93.24632400015247,44.937361000110116,355,02/21/2019 10:52am,"3608 Longfellow Avenue South,Minneapolis,MN",Snow Emergency,44.937361,-93.246324,12,Powderhorn,Standish,6,2,Yale
-93.264933000357644,45.003851999670076,356,02/21/2019 10:52am,"1522 3rd st ne,Minneapolis,MN",Snow Emergency,45.003852,-93.264933,3,Northeast,Sheridan,2,2,Yale
-93.239621999555595,44.98569799976292,357,02/21/2019 10:53am,"802 7th st se,Minneapolis,MN",Snow Emergency,44.985698,-93.239622,3,University,Marcy Holmes,4,2,Yale
-93.243073000418576,44.986913000034974,358,02/21/2019 10:54am,"624 7th ave se,Minneapolis,MN",Snow Emergency,44.986913,-93.243073,3,University,Marcy Holmes,4,2,Yale
-93.325919999708162,44.922025999800098,359,02/21/2019 10:54am,"4428 S choweN ave ,Minneapolis,MN",Snow Emergency,44.922026,-93.32592,13,Southwest,Linden Hills,5,2,Yale
-93.243848000185039,44.943880000361787,360,02/21/2019 10:55am,"3220 20th Avenue South,Minneapolis,MN",Snow Emergency,44.94388,-93.243848,9,Powderhorn,Corcoran,6,2,Yale
-93.325921999800414,44.922140999707437,361,02/21/2019 10:57am,"4424 chosen ave s,Minneapolis,MN",Snow Emergency,44.922141,-93.325922,13,Southwest,Linden Hills,5,2,Yale
-93.309198000187507,44.981798999824036,362,02/21/2019 10:59am,"2218 4th av n ,Minneapolis,MN",Snow Emergency,44.981799,-93.309198,5,Near North,Harrison,3,2,Yale
-93.255255000118098,44.9975640001785,363,02/21/2019 11:05am,"720 Jefferson St NE,Minneapolis,MN",Snow Emergency,44.997564,-93.255255,3,Northeast,St. Anthony East,2,2,Yale
-93.297425999610141,44.944174000429825,364,02/21/2019 11:07am,"3214 GIRARD ave s ,Minneapolis,MN",Snow Emergency,44.944174,-93.297426,10,Calhoun Isle,CARAG,5,2,Yale
-93.259114000011039,45.004418999737084,365,02/21/2019 11:07am,"1606 6th st ne,Minneapolis,MN",Snow Emergency,45.004419,-93.259114,3,Northeast,Sheridan,2,2,Yale
-93.326083000030394,44.921966999777283,366,02/21/2019 11:12am,"4430chowen ave s,Minneapolis,MN",Snow Emergency,44.921967,-93.326083,13,Southwest,Linden Hills,5,2,Yale
-93.24591600022319,44.983315999633703,367,02/21/2019 11:12am,"306 7TH AVE SE,Minneapolis,MN",Snow Emergency,44.983316,-93.245916,3,University,Marcy Holmes,4,2,Yale
-93.238426000159734,44.983665999586265,368,02/21/2019 11:12am,"516 11th Ave se,Minneapolis,MN",Snow Emergency,44.983666,-93.238426,3,University,Marcy Holmes,4,2,Yale
-93.286110000276267,45.024606999913146,369,02/21/2019 11:13am,"3822 6th st n ,Minneapolis,MN",Snow Emergency,45.024607,-93.28611,4,Camden,Webber - Camden,1,2,Yale
-93.246244000060528,44.983422000025314,370,02/21/2019 11:13am,"304 7th ave se,Minneapolis,MN",Snow Emergency,44.983422,-93.246244,3,University,Marcy Holmes,4,2,Yale
-93.275873000338663,44.960759999974073,371,02/21/2019 11:13am,"2218 Stevens ave s,Minneapolis,MN",Snow Emergency,44.96076,-93.275873,10,Powderhorn,Whittier,3,2,Yale
-93.234793999943122,44.986261999691578,372,02/21/2019 11:15am,"912 12th Ave se,Minneapolis,MN",Snow Emergency,44.986262,-93.234794,3,University,Marcy Holmes,4,2,Yale
-93.325569999755658,44.921880000261865,373,02/21/2019 11:15am,"4434 chowen ave s,Minneapolis,MN",Snow Emergency,44.92188,-93.32557,13,Southwest,Linden Hills,5,2,Yale
-93.239841999808391,44.944939999781241,374,02/21/2019 11:15am,"2214 32nd st,Minneapolis,MN",Snow Emergency,44.94494,-93.239842,9,Powderhorn,Corcoran,6,2,Yale
-93.271728999893412,44.958676000097398,375,02/21/2019 11:16am,"2412 Clinton Avenue South,Minneapolis,MN",Snow Emergency,44.958676,-93.271729,10,Powderhorn,Whittier,3,2,Yale
-93.243298000002653,44.984341000137078,376,02/21/2019 11:16am,"420 8th ave se,Minneapolis,MN",Snow Emergency,44.984341,-93.243298,3,University,Marcy Holmes,4,2,Yale
-93.30349699988659,44.984886000088864,377,02/21/2019 11:16am,"1214 Frontage ROAD,Minneapolis,MN",Snow Emergency,44.984886,-93.303497,5,Near North,Near - North,1,2,Yale
-93.256584000251394,45.00160999970177,378,02/21/2019 11:18am,"1322 adams st ne,Minneapolis,MN",Snow Emergency,45.00161,-93.256584,1,Northeast,Logan Park,2,2,Yale
-93.237836999977503,44.944950000242386,379,02/21/2019 11:18am,"2328 32nd st,Minneapolis,MN",Snow Emergency,44.94495,-93.237837,9,Powderhorn,Corcoran,6,2,Yale
-93.233036999857632,44.988190999614972,380,02/21/2019 11:19am,"1010 13th ave se,Minneapolis,MN",Snow Emergency,44.988191,-93.233037,2,University,Como,4,2,Yale
-93.275874000384761,44.960745000181646,381,02/21/2019 11:19am,"2220 Stevens Ave S,Minneapolis,MN",Snow Emergency,44.960745,-93.275874,10,Powderhorn,Whittier,3,2,Yale
-93.239621999555595,44.98569799976292,382,02/21/2019 11:19am,"800 7th st se,Minneapolis,MN",Snow Emergency,44.985698,-93.239622,3,University,Marcy Holmes,4,2,Yale
-93.256547000343744,44.999204000264456,383,02/21/2019 11:19am,"1114 Adams st ne,Minneapolis,MN",Snow Emergency,44.999204,-93.256547,1,Northeast,Logan Park,2,2,Yale
-93.315990999584926,44.988092000445533,384,02/21/2019 11:20am,"2804 Oak Park Ave. N.,Minneapolis,MN",Snow Emergency,44.988092,-93.315991,5,Near North,Willard - Hay,1,2,Yale
-93.234337999598949,44.988459000282717,385,02/21/2019 11:21am,"1018 12th ave se,Minneapolis,MN",Snow Emergency,44.988459,-93.234338,2,University,Como,4,2,Yale
-93.315606999863121,44.997909999946614,386,02/21/2019 11:22am,"1800 vincent ave n,Minneapolis,MN",Snow Emergency,44.99791,-93.315607,5,Near North,Willard - Hay,1,2,Yale
-93.30398299981556,44.974259000152813,387,02/21/2019 11:23am,"1912 laurel av ,Minneapolis,MN",Snow Emergency,44.974259,-93.303983,7,Calhoun Isle,Bryn - Mawr,3,2,Yale
-93.242555999959393,44.985531000155561,388,02/21/2019 11:23am,"802 6th st se,Minneapolis,MN",Snow Emergency,44.985531,-93.242556,3,University,Marcy Holmes,4,2,Yale
-93.255270999956622,44.997708999670635,389,02/21/2019 11:25am,"726 jefferson st ne,Minneapolis,MN",Snow Emergency,44.997709,-93.255271,3,Northeast,St. Anthony East,2,2,Yale
-93.240941000127009,44.945309999756716,390,02/21/2019 11:26am,"3142 22 ave s,Minneapolis,MN",Snow Emergency,44.94531,-93.240941,9,Powderhorn,Corcoran,6,2,Yale
-93.256281999814405,45.00548999966378,391,02/21/2019 11:26am,"1716 adams st ne,Minneapolis,MN",Snow Emergency,45.00549,-93.256282,1,Northeast,Logan Park,2,2,Yale
-93.251498999579155,44.946887999681508,392,02/21/2019 11:27am,"3046 16th Ave so,Minneapolis,MN",Snow Emergency,44.946888,-93.251499,9,Powderhorn,Powderhorn Park,6,2,Yale
-93.253737000262333,45.005169000149294,393,02/21/2019 11:28am,"1704 madison st ne,Minneapolis,MN",Snow Emergency,45.005169,-93.253737,1,Northeast,Logan Park,2,2,Yale
-93.274328000137075,44.962148000130128,394,02/21/2019 11:28am,"2010 2nd ave S,Minneapolis,MN",Snow Emergency,44.962148,-93.274328,10,Powderhorn,Whittier,3,2,Yale
-93.243737999608982,44.983823999677895,395,02/21/2019 11:29am,"402 8th ave se,Minneapolis,MN",Snow Emergency,44.983824,-93.243738,3,University,Marcy Holmes,4,2,Yale
-93.315574000139975,44.998311999599139,396,02/21/2019 11:29am,"1812 VINCENT AVE N,Minneapolis,MN",Snow Emergency,44.998312,-93.315574,5,Near North,Willard - Hay,1,2,Yale
-93.23786000013888,44.984386000413622,397,02/21/2019 11:31am,"610 11 Avenue se,Minneapolis,MN",Snow Emergency,44.984386,-93.23786,3,University,Marcy Holmes,4,2,Yale
-93.246369999575791,44.982570000305316,398,02/21/2019 11:33am,"218 7TH AVE SE,Minneapolis,MN",Snow Emergency,44.98257,-93.24637,3,University,Marcy Holmes,4,2,Yale
-93.274328000137075,44.961469000294187,399,02/21/2019 11:33am,"2104 2nd ave S,Minneapolis,MN",Snow Emergency,44.961469,-93.274328,10,Powderhorn,Whittier,3,2,Yale
-93.236677999589972,44.986243999760859,400,02/21/2019 11:34am,"804 11 ave se,Minneapolis,MN",Snow Emergency,44.986244,-93.236678,3,University,Marcy Holmes,4,2,Yale
-93.297700999701362,44.94312299962678,401,02/21/2019 11:35am,"1408 33rd st w,Minneapolis,MN",Snow Emergency,44.943123,-93.297701,10,Calhoun Isle,CARAG,5,2,Yale
-93.229442000447932,44.986393000336761,402,02/21/2019 11:40am,"1230 brook ace se,Minneapolis,MN",Snow Emergency,44.986393,-93.229442,2,University,Como,4,2,Yale
-93.243514000071002,44.985934999900394,403,02/21/2019 11:41am,"712 6th st se,Minneapolis,MN",Snow Emergency,44.985935,-93.243514,3,University,Marcy Holmes,4,2,Yale
-93.23303199962703,44.990627999582557,404,02/21/2019 11:42am,"1092 13th Ave se ,Minneapolis,MN",Snow Emergency,44.990628,-93.233032,2,University,Como,4,2,Yale
-93.289071000126512,45.024536000236253,405,02/21/2019 11:42am,"3818 Aldrich ave n ,Minneapolis,MN",Snow Emergency,45.024536,-93.289071,4,Camden,Webber - Camden,1,2,Yale
-93.27161500003217,44.958626999636351,406,02/21/2019 11:44am,"2416 Clinton Avenue South,Minneapolis,MN",Snow Emergency,44.958627,-93.271615,10,Powderhorn,Whittier,3,2,Yale
-93.30410700013789,44.990903999719876,407,02/21/2019 11:44am,"1238 Morgan Ave. N.,Minneapolis,MN",Snow Emergency,44.990904,-93.304107,5,Near North,Near - North,1,2,Yale
-93.251407999879234,44.996095999930503,408,02/21/2019 11:45am,"632 quincy st ne,Minneapolis,MN",Snow Emergency,44.996096,-93.251408,3,Northeast,St. Anthony East,2,2,Yale
-93.289053000195793,45.024259000052837,409,02/21/2019 11:45am,"3808 Aldrich ave n ,Minneapolis,MN",Snow Emergency,45.024259,-93.289053,4,Camden,Webber - Camden,1,2,Yale
-93.251435000225058,44.994761000419885,410,02/21/2019 11:49am,"342 quincy st ne,Minneapolis,MN",Snow Emergency,44.994761,-93.251435,3,Northeast,St. Anthony East,2,2,Yale
-93.240981000173008,44.946109999776695,411,02/21/2019 11:50am,"3112 22nd Avenue South,Minneapolis,MN",Snow Emergency,44.94611,-93.240981,9,Powderhorn,Corcoran,6,2,Yale
-93.251416000248184,44.997819000246693,412,02/21/2019 11:51am,"728 quincy st ne,Minneapolis,MN",Snow Emergency,44.997819,-93.251416,3,Northeast,St. Anthony East,2,2,Yale
-93.246915000426895,44.937913000384697,413,02/21/2019 11:54am,"1830 36th Street East,Minneapolis,MN",Snow Emergency,44.937913,-93.246915,9,Powderhorn,Corcoran,6,2,Yale
-93.29669800021253,44.944901999827493,414,02/21/2019 11:54am,"1312 32nd st w ,Minneapolis,MN",Snow Emergency,44.944902,-93.296698,10,Calhoun Isle,CARAG,5,2,Yale
-93.242151000168462,44.98535800027156,415,02/21/2019 11:55am,"810 6th st se,Minneapolis,MN",Snow Emergency,44.985358,-93.242151,3,University,Marcy Holmes,4,2,Yale
-93.25407799979979,45.001789999908624,416,02/21/2019 11:56am,"1326 madison st ne,Minneapolis,MN",Snow Emergency,45.00179,-93.254078,1,Northeast,Logan Park,2,2,Yale
-93.242644999567062,44.987650999893788,417,02/21/2019 12:00pm,"710 7th ave se,Minneapolis,MN",Snow Emergency,44.987651,-93.242645,3,University,Marcy Holmes,4,2,Yale
-93.29990799985427,44.939379999687276,418,02/21/2019 12:02pm,"3500 Holmes ave,Minneapolis,MN",Snow Emergency,44.93938,-93.299908,10,Calhoun Isle,ECCO,5,2,Yale
-93.275875999577693,44.960083000230327,419,02/21/2019 12:02pm,"2306 Stevens ave s,Minneapolis,MN",Snow Emergency,44.960083,-93.275876,10,Powderhorn,Whittier,3,2,Yale
-93.301101000011101,44.947997999608049,420,02/21/2019 12:04pm,"3016 humboldt ave s,Minneapolis,MN",Snow Emergency,44.947998,-93.301101,10,Calhoun Isle,ECCO,5,2,Yale
-93.285810999977627,44.958098999569245,421,02/21/2019 12:04pm,"2434 Harriet Ave South,Minneapolis,MN",Snow Emergency,44.958099,-93.285811,10,Powderhorn,Whittier,3,2,Yale
-93.236420000282749,44.983784999678051,422,02/21/2019 12:04pm,"602 12TH AVE SE,Minneapolis,MN",Snow Emergency,44.983785,-93.23642,3,University,Marcy Holmes,4,2,Yale
-93.251422999671661,44.994756000189284,423,02/21/2019 12:05pm,"338 quincy st ne,Minneapolis,MN",Snow Emergency,44.994756,-93.251423,3,Northeast,St. Anthony East,2,2,Yale
-93.27560699976317,44.958785999774136,424,02/21/2019 12:06pm,"2404 Stevens Ave S,Minneapolis,MN",Snow Emergency,44.958786,-93.275607,10,Powderhorn,Whittier,3,2,Yale
-93.249431000440268,44.989841000162073,425,02/21/2019 12:07pm,"430 7th st se,Minneapolis,MN",Snow Emergency,44.989841,-93.249431,3,University,Marcy Holmes,4,2,Yale
-93.250131000345334,44.995886000138853,426,02/21/2019 12:08pm,"626 jackson st ne,Minneapolis,MN",Snow Emergency,44.995886,-93.250131,3,Northeast,St. Anthony East,2,2,Yale
-93.242183999891665,44.945031000380425,427,02/21/2019 12:09pm,"2102 32nd st,Minneapolis,MN",Snow Emergency,44.945031,-93.242184,9,Powderhorn,Corcoran,6,2,Yale
-93.249431000440268,44.989841000162073,428,02/21/2019 12:09pm,"330 7th st se,Minneapolis,MN",Snow Emergency,44.989841,-93.249431,3,University,Marcy Holmes,4,2,Yale
-93.304228000321928,44.985393000086958,429,02/21/2019 12:11pm,"706 Morgan Ave. N.,Minneapolis,MN",Snow Emergency,44.985393,-93.304228,5,Near North,Near - North,1,2,Yale
-93.315552000024752,44.999298000102669,430,02/21/2019 12:11pm,"1912 VINCENT AVE N,Minneapolis,MN",Snow Emergency,44.999298,-93.315552,5,Near North,Willard - Hay,1,2,Yale
-93.254018999776974,44.946176000122364,431,02/21/2019 12:12pm,"3110 15th ave,Minneapolis,MN",Snow Emergency,44.946176,-93.254019,9,Powderhorn,Powderhorn Park,6,2,Yale
-93.24306600009578,44.989552000324636,432,02/21/2019 12:12pm,"826 6th ave se,Minneapolis,MN",Snow Emergency,44.989552,-93.243066,3,University,Marcy Holmes,4,2,Yale
-93.24030200033701,44.983249000141313,433,02/21/2019 12:14pm,"1002 5th st se,Minneapolis,MN",Snow Emergency,44.983249,-93.240302,3,University,Marcy Holmes,4,2,Yale
-93.239519000201653,44.98561999976323,434,02/21/2019 12:15pm,"926 7th st se,Minneapolis,MN",Snow Emergency,44.98562,-93.239519,3,University,Marcy Holmes,4,2,Yale
-93.237255000118125,44.982871999842985,435,02/21/2019 12:16pm,"508 12th ave se,Minneapolis,MN",Snow Emergency,44.982872,-93.237255,3,University,Marcy Holmes,4,2,Yale
-93.288962999642706,45.024192999707225,436,02/21/2019 12:18pm,"3806 Aldrich ave n ,Minneapolis,MN",Snow Emergency,45.024193,-93.288963,4,Camden,Webber - Camden,1,2,Yale
-93.292144999791844,44.94472199962064,437,02/21/2019 12:20pm,"1014 32nd st w,Minneapolis,MN",Snow Emergency,44.944722,-93.292145,10,Calhoun Isle,CARAG,5,2,Yale
-93.239141999903325,44.980865999965999,438,02/21/2019 12:20pm,"324 12th ave se,Minneapolis,MN",Snow Emergency,44.980866,-93.239142,3,University,Marcy Holmes,4,2,Yale
-93.274345000021697,44.962946000057912,439,02/21/2019 12:21pm,"1928 2ND AVE S,Minneapolis,MN",Snow Emergency,44.962946,-93.274345,6,Central,Steven's Square - Loring Heights,3,2,Yale
-93.290369999775635,45.027234999695509,440,02/21/2019 12:23pm,"3950 Bryant ave n ,Minneapolis,MN",Snow Emergency,45.027235,-93.29037,4,Camden,Webber - Camden,1,2,Yale
-93.274027999792338,44.964778000004742,441,02/21/2019 12:23pm,"1830 2ND AVE S,Minneapolis,MN",Snow Emergency,44.964778,-93.274028,6,Central,Steven's Square - Loring Heights,3,2,Yale
-93.238585000297462,44.983144999841898,442,02/21/2019 12:29pm,"504 11ave se,Minneapolis,MN",Snow Emergency,44.983145,-93.238585,3,University,Marcy Holmes,4,2,Yale
-93.248897000096463,44.936268000068196,443,02/21/2019 12:29pm,"3650h 18 th ave s,Minneapolis,MN",Snow Emergency,44.936268,-93.248897,9,Powderhorn,Powderhorn Park,6,2,Yale
-93.251467999948204,44.943190000018546,444,02/21/2019 12:30pm,"3248 16th av s,Minneapolis,MN",Snow Emergency,44.94319,-93.251468,9,Powderhorn,Powderhorn Park,6,2,Yale
-93.302817000004495,44.990677000043547,445,02/21/2019 12:31pm,"1230 Logan Ave. N.,Minneapolis,MN",Snow Emergency,44.990677,-93.302817,5,Near North,Near - North,1,2,Yale
-93.239714000200934,44.983099000418576,446,02/21/2019 12:32pm,"1024 5th street se,Minneapolis,MN",Snow Emergency,44.983099,-93.239714,3,University,Marcy Holmes,4,2,Yale
-93.24887499998124,44.92974399958598,447,02/21/2019 12:33pm,"4020 18th av s,Minneapolis,MN",Snow Emergency,44.929744,-93.248875,8,Powderhorn,Bancroft,6,2,Yale
-93.234144999691921,44.984407999629525,448,02/21/2019 12:34pm,"714 13TH AVE SE,Minneapolis,MN",Snow Emergency,44.984408,-93.234145,3,University,Marcy Holmes,4,2,Yale
-93.278915000326947,44.966562000435999,449,02/21/2019 12:36pm,"16 Oak Grove st,Minneapolis,MN",Snow Emergency,44.966562,-93.278915,7,Central,Loring Park,3,2,Yale
-93.239719999578256,44.983358999818051,450,02/21/2019 12:37pm,"1018 5th st se,Minneapolis,MN",Snow Emergency,44.983359,-93.23972,3,University,Marcy Holmes,4,2,Yale
-93.274343999975599,44.954359999814187,451,02/21/2019 12:41pm,"2630 2nd ave S,Minneapolis,MN",Snow Emergency,44.95436,-93.274344,10,Powderhorn,Whittier,3,2,Yale
-93.235932000261585,44.984193999653428,452,02/21/2019 12:42pm,"1212 7th st se,Minneapolis,MN",Snow Emergency,44.984194,-93.235932,3,University,Marcy Holmes,4,2,Yale
-93.21871600044301,44.990590999674964,453,02/21/2019 12:45pm,"1082 24th avebse,Minneapolis,MN",Snow Emergency,44.990591,-93.218716,1,University,Como,4,2,Yale
-93.246333999714295,44.938343999575977,454,02/21/2019 12:46pm,"3532 Longfellow Avenue South,Minneapolis,MN",Snow Emergency,44.938344,-93.246334,9,Powderhorn,Corcoran,6,2,Yale
-93.238872000042704,44.982722000120248,455,02/21/2019 12:46pm,"1108 5th st se,Minneapolis,MN",Snow Emergency,44.982722,-93.238872,3,University,Marcy Holmes,4,2,Yale
-93.245853000015927,44.983394999679547,456,02/21/2019 12:47pm,"314 7th ave se,Minneapolis,MN",Snow Emergency,44.983395,-93.245853,3,University,Marcy Holmes,4,2,Yale
-93.290361000259907,45.02646900034415,457,02/21/2019 12:47pm,"3922 Bryant ave n ,Minneapolis,MN",Snow Emergency,45.026469,-93.290361,4,Camden,Webber - Camden,1,2,Yale
-93.218611000097553,44.989869999700772,458,02/21/2019 12:49pm,"1058 24th ave se,Minneapolis,MN",Snow Emergency,44.98987,-93.218611,1,University,Como,4,2,Yale
-93.274332000321522,44.953503999909742,459,02/21/2019 12:49pm,"2704 2ND AVE S ,Minneapolis,MN",Snow Emergency,44.953504,-93.274332,10,Powderhorn,Whittier,3,2,Yale
-93.246318999921868,44.936359999814215,460,02/21/2019 12:49pm,"3644 Longfellow Avenue South,Minneapolis,MN",Snow Emergency,44.93636,-93.246319,12,Powderhorn,Standish,6,2,Yale
-93.290327999637441,45.027800999716419,461,02/21/2019 12:50pm,"4002 Bryant ave n ,Minneapolis,MN",Snow Emergency,45.027801,-93.290328,4,Camden,Webber - Camden,1,2,Yale
-93.296048999961329,44.945298000102696,462,02/21/2019 12:51pm,"3136 Fremont ,Minneapolis,MN",Snow Emergency,44.945298,-93.296049,10,Calhoun Isle,CARAG,5,2,Yale
-93.251380000386689,45.008752999951014,463,02/21/2019 12:52pm,"724 20th ave ne,Minneapolis,MN",Snow Emergency,45.008753,-93.25138,1,Northeast,Holland,2,2,Yale
-93.233833999739261,44.983316999679857,464,02/21/2019 12:54pm,"1324 7th st se,Minneapolis,MN",Snow Emergency,44.983317,-93.233834,3,University,Marcy Holmes,4,2,Yale
-93.304160999930161,44.994958999658138,465,02/21/2019 12:55pm,"1524 Morgan Ave. N.,Minneapolis,MN",Snow Emergency,44.994959,-93.304161,5,Near North,Willard - Hay,1,2,Yale
-93.293479000155685,44.941490999909774,466,02/21/2019 12:55pm,"1118 34th st w,Minneapolis,MN",Snow Emergency,44.941491,-93.293479,10,Calhoun Isle,CARAG,5,2,Yale
-93.25139200004071,45.008723000366217,467,02/21/2019 12:59pm,"722 20th ave ne,Minneapolis,MN",Snow Emergency,45.008723,-93.251392,1,Northeast,Holland,2,2,Yale
-93.297350999748801,44.93892400024248,468,02/21/2019 01:04pm,"3518 girard ave s,Minneapolis,MN",Snow Emergency,44.938924,-93.297351,10,Calhoun Isle,CARAG,5,2,Yale
-93.251228999718535,45.011462999917569,469,02/21/2019 01:06pm,"2318 quincy st ne,Minneapolis,MN",Snow Emergency,45.011463,-93.251229,1,Northeast,Holland,2,2,Yale
-93.297432999932937,44.943168999949421,470,02/21/2019 01:06pm,"3248 girard ave s ,Minneapolis,MN",Snow Emergency,44.943169,-93.297433,10,Calhoun Isle,CARAG,5,2,Yale
-93.234416999644793,44.984053000345739,471,02/21/2019 01:07pm,"704 13TH AVE SE,Minneapolis,MN",Snow Emergency,44.984053,-93.234417,3,University,Marcy Holmes,4,2,Yale
-93.268598000297459,45.001767999793401,472,02/21/2019 01:07pm,"136 14th ave ne,Minneapolis,MN",Snow Emergency,45.001768,-93.268598,3,Northeast,Sheridan,2,2,Yale
-93.27556599967113,44.956711000312453,473,02/21/2019 01:10pm,"2512 Stevens Ave South,Minneapolis,MN",Snow Emergency,44.956711,-93.275566,10,Powderhorn,Whittier,3,2,Yale
-93.243511999978793,44.994332000421537,474,02/21/2019 01:10pm,"466 taylor st ne,Minneapolis,MN",Snow Emergency,44.994332,-93.243512,3,Northeast,Beltrami,2,2,Yale
-93.268598000297459,45.001767999793401,475,02/21/2019 01:12pm,"136 14th ave ne,Minneapolis,MN",Snow Emergency,45.001768,-93.268598,3,Northeast,Sheridan,2,2,Yale
-93.251192999857039,45.013579000370612,476,02/21/2019 01:14pm,"2510 quincy st ne,Minneapolis,MN",Snow Emergency,45.013579,-93.251193,1,Northeast,Holland,2,2,Yale
-93.259100000264766,44.945691000239549,477,02/21/2019 01:14pm,"3142 11th ave s,Minneapolis,MN",Snow Emergency,44.945691,-93.2591,9,Powderhorn,Powderhorn Park,6,2,Yale
-93.304099999815094,44.992592000220668,478,02/21/2019 01:18pm,"1332 Morgan Ave. N,Minneapolis,MN",Snow Emergency,44.992592,-93.3041,5,Near North,Willard - Hay,1,2,Yale
-93.241244999756873,44.994424000167498,479,02/21/2019 01:19pm,"438 Pierce st ne,Minneapolis,MN",Snow Emergency,44.994424,-93.241245,3,Northeast,Beltrami,2,2,Yale
-93.221197999787819,44.986082000384044,480,02/21/2019 01:20pm,"2206 Fairmount st se,Minneapolis,MN",Snow Emergency,44.986082,-93.221198,2,University,Como,4,2,Yale
-93.290240000075926,45.023699000308682,481,02/21/2019 01:21pm,"3754 Bryant ave n ,Minneapolis,MN",Snow Emergency,45.023699,-93.29024,4,Camden,McKinley,1,2,Yale
-93.290295999960392,45.023533999894255,482,02/21/2019 01:24pm,"3748 Bryant ave n ,Minneapolis,MN",Snow Emergency,45.023534,-93.290296,4,Camden,McKinley,1,2,Yale
-93.262311999998758,44.972791999950914,483,02/21/2019 01:24pm,"706 7rh st se,Minneapolis,MN",Snow Emergency,44.972792,-93.262312,7,Central,Elliot Park,3,2,Yale
-93.298119000091731,44.941490999909774,484,02/21/2019 01:24pm,"1416 34th st w ,Minneapolis,MN",Snow Emergency,44.941491,-93.298119,10,Calhoun Isle,CARAG,5,2,Yale
-93.251990999784766,44.944735000220135,485,02/21/2019 01:25pm,"1532 32nd st e,Minneapolis,MN",Snow Emergency,44.944735,-93.251991,9,Powderhorn,Powderhorn Park,6,2,Yale
-93.255496999586853,44.937930000269375,486,02/21/2019 01:27pm,"1314 36th st,Minneapolis,MN",Snow Emergency,44.93793,-93.255497,9,Powderhorn,Powderhorn Park,6,2,Yale
-93.236926000234689,44.985623999947677,487,02/21/2019 01:29pm,"718 11 ave se,Minneapolis,MN",Snow Emergency,44.985624,-93.236926,3,University,Marcy Holmes,4,2,Yale
-93.254167000306779,44.937919999808173,488,02/21/2019 01:29pm,"1414 36th st,Minneapolis,MN",Snow Emergency,44.93792,-93.254167,9,Powderhorn,Powderhorn Park,6,2,Yale
-93.22023700043718,44.985959000107812,489,02/21/2019 01:31pm,"2306 Fairmont st se,Minneapolis,MN",Snow Emergency,44.985959,-93.220237,2,University,Como,4,2,Yale
-93.239988000246001,44.983123999772829,490,02/21/2019 01:36pm,"1016 5th street se,Minneapolis,MN",Snow Emergency,44.983124,-93.239988,3,University,Marcy Holmes,4,2,Yale
-93.234024999554038,44.984640000435718,491,02/21/2019 01:37pm,"722 13th ave se,Minneapolis,MN",Snow Emergency,44.98464,-93.234025,3,University,Marcy Holmes,4,2,Yale
-93.242979999727197,44.989808999585705,492,02/21/2019 01:37pm,"1410 6th ave se,Minneapolis,MN",Snow Emergency,44.989809,-93.24298,3,University,Marcy Holmes,4,2,Yale
-93.30536899987942,44.989510000186385,493,02/21/2019 01:39pm,"1118 Newton Ave. N. ,Minneapolis,MN",Snow Emergency,44.98951,-93.305369,5,Near North,Near - North,1,2,Yale
-93.285735000070133,44.960249999837686,494,02/21/2019 01:39pm,"2218 Harriet Ave S,Minneapolis,MN",Snow Emergency,44.96025,-93.285735,10,Powderhorn,Whittier,3,2,Yale
-93.218728000097087,44.988944000165532,495,02/21/2019 01:41pm,"1032 24th ave se,Minneapolis,MN",Snow Emergency,44.988944,-93.218728,1,University,Como,4,2,Yale
-93.242979999727197,44.989808999585705,496,02/21/2019 01:43pm,"1002 6th ave se,Minneapolis,MN",Snow Emergency,44.989809,-93.24298,3,University,Marcy Holmes,4,2,Yale
-93.218730000189339,44.988169000399125,497,02/21/2019 01:44pm,"1006 24th ave se,Minneapolis,MN",Snow Emergency,44.988169,-93.21873,1,University,Como,4,2,Yale
-93.251220000202807,45.011566000170831,498,02/21/2019 01:51pm,"2320 quincy st ne,Minneapolis,MN",Snow Emergency,45.011566,-93.25122,1,Northeast,Holland,2,2,Yale
-93.218730000189339,44.988169000399125,499,02/21/2019 01:51pm,"1006 24th ave se,Minneapolis,MN",Snow Emergency,44.988169,-93.21873,1,University,Como,4,2,Yale
-93.294932999758089,44.938210999737919,500,02/21/2019 01:52pm,"3542 Emerson ave s ,Minneapolis,MN",Snow Emergency,44.938211,-93.294933,10,Calhoun Isle,CARAG,5,2,Yale
-93.254593000166778,45.011878000169645,501,02/21/2019 01:52pm,"2322 madison st ne,Minneapolis,MN",Snow Emergency,45.011878,-93.254593,1,Northeast,Holland,2,2,Yale
-93.291026000349575,44.977969000369114,502,02/21/2019 01:53pm,"138 Colfax ave n ,Minneapolis,MN",Snow Emergency,44.977969,-93.291026,5,Near North,Harrison,3,2,Yale
-93.252790999804745,45.010185000337572,503,02/21/2019 01:54pm,"2204 howard st ne,Minneapolis,MN",Snow Emergency,45.010185,-93.252791,1,Northeast,Holland,2,2,Yale
-93.223909999846569,44.989008000418949,504,02/21/2019 01:55pm,"1038 20TH AVE SE,Minneapolis,MN",Snow Emergency,44.989008,-93.22391,1,University,Como,4,2,Yale
-93.285933000207763,44.949028000341968,505,02/21/2019 01:56pm,"2940 harriet,Minneapolis,MN",Snow Emergency,44.949028,-93.285933,10,Powderhorn,Whittier,3,2,Yale
-93.223938000238491,44.988843000004522,506,02/21/2019 01:56pm,"1032 20th ave se,Minneapolis,MN",Snow Emergency,44.988843,-93.223938,1,University,Como,4,2,Yale
-93.252802000312045,45.01193199996186,507,02/21/2019 01:56pm,"2324 howard st ne,Minneapolis,MN",Snow Emergency,45.011932,-93.252802,1,Northeast,Holland,2,2,Yale
-93.227925999785043,44.937933999554502,508,02/21/2019 01:56pm,"3024 36th st e,Minneapolis,MN",Snow Emergency,44.937934,-93.227926,12,Longfellow,Howe,6,2,Yale
-93.290267000421693,45.023588999732624,509,02/21/2019 01:57pm,"3750 Bryant ave n ,Minneapolis,MN",Snow Emergency,45.023589,-93.290267,4,Camden,McKinley,1,2,Yale
-93.284470000190311,44.95973400032392,510,02/21/2019 01:57pm,"2308 grand ave ,Minneapolis,MN",Snow Emergency,44.959734,-93.28447,10,Powderhorn,Whittier,3,2,Yale
-93.218942000073184,44.98599399992321,511,02/21/2019 01:57pm,"2406 cole Ave se,Minneapolis,MN",Snow Emergency,44.985994,-93.218942,2,University,Como,4,2,Yale
-93.310453999652339,44.999152999711214,512,02/21/2019 01:59pm,"1910 RUSSELL AVE N,Minneapolis,MN",Snow Emergency,44.999153,-93.310454,5,Near North,Willard - Hay,1,2,Yale
-93.302890999819738,45.018884000396326,513,02/21/2019 01:59pm,"3506 Logan av n ,Minneapolis,MN",Snow Emergency,45.018884,-93.302891,4,Camden,Folwell,1,2,Yale
-93.227815000062151,44.936106999838216,514,02/21/2019 01:59pm,"3102 37th st e,Minneapolis,MN",Snow Emergency,44.936107,-93.227815,12,Longfellow,Howe,6,2,Yale
-93.274372000367464,44.952481000397881,515,02/21/2019 02:00pm,"2738 2nd ave S,Minneapolis,MN",Snow Emergency,44.952481,-93.274372,10,Powderhorn,Whittier,3,2,Yale
-93.251253999972107,45.01168100007817,516,02/21/2019 02:02pm,"2324 quincy st ne,Minneapolis,MN",Snow Emergency,45.011681,-93.251254,1,Northeast,Holland,2,2,Yale
-93.25278899971255,45.010807000242892,517,02/21/2019 02:03pm,"2226 howard st ne,Minneapolis,MN",Snow Emergency,45.010807,-93.252789,1,Northeast,Holland,2,2,Yale
-93.275582999555752,44.956855999804588,518,02/21/2019 02:06pm,"2510 stevens ave s,Minneapolis,MN",Snow Emergency,44.956856,-93.275583,10,Powderhorn,Whittier,3,2,Yale
-93.306711999758932,44.986411000267481,519,02/21/2019 02:09pm,"808 oliver ave n,Minneapolis,MN",Snow Emergency,44.986411,-93.306712,5,Near North,Near - North,1,2,Yale
-93.299848999831454,44.945411999963881,520,02/21/2019 02:11pm,"3132 HOLMES AVE ,Minneapolis,MN",Snow Emergency,44.945412,-93.299849,10,Calhoun Isle,ECCO,5,2,Yale
-93.290586999890081,44.983029999934615,521,02/21/2019 02:15pm,"502 bryant av ,Minneapolis,MN",Snow Emergency,44.98303,-93.290587,5,Near North,Sumner - Glenwood,3,2,Yale
-93.290830000304254,44.983612999840147,522,02/21/2019 02:15pm,"524 N bryant ,Minneapolis,MN",Snow Emergency,44.983613,-93.29083,5,Near North,Sumner - Glenwood,3,2,Yale
-93.251487999971175,44.944117999646039,523,02/21/2019 02:23pm,"3218 16th Avenue South,Minneapolis,MN",Snow Emergency,44.944118,-93.251488,9,Powderhorn,Powderhorn Park,6,2,Yale
-93.292299999745183,44.946176000122364,524,02/21/2019 02:24pm,"3108 Colfax ave s,Minneapolis,MN",Snow Emergency,44.946176,-93.2923,10,Calhoun Isle,CARAG,5,2,Yale
-93.295846999639309,44.937680000431726,525,02/21/2019 02:26pm,"1298 36 st w,Minneapolis,MN",Snow Emergency,44.93768,-93.295847,10,Calhoun Isle,CARAG,5,2,Yale
-93.213925999884964,44.988302000237184,526,02/21/2019 02:26pm,"1010 27th ave se,Minneapolis,MN",Snow Emergency,44.988302,-93.213926,1,University,Como,4,2,Yale
-93.292358999767998,44.94171100016257,527,02/21/2019 02:26pm,"3340 Colfax ave s,Minneapolis,MN",Snow Emergency,44.941711,-93.292359,10,Calhoun Isle,CARAG,5,2,Yale
-93.288562000036222,44.944219999853146,528,02/21/2019 02:26pm,"3212 ave s,Minneapolis,MN",Snow Emergency,44.94422,-93.288562,10,Calhoun Isle,CARAG,5,2,Yale
-93.226817999950697,44.989640999932249,529,02/21/2019 02:27pm,"1808 talmage ave se,Minneapolis,MN",Snow Emergency,44.989641,-93.226818,1,University,Como,4,2,Yale
-93.226854999858347,44.936117000299362,530,02/21/2019 02:29pm,"3202 37th st e,Minneapolis,MN",Snow Emergency,44.936117,-93.226855,12,Longfellow,Howe,6,2,Yale
-93.290448999821422,45.032048999561709,531,02/21/2019 02:30pm,"4216 Bryant ave n ,Minneapolis,MN",Snow Emergency,45.032049,-93.290449,4,Camden,Webber - Camden,1,2,Yale
-93.285764999654987,44.961090999949761,532,02/21/2019 02:30pm,"2124 HARRIET AVE S,Minneapolis,MN",Snow Emergency,44.961091,-93.285765,10,Powderhorn,Whittier,3,2,Yale
-93.285885999838968,44.949633000362724,533,02/21/2019 02:33pm,"2916 HARRIET AVE S,Minneapolis,MN",Snow Emergency,44.949633,-93.285886,10,Powderhorn,Whittier,3,2,Yale
-93.221348999556653,44.937935999646697,534,02/21/2019 02:34pm,"3524 36 th st e,Minneapolis,MN",Snow Emergency,44.937936,-93.221349,12,Longfellow,Howe,6,2,Yale
-93.256535999836501,44.947272000302632,535,02/21/2019 02:35pm,"3030 13th Avenue South,Minneapolis,MN",Snow Emergency,44.947272,-93.256536,9,Powderhorn,Powderhorn Park,6,2,Yale
-93.291549000186194,45.014341999583678,536,02/21/2019 02:38pm,"3236 Colfax ave n ,Minneapolis,MN",Snow Emergency,45.014342,-93.291549,4,Camden,McKinley,1,2,Yale
-93.255318000325417,44.946249999937606,537,02/21/2019 02:39pm,"3108 14th ave,Minneapolis,MN",Snow Emergency,44.94625,-93.255318,9,Powderhorn,Powderhorn Park,6,2,Yale
-93.249961999746461,44.948246000252766,538,02/21/2019 02:41pm,"3006 17th ave,Minneapolis,MN",Snow Emergency,44.948246,-93.249962,9,Powderhorn,Powderhorn Park,6,2,Yale
-93.24942200002522,45.008413999606432,539,02/21/2019 02:43pm,"1914 jackson st ne,Minneapolis,MN",Snow Emergency,45.008414,-93.249422,1,Northeast,Holland,2,2,Yale
-93.263656999970522,45.007581999909405,540,02/21/2019 02:45pm,"318 19th ave ne,Minneapolis,MN",Snow Emergency,45.007582,-93.263657,3,Northeast,Bottineau,2,2,Yale
-93.228173000383606,44.989705000185666,541,02/21/2019 02:46pm,"1711 TALMAGE AVE SE,Minneapolis,MN",Snow Emergency,44.989705,-93.228173,1,University,Como,4,2,Yale
-93.25278899971255,45.010814999712522,542,02/21/2019 02:47pm,"2228 howard st ne,Minneapolis,MN",Snow Emergency,45.010815,-93.252789,1,Northeast,Holland,2,2,Yale
-93.284453000305689,44.962322000060283,543,02/21/2019 02:47pm,"2008 Grand Ave S,Minneapolis,MN",Snow Emergency,44.962322,-93.284453,10,Powderhorn,Whittier,3,2,Yale
-93.255430000094407,44.965143999795828,544,02/21/2019 02:48pm,"1042 14 th ave s,Minneapolis,MN",Snow Emergency,44.965144,-93.25543,6,Phillips,Ventura Village,3,2,Yale
-93.305414000155963,44.999128000356961,545,02/21/2019 02:49pm,"1906 newton ave n,Minneapolis,MN",Snow Emergency,44.999128,-93.305414,5,Near North,Willard - Hay,1,2,Yale
-93.284567000166874,44.959339000094815,546,02/21/2019 02:50pm,"2322 Grand ave S,Minneapolis,MN",Snow Emergency,44.959339,-93.284567,10,Powderhorn,Whittier,3,2,Yale
-93.232488999767497,44.982828999658636,547,02/21/2019 02:53pm,"1428 7th st se,Minneapolis,MN",Snow Emergency,44.982829,-93.232489,3,University,Marcy Holmes,4,2,Yale
-93.283298000102604,44.961076000157334,548,02/21/2019 02:53pm,"304 22nd st,Minneapolis,MN",Snow Emergency,44.961076,-93.283298,10,Powderhorn,Whittier,3,2,Yale
-93.292181999699494,44.947819000346669,549,02/21/2019 02:53pm,"3012 Colfax ave s,Minneapolis,MN",Snow Emergency,44.947819,-93.292182,10,Calhoun Isle,CARAG,5,2,Yale
-93.236501000420787,44.959826000069882,550,02/21/2019 02:54pm,"2312 25th ave s,Minneapolis,MN",Snow Emergency,44.959826,-93.236501,6,Longfellow,Seward,4,2,Yale
-93.240328999783458,44.948305000275582,551,02/21/2019 02:55pm,"2004 22nd ave s,Minneapolis,MN",Snow Emergency,44.948305,-93.240329,9,Powderhorn,Corcoran,6,2,Yale
-93.242395999775511,44.988272999799165,552,02/21/2019 02:58pm,"1204 7th ave se,Minneapolis,MN",Snow Emergency,44.988273,-93.242396,3,University,Marcy Holmes,4,2,Yale
-93.250915999673623,45.010870999596989,553,02/21/2019 03:04pm,"800 23rd ave ne,Minneapolis,MN",Snow Emergency,45.010871,-93.250916,1,Northeast,Holland,2,2,Yale
-93.28704999955778,44.957109999826685,554,02/21/2019 03:05pm,"2504 Garfield ave s ,Minneapolis,MN",Snow Emergency,44.95711,-93.28705,10,Powderhorn,Whittier,3,2,Yale
-93.284488000121087,44.958859000442544,555,02/21/2019 03:06pm,"2404 Grand ave S,Minneapolis,MN",Snow Emergency,44.958859,-93.284488,10,Powderhorn,Whittier,3,2,Yale
-93.22690000013489,44.989639999886151,556,02/21/2019 03:07pm,"1802 talmage ave se,Minneapolis,MN",Snow Emergency,44.98964,-93.2269,1,University,Como,4,2,Yale
-93.287086000318595,44.95671499959758,557,02/21/2019 03:09pm,"2516 Garfield ave s,Minneapolis,MN",Snow Emergency,44.956715,-93.287086,10,Powderhorn,Whittier,3,2,Yale
-93.302847999635446,45.011024000357395,558,02/21/2019 03:14pm,"2948 Logan ave n ,Minneapolis,MN",Snow Emergency,45.011024,-93.302848,5,Near North,Jordan,1,2,Yale
-93.219433000232755,44.925120000387778,559,02/21/2019 03:18pm,"4300 snelling ave,Minneapolis,MN",Snow Emergency,44.92512,-93.219433,12,Longfellow,Hiawatha,6,2,Yale
-93.260776000212218,44.943320999764353,560,02/21/2019 03:20pm,"910 33rd st w,Minneapolis,MN",Snow Emergency,44.943321,-93.260776,9,Powderhorn,Powderhorn Park,6,2,Yale
-93.301634000308809,45.014242000368085,561,02/21/2019 03:21pm,"3228 Knox ave n ,Minneapolis,MN",Snow Emergency,45.014242,-93.301634,4,Camden,Folwell,1,2,Yale
-93.240196999991497,44.992265999576261,562,02/21/2019 03:21pm,"324 buchanan st ne,Minneapolis,MN",Snow Emergency,44.992266,-93.240197,3,Northeast,Beltrami,2,2,Yale
-93.228195999645607,44.989742000093258,563,02/21/2019 03:23pm,"1707 TALMAGE AVE SE,Minneapolis,MN",Snow Emergency,44.989742,-93.228196,1,University,Como,4,2,Yale
-93.244102000207135,45.016592999967031,564,02/21/2019 03:30pm,"2648 taylor st ne,Minneapolis,MN",Snow Emergency,45.016593,-93.244102,1,Northeast,Audubon Park,2,2,Yale
-93.30387100004657,45.018630000374287,565,02/21/2019 03:33pm,"1906 35th av n,Minneapolis,MN",Snow Emergency,45.01863,-93.303871,4,Camden,Folwell,1,2,Yale
-93.310464000113484,44.999917999915795,566,02/21/2019 03:34pm,"2010 russel ave n,Minneapolis,MN",Snow Emergency,44.999918,-93.310464,5,Near North,Willard - Hay,1,2,Yale
-93.219423999817707,44.935532000301635,567,02/21/2019 03:40pm,"3704 37th av s,Minneapolis,MN",Snow Emergency,44.935532,-93.219424,12,Longfellow,Howe,6,2,Yale
-93.227706999578345,44.936100999561518,568,02/21/2019 03:44pm,"3104 37th st e,Minneapolis,MN",Snow Emergency,44.936101,-93.227707,12,Longfellow,Howe,6,2,Yale
-93.287086000318595,44.957709999616839,569,02/21/2019 03:45pm,"2446 Garfield ave s,Minneapolis,MN",Snow Emergency,44.95771,-93.287086,10,Powderhorn,Whittier,3,2,Yale
-93.281763000362162,44.959881999954405,570,02/21/2019 03:50pm,"2300 pillsbury ave ,Minneapolis,MN",Snow Emergency,44.959882,-93.281763,10,Powderhorn,Whittier,3,2,Yale
-93.292417999790814,44.937974999646542,571,02/21/2019 03:50pm,"3550 colfax,Minneapolis,MN",Snow Emergency,44.937975,-93.292418,10,Calhoun Isle,CARAG,5,2,Yale
-93.289579000170704,44.962119999738263,572,02/21/2019 03:52pm,"2012 aldrich ave s,Minneapolis,MN",Snow Emergency,44.96212,-93.289579,10,Calhoun Isle,Lowry Hill East,3,2,Yale
-93.255023000211281,44.944817999551105,573,02/21/2019 03:54pm,"3128 14th ave,Minneapolis,MN",Snow Emergency,44.944818,-93.255023,9,Powderhorn,Powderhorn Park,6,2,Yale
-93.261043999980586,44.936128999953439,574,02/21/2019 03:57pm,"916 37th st,Minneapolis,MN",Snow Emergency,44.936129,-93.261044,9,Powderhorn,Powderhorn Park,6,2,Yale
-93.221224000087489,44.972083999676897,575,02/21/2019 03:59pm,"2528 DELAWARE ST SE,Minneapolis,MN",Snow Emergency,44.972084,-93.221224,2,University,Prospect Park - East River Road,4,2,Yale
-93.208734999720434,44.94479400024295,576,02/21/2019 04:01pm,"3216 45th Avenue South,Minneapolis,MN",Snow Emergency,44.944794,-93.208735,2,Longfellow,Cooper,6,2,Yale
-93.290929000373012,44.960323999652928,577,02/21/2019 04:03pm,"2210bryant ave s,Minneapolis,MN",Snow Emergency,44.960324,-93.290929,10,Calhoun Isle,Lowry Hill East,3,2,Yale
-93.209100000364685,44.947918999562205,578,02/21/2019 04:06pm,"3008 45th Avenue South,Minneapolis,MN",Snow Emergency,44.947919,-93.2091,2,Longfellow,Cooper,6,2,Yale
-93.241702000147143,45.014832999743192,579,02/21/2019 04:09pm,"1210 26th ave ne,Minneapolis,MN",Snow Emergency,45.014833,-93.241702,1,Northeast,Audubon Park,2,2,Yale
-93.268432999882975,45.022283999806803,580,02/21/2019 04:11pm,"180 30th ave ne,Minneapolis,MN",Snow Emergency,45.022284,-93.268433,1,Northeast,Marshall Terrace,2,2,Yale
-93.282310000406142,44.961153000110926,581,02/21/2019 04:12pm,"216 22ND ST W,Minneapolis,MN",Snow Emergency,44.961153,-93.28231,10,Powderhorn,Whittier,3,2,Yale
-93.282310000406142,44.961153000110926,582,02/21/2019 04:16pm,"216 22ND ST W,Minneapolis,MN",Snow Emergency,44.961153,-93.28231,10,Powderhorn,Whittier,3,2,Yale
-93.297228000371888,44.952480000351784,583,02/21/2019 04:16pm,"2738 girard ave s,Minneapolis,MN",Snow Emergency,44.95248,-93.297228,10,Calhoun Isle,Lowry Hill East,3,2,Yale
-93.280707000227835,44.941479000255697,584,02/21/2019 04:30pm,"120 34th st w,Minneapolis,MN",Snow Emergency,44.941479,-93.280707,8,Powderhorn,Lyndale,5,2,Yale
-93.289992000330528,44.965670999816837,585,02/21/2019 04:47pm,"826 summit ave s,Minneapolis,MN",Snow Emergency,44.965671,-93.289992,7,Calhoun Isle,Lowry Hill,3,2,Yale
-93.289704999685966,44.947817000254418,586,02/21/2019 04:50pm,"3012 Aldrich ave s ,Minneapolis,MN",Snow Emergency,44.947817,-93.289705,10,Calhoun Isle,CARAG,5,2,Yale
-93.292152000114697,44.964595999705693,587,02/21/2019 04:55pm,"1820 colfax ave s,Minneapolis,MN",Snow Emergency,44.964596,-93.292152,7,Calhoun Isle,Lowry Hill,3,2,Yale
-93.296048999961329,44.94631800037547,588,02/21/2019 04:02pm,"3104 FREMONT AVE S,Minneapolis,MN",Snow Emergency,44.946318,-93.296049,10,Calhoun Isle,CARAG,5,2,Yale
-93.208735999766532,44.944864999919844,589,02/21/2019 05:48pm,"3212 45th Avenue South,Minneapolis,MN",Snow Emergency,44.944865,-93.208736,2,Longfellow,Cooper,6,2,Yale
-93.229000999896186,44.935938000138663,590,02/21/2019 05:54pm,"3028 37th Street East,Minneapolis,MN",Snow Emergency,44.935938,-93.229001,12,Longfellow,Howe,6,2,Yale
-93.292456999790659,44.919969000269191,591,02/21/2019 03:53pm,"4544 COLFAX AVE S ,Minneapolis,MN",Snow Emergency,44.919969,-93.292457,13,Southwest,East Harriet,5,2,Yale
-93.281878000269444,44.994180999753382,592,02/22/2019 08:16am,"2511 3rd st n ,Minneapolis,MN",Snow Emergency,44.994181,-93.281878,5,Near North,Near - North,1,3,Yale
-93.281878000269444,44.994180999753382,593,02/22/2019 08:18am,"2807 3rd st n ,Minneapolis,MN",Snow Emergency,44.994181,-93.281878,5,Near North,Near - North,1,3,Yale
-93.248220000352717,44.988605999867048,594,02/22/2019 08:29am,"615 4th ave se,Minneapolis,MN",Snow Emergency,44.988606,-93.24822,3,University,Marcy Holmes,4,3,Yale
-93.283751000308371,45.01089899998891,595,02/22/2019 08:32am,"3001 N 3rd St. ,Minneapolis,MN",Snow Emergency,45.010899,-93.283751,5,Near North,Hawthorne,1,3,Yale
-93.248544000005552,44.985674999601599,596,02/22/2019 08:33am,"403 5th ave se,Minneapolis,MN",Snow Emergency,44.985675,-93.248544,3,University,Marcy Holmes,4,3,Yale
-93.254289999683692,44.98817399973035,597,02/22/2019 08:35am,"19 SE 4th Ave,Minneapolis,MN",Snow Emergency,44.988174,-93.25429,3,University,Nicollet Island - East Bank,4,3,Yale
-93.250373999860187,44.985849000431074,598,02/22/2019 08:35am,"321 4th ave se,Minneapolis,MN",Snow Emergency,44.985849,-93.250374,3,University,Marcy Holmes,4,3,Yale
-93.251740999947174,44.986418999737111,599,02/22/2019 08:39am,"331 3th Ave se,Minneapolis,MN",Snow Emergency,44.986419,-93.251741,3,University,Marcy Holmes,4,3,Yale
-93.233082000134175,44.930505999652212,600,02/22/2019 08:40am,"2725 40th Street East,Minneapolis,MN",Snow Emergency,44.930506,-93.233082,12,Powderhorn,Standish,6,3,Yale
-93.280833999789195,44.969830000054515,601,02/22/2019 08:41am,"1327 spruce pl,Minneapolis,MN",Snow Emergency,44.96983,-93.280834,7,Central,Loring Park,3,3,Yale
-93.303053000095815,44.948227000275892,602,02/22/2019 08:42am,"3003 James ave s,Minneapolis,MN",Snow Emergency,44.948227,-93.303053,10,Calhoun Isle,ECCO,5,3,Yale
-93.259353000240708,44.990920999604498,603,02/22/2019 08:45am,"213 3rd ave ne,Minneapolis,MN",Snow Emergency,44.990921,-93.259353,3,Northeast,St. Anthony West,2,3,Yale
-93.2804009996064,44.967010000411221,604,02/22/2019 08:47am,"1519 SPRUCE PL,Minneapolis,MN",Snow Emergency,44.96701,-93.280401,7,Central,Loring Park,3,3,Yale
-93.286797999627936,45.010593000266795,605,02/22/2019 08:48am,"2933 6th st n,Minneapolis,MN",Snow Emergency,45.010593,-93.286798,5,Near North,Hawthorne,1,3,Yale
-93.289648999801443,44.987469999640837,606,02/22/2019 08:49am,"905 Lyndale place n,Minneapolis,MN",Snow Emergency,44.98747,-93.289649,5,Near North,Sumner - Glenwood,1,3,Yale
-93.281376999648785,44.968645000266577,607,02/22/2019 08:49am,"225 14TH ST W,Minneapolis,MN",Snow Emergency,44.968645,-93.281377,7,Central,Loring Park,3,3,Yale
-93.259298000402339,44.99102099971941,608,02/22/2019 08:55am,"221 3rd Ave ne,Minneapolis,MN",Snow Emergency,44.991021,-93.259298,3,Northeast,St. Anthony West,2,3,Yale
-93.28679100020446,45.004685000312577,609,02/22/2019 08:56am,"2431 6th st n ,Minneapolis,MN",Snow Emergency,45.004685,-93.286791,5,Near North,Hawthorne,1,3,Yale
-93.286856999650752,45.022811999873966,610,02/22/2019 09:00am,"3721 6th st n ,Minneapolis,MN",Snow Emergency,45.022812,-93.286857,4,Camden,McKinley,1,3,Yale
-93.286830000204304,45.022921999550704,611,02/22/2019 09:04am,"3725 6th st n ,Minneapolis,MN",Snow Emergency,45.022922,-93.28683,4,Camden,McKinley,1,3,Yale
-93.245477999809793,44.984794000342902,612,02/22/2019 09:06am,"407 7th ave se,Minneapolis,MN",Snow Emergency,44.984794,-93.245478,3,University,Marcy Holmes,4,3,Yale
-93.289231000310394,44.985821000039152,613,02/22/2019 09:08am,"705 Lyndale Pl,Minneapolis,MN",Snow Emergency,44.985821,-93.289231,5,Near North,Sumner - Glenwood,1,3,Yale
-93.282454999898277,44.966470999836815,614,02/22/2019 09:08am,"233 oak grove,Minneapolis,MN",Snow Emergency,44.966471,-93.282455,7,Central,Loring Park,3,3,Yale
-93.247461999571613,44.988014000445844,615,02/22/2019 09:11am,"415 6th vebse,Minneapolis,MN",Snow Emergency,44.988014,-93.247462,3,University,Marcy Holmes,4,3,Yale
-93.289644999616996,44.987175999572798,616,02/22/2019 09:15am,"823 lyndale pl,Minneapolis,MN",Snow Emergency,44.987176,-93.289645,5,Near North,Sumner - Glenwood,1,3,Yale
-93.299183999741786,44.945712000308617,617,02/22/2019 09:15am,"3125 Holmes ave s,Minneapolis,MN",Snow Emergency,44.945712,-93.299184,10,Calhoun Isle,ECCO,5,3,Yale
-93.249122999726637,44.988753000350755,618,02/22/2019 09:18am,"317 6th street se,Minneapolis,MN",Snow Emergency,44.988753,-93.249123,3,University,Marcy Holmes,4,3,Yale
-93.253431999686995,44.938397000221414,619,02/22/2019 09:18am,"3531 15th ave,Minneapolis,MN",Snow Emergency,44.938397,-93.253432,9,Powderhorn,Powderhorn Park,6,3,Yale
-93.247205000310487,44.982547000143995,620,02/22/2019 09:19am,"207 7th ave se,Minneapolis,MN",Snow Emergency,44.982547,-93.247205,3,University,Marcy Holmes,4,3,Yale
-93.288918000265483,44.983455999794614,621,02/22/2019 09:20am,"515 lyndale pl,Minneapolis,MN",Snow Emergency,44.983456,-93.288918,5,Near North,Sumner - Glenwood,3,3,Yale
-93.254529999959516,44.930103999999631,622,02/22/2019 09:21am,"4011 14th ave,Minneapolis,MN",Snow Emergency,44.930104,-93.25453,8,Powderhorn,Bancroft,6,3,Yale
-93.245721000223966,44.982227999822385,623,02/22/2019 09:22am,"207 8th ave se,Minneapolis,MN",Snow Emergency,44.982228,-93.245721,3,University,Marcy Holmes,4,3,Yale
-93.249288000141064,44.988818999797047,624,02/22/2019 09:22am,"307 6th st se ,Minneapolis,MN",Snow Emergency,44.988819,-93.249288,3,University,Marcy Holmes,4,3,Yale
-93.246492999852023,44.983667999678516,625,02/22/2019 09:23am,"307 7th ave se,Minneapolis,MN",Snow Emergency,44.983668,-93.246493,3,University,Marcy Holmes,4,3,Yale
-93.21669699996653,44.990778000204614,626,02/22/2019 09:28am,"1089 26th ave se,Minneapolis,MN",Snow Emergency,44.990778,-93.216697,1,University,Como,4,3,Yale
-93.299431000340348,44.946093999938228,627,02/22/2019 09:33am,"3113 Holmes Ave,Minneapolis,MN",Snow Emergency,44.946094,-93.299431,10,Calhoun Isle,ECCO,5,3,Yale
-93.274989000042297,44.962174000429854,628,02/22/2019 09:33am,"2013 Stevens Ave,Minneapolis,MN",Snow Emergency,44.962174,-93.274989,10,Powderhorn,Whittier,3,3,Yale
-93.286865000019702,45.025292000025843,629,02/22/2019 09:34am,"3847 6th st n,Minneapolis,MN",Snow Emergency,45.025292,-93.286865,4,Camden,Webber - Camden,1,3,Yale
-93.25852399978271,44.932098000222595,630,02/22/2019 09:35am,"1115 39th st e,Minneapolis,MN",Snow Emergency,44.932098,-93.258524,8,Powderhorn,Bancroft,6,3,Yale
-93.291421999725458,44.997861000384887,631,02/22/2019 09:35am,"1811 Bryant Ave N,Minneapolis,MN",Snow Emergency,44.997861,-93.291422,5,Near North,Near - North,1,3,Yale
-93.257171000341373,44.938066000245783,632,02/22/2019 09:36am,"3541 12th av s,Minneapolis,MN",Snow Emergency,44.938066,-93.257171,9,Powderhorn,Powderhorn Park,6,3,Yale
-93.277053999942098,44.9860430003842,633,02/22/2019 09:36am,"303 6th ave ne,Minneapolis,MN",Snow Emergency,44.986043,-93.277054,3,Central,North Loop,1,3,Yale
-93.286850000227275,45.026532999698247,634,02/22/2019 09:37am,"3927 6th st n,Minneapolis,MN",Snow Emergency,45.026533,-93.28685,4,Camden,Webber - Camden,1,3,Yale
-93.296781999589598,44.943096000180333,635,02/22/2019 09:38am,"3253 girard ave s,Minneapolis,MN",Snow Emergency,44.943096,-93.296782,10,Calhoun Isle,CARAG,5,3,Yale
-93.286801999812383,45.0233599999641,636,02/22/2019 09:39am,"3743 6th st n ,Minneapolis,MN",Snow Emergency,45.02336,-93.286802,4,Camden,McKinley,1,3,Yale
-93.290243000214275,44.932083000430168,637,02/22/2019 09:40am,"815 39th st e,Minneapolis,MN",Snow Emergency,44.932083,-93.290243,10,Southwest,East Harriet,5,3,Yale
-93.303075000211038,44.945619999663279,638,02/22/2019 09:41am,"3127 James Ave S,Minneapolis,MN",Snow Emergency,44.94562,-93.303075,10,Calhoun Isle,ECCO,5,3,Yale
-93.289529999709657,45.014771999628124,639,02/22/2019 09:42am,"3251 Aldrich ave n ,Minneapolis,MN",Snow Emergency,45.014772,-93.28953,4,Camden,McKinley,1,3,Yale
-93.253392999687151,44.9349729997042,640,02/22/2019 09:44am,"3725 15th Ave S,Minneapolis,MN",Snow Emergency,44.934973,-93.253393,9,Powderhorn,Powderhorn Park,6,3,Yale
-93.296781999589598,44.940363000052457,641,02/22/2019 09:48am,"3429 girard ave s ,Minneapolis,MN",Snow Emergency,44.940363,-93.296782,10,Calhoun Isle,CARAG,5,3,Yale
-93.253392999687151,44.939928999823564,642,02/22/2019 09:49am,"3439 15TH Ave S,Minneapolis,MN",Snow Emergency,44.939929,-93.253393,9,Powderhorn,Powderhorn Park,6,3,Yale
-93.300478000059627,44.946924000442323,643,02/22/2019 09:50am,"3041 humboldt ave s ,Minneapolis,MN",Snow Emergency,44.946924,-93.300478,10,Calhoun Isle,ECCO,5,3,Yale
-93.280399999560302,44.967304999626094,644,02/22/2019 09:51am,"1511 SPRUCE PL,Minneapolis,MN",Snow Emergency,44.967305,-93.2804,7,Central,Loring Park,3,3,Yale
-93.275286000248684,44.961327000041081,645,02/22/2019 09:52am,"2011 stevens,Minneapolis,MN",Snow Emergency,44.961327,-93.275286,10,Powderhorn,Whittier,3,3,Yale
-93.256027999792309,44.995681999724582,646,02/22/2019 09:52am,"619 Adams st ne,Minneapolis,MN",Snow Emergency,44.995682,-93.256028,3,Northeast,St. Anthony East,2,3,Yale
-93.29295999960425,44.993749999662782,647,02/22/2019 09:53am,"1419 dupont,Minneapolis,MN",Snow Emergency,44.99375,-93.29296,5,Near North,Near - North,1,3,Yale
-93.2804009996064,44.967168999649687,648,02/22/2019 09:54am,"1515 SPRUCE PL,Minneapolis,MN",Snow Emergency,44.967169,-93.280401,7,Central,Loring Park,3,3,Yale
-93.239647999855265,45.029463999963696,649,02/22/2019 09:57am,"1403 34th ave ne,Minneapolis,MN",Snow Emergency,45.029464,-93.239648,1,Northeast,Waite Park,2,3,Yale
-93.245374000409754,44.98266100000518,650,02/22/2019 09:57am,"225 8th ave se,Minneapolis,MN",Snow Emergency,44.982661,-93.245374,3,University,Marcy Holmes,4,3,Yale
-93.248303999729785,44.991059999719255,651,02/22/2019 09:58am,"209 ith ave se,Minneapolis,MN",Snow Emergency,44.99106,-93.248304,3,University,Marcy Holmes,2,3,Yale
-93.259785000377406,45.008315000436994,652,02/22/2019 09:58am,"1925 5th st ne,Minneapolis,MN",Snow Emergency,45.008315,-93.259785,1,Northeast,Holland,2,3,Yale
-93.260936000396043,44.924989999788693,653,02/22/2019 10:00am,"4301 Elliot Avenue South,Minneapolis,MN",Snow Emergency,44.92499,-93.260936,11,Nokomis,Northrop,6,3,Yale
-93.245362999902511,44.982674999751509,654,02/22/2019 10:03am,"229 8th ave se,Minneapolis,MN",Snow Emergency,44.982675,-93.245363,3,University,Marcy Holmes,4,3,Yale
-93.297568999909402,44.998310999553041,655,02/22/2019 10:05am,"1833 Girard Ave N,Minneapolis,MN",Snow Emergency,44.998311,-93.297569,5,Near North,Near - North,1,3,Yale
-93.265316000033351,44.997044999627064,656,02/22/2019 10:05am,"903 main st ,Minneapolis,MN",Snow Emergency,44.997045,-93.265316,3,Northeast,St. Anthony West,2,3,Yale
-93.254703999889671,44.997578999970926,657,02/22/2019 10:06am,"723Jefferson St NE,Minneapolis,MN",Snow Emergency,44.997579,-93.254704,3,Northeast,St. Anthony East,2,3,Yale
-93.24621200038348,44.984016999584924,658,02/22/2019 10:07am,"315 7th ave se,Minneapolis,MN",Snow Emergency,44.984017,-93.246212,3,University,Marcy Holmes,4,3,Yale
-93.274989000042297,44.962174000429854,659,02/22/2019 10:10am,"2013 Stevens Ave South,Minneapolis,MN",Snow Emergency,44.962174,-93.274989,10,Powderhorn,Whittier,3,3,Yale
-93.290794999589536,45.008582000159208,660,02/22/2019 10:11am,"2725 BRYANT AVE N,Minneapolis,MN",Snow Emergency,45.008582,-93.290795,5,Near North,Hawthorne,1,3,Yale
-93.250815000411876,44.994955000373011,661,02/22/2019 10:17am,"341 quincy st ne,Minneapolis,MN",Snow Emergency,44.994955,-93.250815,3,Northeast,St. Anthony East,2,3,Yale
-93.289598000147578,45.010549000036349,662,02/22/2019 10:18am,"2935 aldrich ave n,Minneapolis,MN",Snow Emergency,45.010549,-93.289598,5,Near North,Hawthorne,1,3,Yale
-93.219241000371824,44.990961999696594,663,02/22/2019 10:19am,"1097 24th ave se,Minneapolis,MN",Snow Emergency,44.990962,-93.219241,1,University,Como,4,3,Yale
-93.250838999720031,44.994772000027808,664,02/22/2019 10:19am,"331 quincy st ne,Minneapolis,MN",Snow Emergency,44.994772,-93.250839,3,Northeast,St. Anthony East,2,3,Yale
-93.237931999861871,44.98536100040991,665,02/22/2019 10:21am,"703 11th ave se,Minneapolis,MN",Snow Emergency,44.985361,-93.237932,3,University,Marcy Holmes,4,3,Yale
-93.295490000263271,44.943946999854234,666,02/22/2019 10:22am,"3223 Fremont ave s,Minneapolis,MN",Snow Emergency,44.943947,-93.29549,10,Calhoun Isle,CARAG,5,3,Yale
-93.244672000412436,44.983555999909527,667,02/22/2019 10:22am,"321 8th ave se,Minneapolis,MN",Snow Emergency,44.983556,-93.244672,3,University,Marcy Holmes,4,3,Yale
-93.290870000350196,45.016458000036721,668,02/22/2019 10:22am,"3347 Bryant Ave n,Minneapolis,MN",Snow Emergency,45.016458,-93.29087,4,Camden,McKinley,1,3,Yale
-93.240077999899711,44.986893000012003,669,02/22/2019 10:23am,"721 9th avenue SE,Minneapolis,MN",Snow Emergency,44.986893,-93.240078,3,University,Marcy Holmes,4,3,Yale
-93.291380999633418,45.001142999749675,670,02/22/2019 10:24am,"2125 Bryant ave n ,Minneapolis,MN",Snow Emergency,45.001143,-93.291381,5,Near North,Hawthorne,1,3,Yale
-93.290832000396449,45.01528800004121,671,02/22/2019 10:26am,"3309 Bryant Ave n,Minneapolis,MN",Snow Emergency,45.015288,-93.290832,4,Camden,McKinley,1,3,Yale
-93.23893900043447,44.983409000325139,672,02/22/2019 10:27am,"527 11th ave se,Minneapolis,MN",Snow Emergency,44.983409,-93.238939,3,University,Marcy Holmes,4,3,Yale
-93.275290000433131,44.964411000167559,673,02/22/2019 10:28am,"1829 Stevens Ave,Minneapolis,MN",Snow Emergency,44.964411,-93.27529,6,Central,Steven's Square - Loring Heights,3,3,Yale
-93.275026999996044,44.963392999987036,674,02/22/2019 10:29am,"1919 stevens ave s,Minneapolis,MN",Snow Emergency,44.963393,-93.275027,6,Central,Steven's Square - Loring Heights,3,3,Yale
-93.294258000106595,44.94029899979904,675,02/22/2019 10:33am,"3431 Emerson ave s,Minneapolis,MN",Snow Emergency,44.940299,-93.294258,10,Calhoun Isle,CARAG,5,3,Yale
-93.284480999798291,44.967301000340967,676,02/22/2019 10:36am,"339 oak grove,Minneapolis,MN",Snow Emergency,44.967301,-93.284481,7,Central,Loring Park,3,3,Yale
-93.299674999901299,44.992718999782085,677,02/22/2019 10:37am,"1337 Irving Ave N,Minneapolis,MN",Snow Emergency,44.992719,-93.299675,5,Near North,Near - North,1,3,Yale
-93.274905999812006,44.966083999976661,678,02/22/2019 10:38am,"131 17th st e,Minneapolis,MN",Snow Emergency,44.966084,-93.274906,6,Central,Steven's Square - Loring Heights,3,3,Yale
-93.250855999604653,44.994625999590255,679,02/22/2019 10:39am,"325 quincy st ne,Minneapolis,MN",Snow Emergency,44.994626,-93.250856,3,Northeast,St. Anthony East,2,3,Yale
-93.24960899965555,44.995463000417203,680,02/22/2019 10:42am,"611 jackson st ne,Minneapolis,MN",Snow Emergency,44.995463,-93.249609,3,Northeast,St. Anthony East,2,3,Yale
-93.241634999755377,44.987413999756313,681,02/22/2019 10:42am,"715 8th ave se,Minneapolis,MN",Snow Emergency,44.987414,-93.241635,3,University,Marcy Holmes,4,3,Yale
-93.242102999753627,44.985908999600724,682,02/22/2019 10:42am,"801 6th st se,Minneapolis,MN",Snow Emergency,44.985909,-93.242103,3,University,Marcy Holmes,4,3,Yale
-93.226965000434404,44.936440999952254,683,02/22/2019 10:43am,"3649 Snelling Avenue South,Minneapolis,MN",Snow Emergency,44.936441,-93.226965,12,Longfellow,Howe,6,3,Yale
-93.292081999584582,45.009747999970273,684,02/22/2019 10:44am,"2903 COLFAX AVE N,Minneapolis,MN",Snow Emergency,45.009748,-93.292082,5,Near North,Hawthorne,1,3,Yale
-93.299683000270193,44.992097999922805,685,02/22/2019 10:46am,"1313 irving ave n,Minneapolis,MN",Snow Emergency,44.992098,-93.299683,5,Near North,Near - North,1,3,Yale
-93.249592999817025,44.995407999679514,686,02/22/2019 10:47am,"609 jackson st ,Minneapolis,MN",Snow Emergency,44.995408,-93.249593,3,Northeast,St. Anthony East,2,3,Yale
-93.241472000332521,44.985632000316627,687,02/22/2019 10:48am,"821 6th st se,Minneapolis,MN",Snow Emergency,44.985632,-93.241472,3,University,Marcy Holmes,4,3,Yale
-93.259717999985696,44.938109000430075,688,02/22/2019 10:49am,"3543 10th av s,Minneapolis,MN",Snow Emergency,44.938109,-93.259718,9,Powderhorn,Powderhorn Park,6,3,Yale
-93.280829999604748,44.966423000321242,689,02/22/2019 10:49am,"1523 SPRUCE PL,Minneapolis,MN",Snow Emergency,44.966423,-93.28083,7,Central,Loring Park,3,3,Yale
-93.248408000029144,44.997394000432848,690,02/22/2019 10:49am,"715 van buren st ne,Minneapolis,MN",Snow Emergency,44.997394,-93.248408,3,Northeast,St. Anthony East,2,3,Yale
-93.292072000022756,45.011098000172638,691,02/22/2019 10:50am,"2955 Colfax ave n ,Minneapolis,MN",Snow Emergency,45.011098,-93.292072,5,Near North,Hawthorne,1,3,Yale
-93.253501000170957,44.945109000380114,692,02/22/2019 10:50am,"3149 15th Avenue South,Minneapolis,MN",Snow Emergency,44.945109,-93.253501,9,Powderhorn,Powderhorn Park,6,3,Yale
-93.280829999604748,44.966423000321242,693,02/22/2019 10:52am,"1525 SPRUCE PL,Minneapolis,MN",Snow Emergency,44.966423,-93.28083,7,Central,Loring Park,3,3,Yale
-93.253451999709966,44.946697999912828,694,02/22/2019 10:53am,"3057 15th Avenue South,Minneapolis,MN",Snow Emergency,44.946698,-93.253452,9,Powderhorn,Powderhorn Park,6,3,Yale
-93.292073000068854,45.009110000226372,695,02/22/2019 10:54am,"2817 Colfax ave n ,Minneapolis,MN",Snow Emergency,45.00911,-93.292073,5,Near North,Hawthorne,1,3,Yale
-93.248351000098523,44.995499000278699,696,02/22/2019 10:55am,"613 Van Buren St Ne,Minneapolis,MN",Snow Emergency,44.995499,-93.248351,3,Northeast,St. Anthony East,2,3,Yale
-93.253510999732839,44.944879999712271,697,02/22/2019 10:55am,"3159 15th av s,Minneapolis,MN",Snow Emergency,44.94488,-93.253511,9,Powderhorn,Powderhorn Park,6,3,Yale
-93.235145999987878,44.985860000038997,698,02/22/2019 10:55am,"809 12th ave se,Minneapolis,MN",Snow Emergency,44.98586,-93.235146,3,University,Marcy Holmes,4,3,Yale
-93.240077999899711,44.986893000012003,699,02/22/2019 10:58am,"721 9th avenue Southeast,Minneapolis,MN",Snow Emergency,44.986893,-93.240078,3,University,Marcy Holmes,4,3,Yale
-93.280829999604748,44.966423000321242,700,02/22/2019 10:59am,"1529 spruce Place,Minneapolis,MN",Snow Emergency,44.966423,-93.28083,7,Central,Loring Park,3,3,Yale
-93.299660000108872,44.992245000406513,701,02/22/2019 10:59am,"1321 Irving Ave N,Minneapolis,MN",Snow Emergency,44.992245,-93.29966,5,Near North,Near - North,1,3,Yale
-93.237786000323638,44.985546999994085,702,02/22/2019 11:01am,"707 11th ave se,Minneapolis,MN",Snow Emergency,44.985547,-93.237786,3,University,Marcy Holmes,4,3,Yale
-93.274934000203928,44.963814999662532,703,02/22/2019 11:01am,"1901 Stevens Ave,Minneapolis,MN",Snow Emergency,44.963815,-93.274934,6,Central,Steven's Square - Loring Heights,3,3,Yale
-93.225879999862059,44.985489000017367,704,02/22/2019 11:03am,"869 19th ave se,Minneapolis,MN",Snow Emergency,44.985489,-93.22588,2,University,Como,4,3,Yale
-93.295928999823445,44.944734000174037,705,02/22/2019 11:03am,"1311 32nd st w,Minneapolis,MN",Snow Emergency,44.944734,-93.295929,10,Calhoun Isle,CARAG,5,3,Yale
-93.249592999817025,44.995407999679514,706,02/22/2019 11:04am,"609 NE Jackson St ,Minneapolis,MN",Snow Emergency,44.995408,-93.249593,3,Northeast,St. Anthony East,2,3,Yale
-93.299261999741475,44.946360999660442,707,02/22/2019 11:04am,"3105 Holmes ave ,Minneapolis,MN",Snow Emergency,44.946361,-93.299262,10,Calhoun Isle,ECCO,5,3,Yale
-93.292203999814717,44.941312999795173,708,02/22/2019 11:06am,"1017 34th Street W.,Minneapolis,MN",Snow Emergency,44.941313,-93.292204,10,Calhoun Isle,CARAG,5,3,Yale
-93.292928999973356,44.940000000399777,709,02/22/2019 11:07am,"3441 DuPont ave s,Minneapolis,MN",Snow Emergency,44.94,-93.292929,10,Calhoun Isle,CARAG,5,3,Yale
-93.248340999637378,44.995435000025282,710,02/22/2019 11:07am,"611 Van Buren st ne,Minneapolis,MN",Snow Emergency,44.995435,-93.248341,3,Northeast,St. Anthony East,2,3,Yale
-93.220615999928441,44.984584999698029,711,02/22/2019 11:08am,"831 23rd ave se,Minneapolis,MN",Snow Emergency,44.984585,-93.220616,2,University,Como,4,3,Yale
-93.248339999591281,44.995370999771865,712,02/22/2019 11:08am,"609 Van buren st ne,Minneapolis,MN",Snow Emergency,44.995371,-93.24834,3,Northeast,St. Anthony East,2,3,Yale
-93.290833999589381,45.01013099964598,713,02/22/2019 11:10am,"2919 Bryant ave n.,Minneapolis,MN",Snow Emergency,45.010131,-93.290834,5,Near North,Hawthorne,1,3,Yale
-93.229749000216145,44.945917999915821,714,02/22/2019 11:11am,"3129 29th ave,Minneapolis,MN",Snow Emergency,44.945918,-93.229749,2,Longfellow,Longfellow,6,3,Yale
-93.279389999748673,44.968788999712615,715,02/22/2019 11:11am,"111 14th Street West,Minneapolis,MN",Snow Emergency,44.968789,-93.27939,7,Central,Loring Park,3,3,Yale
-93.293408999625569,45.006525999775135,716,02/22/2019 11:12am,"2617 dupont Ave n,Minneapolis,MN",Snow Emergency,45.006526,-93.293409,5,Near North,Hawthorne,1,3,Yale
-93.25598399956192,45.00571099996273,717,02/22/2019 11:13am,"1715 adams st ne,Minneapolis,MN",Snow Emergency,45.005711,-93.255984,1,Northeast,Logan Park,2,3,Yale
-93.229680999778282,44.94567400035487,718,02/22/2019 11:13am,"3137 29th ave,Minneapolis,MN",Snow Emergency,44.945674,-93.229681,2,Longfellow,Longfellow,6,3,Yale
-93.225368999679574,44.927318000125638,719,02/22/2019 11:13am,"4147 32nd ave so,Minneapolis,MN",Snow Emergency,44.927318,-93.225369,12,Powderhorn,Standish,6,3,Yale
-93.256003000438056,45.003450000017551,720,02/22/2019 11:14am,"1511 Adams st ne,Minneapolis,MN",Snow Emergency,45.00345,-93.256003,1,Northeast,Logan Park,2,3,Yale
-93.293408999625569,45.00643800021362,721,02/22/2019 11:15am,"2615 dupont Ave n,Minneapolis,MN",Snow Emergency,45.006438,-93.293409,5,Near North,Hawthorne,1,3,Yale
-93.300596000105259,44.93905099980384,722,02/22/2019 11:16am,"3515 Humboldt Ave S,Minneapolis,MN",Snow Emergency,44.939051,-93.300596,10,Calhoun Isle,ECCO,5,3,Yale
-93.300915999573704,44.992171999738048,723,02/22/2019 11:17am,"1317 james ave n,Minneapolis,MN",Snow Emergency,44.992172,-93.300916,5,Near North,Near - North,1,3,Yale
-93.220540000020947,44.989084000326386,724,02/22/2019 11:23am,"1037 23rd ave se,Minneapolis,MN",Snow Emergency,44.989084,-93.22054,1,University,Como,4,3,Yale
-93.292914000180929,45.003304999626096,725,02/22/2019 11:24am,"2319 DUPONT AVE N ,Minneapolis,MN",Snow Emergency,45.003305,-93.292914,5,Near North,Hawthorne,1,3,Yale
-93.267524000232413,44.998659000312671,726,02/22/2019 11:24am,"225 11th Ave ne,Minneapolis,MN",Snow Emergency,44.998659,-93.267524,3,Northeast,St. Anthony West,2,3,Yale
-93.295579999917038,44.939942999569837,727,02/22/2019 11:24am,"3443 Fremont ave s,Minneapolis,MN",Snow Emergency,44.939943,-93.29558,10,Calhoun Isle,CARAG,5,3,Yale
-93.268340000090916,44.998380000037002,728,02/22/2019 11:25am,"125 11th ave ne,Minneapolis,MN",Snow Emergency,44.99838,-93.26834,3,Northeast,St. Anthony West,2,3,Yale
-93.303471999633018,44.990877000273372,729,02/22/2019 11:26am,"1239 Logan Ave N,Minneapolis,MN",Snow Emergency,44.990877,-93.303472,5,Near North,Near - North,1,3,Yale
-93.262266999722215,45.002161999976352,730,02/22/2019 11:28am,"349 14th ave ne,Minneapolis,MN",Snow Emergency,45.002162,-93.262267,3,Northeast,Sheridan,2,3,Yale
-93.273768000392863,44.96574999986268,731,02/22/2019 11:30am,"1713 2nd ave s,Minneapolis,MN",Snow Emergency,44.96575,-93.273768,6,Central,Steven's Square - Loring Heights,3,3,Yale
-93.248339000444503,44.995307000417768,732,02/22/2019 11:30am,"607 van buren st ne,Minneapolis,MN",Snow Emergency,44.995307,-93.248339,3,Northeast,St. Anthony East,2,3,Yale
-93.291671000416272,44.947214000325914,733,02/22/2019 11:31am,"3033 colfax ave s,Minneapolis,MN",Snow Emergency,44.947214,-93.291671,10,Calhoun Isle,CARAG,5,3,Yale
-93.234950999988598,44.98434300022933,734,02/22/2019 11:31am,"707 13th ave se,Minneapolis,MN",Snow Emergency,44.984343,-93.234951,3,University,Marcy Holmes,4,3,Yale
-93.283469999940507,44.963513000124919,735,02/22/2019 11:32am,"329 Ridgewood Ave South,Minneapolis,MN",Snow Emergency,44.963513,-93.28347,7,Central,Steven's Square - Loring Heights,3,3,Yale
-93.284061000214933,44.966973999650406,736,02/22/2019 11:33am,"333 oak grove,Minneapolis,MN",Snow Emergency,44.966974,-93.284061,7,Central,Loring Park,3,3,Yale
-93.274940999627404,44.966029000138292,737,02/22/2019 11:36am,"1707 stevens ave s,Minneapolis,MN",Snow Emergency,44.966029,-93.274941,6,Central,Steven's Square - Loring Heights,3,3,Yale
-93.235066999942035,44.984191000414398,738,02/22/2019 11:36am,"703 13th ave se,Minneapolis,MN",Snow Emergency,44.984191,-93.235067,3,University,Marcy Holmes,4,3,Yale
-93.239685999809012,44.98285600000446,739,02/22/2019 11:37am,"419 11th ave se,Minneapolis,MN",Snow Emergency,44.982856,-93.239686,3,University,Marcy Holmes,4,3,Yale
-93.232374999906312,44.991169000249215,740,02/22/2019 11:37am,"1111 14th avenue Southeast,Minneapolis,MN",Snow Emergency,44.991169,-93.232375,2,University,Como,4,3,Yale
-93.276437000267322,44.963954999823443,741,02/22/2019 11:39am,"103 19TH ST E,Minneapolis,MN",Snow Emergency,44.963955,-93.276437,6,Central,Steven's Square - Loring Heights,3,3,Yale
-93.291710000416174,44.93810400019953,742,02/22/2019 11:40am,"3545 colfax ave s,Minneapolis,MN",Snow Emergency,44.938104,-93.29171,10,Calhoun Isle,CARAG,5,3,Yale
-93.284545000051651,44.967073999765319,743,02/22/2019 11:43am,"337 OAK GROVE ST,Minneapolis,MN",Snow Emergency,44.967074,-93.284545,7,Central,Loring Park,3,3,Yale
-93.233951999784949,44.985377000248434,744,02/22/2019 11:46am,"813 13th ave se,Minneapolis,MN",Snow Emergency,44.985377,-93.233952,3,University,Marcy Holmes,4,3,Yale
-93.229712000308552,44.986863000427206,745,02/22/2019 11:47am,"1513 brook ave se,Minneapolis,MN",Snow Emergency,44.986863,-93.229712,2,University,Como,4,3,Yale
-93.233409999971457,44.982394000282966,746,02/22/2019 11:49am,"1407 6th st se,Minneapolis,MN",Snow Emergency,44.982394,-93.23341,3,University,Marcy Holmes,4,3,Yale
-93.297346000417576,45.033569000409102,747,02/22/2019 11:50am,"4305 Girard ave n ,Minneapolis,MN",Snow Emergency,45.033569,-93.297346,4,Camden,Webber - Camden,1,3,Yale
-93.303201999772455,44.991978999831019,748,02/22/2019 11:50am,"1311 Logan Ave N,Minneapolis,MN",Snow Emergency,44.991979,-93.303202,5,Near North,Willard - Hay,1,3,Yale
-93.293376999948578,45.012483000190343,749,02/22/2019 11:51am,"3107 dupont Ave n ,Minneapolis,MN",Snow Emergency,45.012483,-93.293377,5,Near North,Hawthorne,1,3,Yale
-93.298636999697749,45.034805999897003,750,02/22/2019 11:54am,"4351 Humboldt ave n ,Minneapolis,MN",Snow Emergency,45.034806,-93.298637,4,Camden,Webber - Camden,1,3,Yale
-93.293410999717821,45.006899999935115,751,02/22/2019 11:54am,"2629 dupont Ave n,Minneapolis,MN",Snow Emergency,45.0069,-93.293411,5,Near North,Hawthorne,1,3,Yale
-93.275256999810665,44.965214000325886,752,02/22/2019 11:54am,"127 18th st E,Minneapolis,MN",Snow Emergency,44.965214,-93.275257,6,Central,Steven's Square - Loring Heights,3,3,Yale
-93.237604000024533,44.985776999808763,753,02/22/2019 11:56am,"719 11th ave se,Minneapolis,MN",Snow Emergency,44.985777,-93.237604,3,University,Marcy Holmes,4,3,Yale
-93.256501000021103,45.005640000285837,754,02/22/2019 11:57am,"635 17th ave ne,Minneapolis,MN",Snow Emergency,45.00564,-93.256501,1,Northeast,Logan Park,2,3,Yale
-93.27373099958595,44.955036999557933,755,02/22/2019 11:58am,"2609 2nd Ave South,Minneapolis,MN",Snow Emergency,44.955037,-93.273731,10,Powderhorn,Whittier,3,3,Yale
-93.309807000392709,45.012008999915452,756,02/22/2019 12:00pm,"3019 queen ave n ,Minneapolis,MN",Snow Emergency,45.012009,-93.309807,4,Near North,Jordan,1,3,Yale
-93.256782000388966,45.005639000239739,757,02/22/2019 12:00pm,"631 17th ave ne,Minneapolis,MN",Snow Emergency,45.005639,-93.256782,1,Northeast,Logan Park,2,3,Yale
-93.312368999829459,44.991275999787604,758,02/22/2019 12:01pm,"1239 sheridan ave n,Minneapolis,MN",Snow Emergency,44.991276,-93.312369,5,Near North,Willard - Hay,1,3,Yale
-93.264386000313607,45.005562000286147,759,02/22/2019 12:02pm,"1725 3rd st ne,Minneapolis,MN",Snow Emergency,45.005562,-93.264386,3,Northeast,Bottineau,2,3,Yale
-93.276786000173729,44.968915000127197,760,02/22/2019 12:02pm,"105 14TH ST W,Minneapolis,MN",Snow Emergency,44.968915,-93.276786,7,Central,Loring Park,3,3,Yale
-93.293426999556345,45.026843999650907,761,02/22/2019 12:03pm,"3937 DUPONT AVE N ,Minneapolis,MN",Snow Emergency,45.026844,-93.293427,4,Camden,Webber - Camden,1,3,Yale
-93.264319999967995,45.004626000289761,762,02/22/2019 12:03pm,"1609 3rd st ne,Minneapolis,MN",Snow Emergency,45.004626,-93.26432,3,Northeast,Sheridan,2,3,Yale
-93.28297499959649,44.96685799969697,763,02/22/2019 12:05pm,"305 OAK GROVE ST,Minneapolis,MN",Snow Emergency,44.966858,-93.282975,7,Central,Loring Park,3,3,Yale
-93.225394999979244,44.927221000149075,764,02/22/2019 12:07pm,"4151 32nd ave so,Minneapolis,MN",Snow Emergency,44.927221,-93.225395,12,Powderhorn,Standish,6,3,Yale
-93.273774999816339,44.963683999916725,765,02/22/2019 12:08pm,"203 19th st,Minneapolis,MN",Snow Emergency,44.963684,-93.273775,6,Central,Steven's Square - Loring Heights,3,3,Yale
-93.291738999954873,44.93746000017893,766,02/22/2019 12:08pm,"3605 colfax ave s,Minneapolis,MN",Snow Emergency,44.93746,-93.291739,10,Southwest,East Harriet,5,3,Yale
-93.22897100031139,44.986375000405985,767,02/22/2019 12:10pm,"955 17th ave se,Minneapolis,MN",Snow Emergency,44.986375,-93.228971,2,University,Como,4,3,Yale
-93.259727000400687,45.008724000412315,768,02/22/2019 12:12pm,"517 20th ave ne,Minneapolis,MN",Snow Emergency,45.008724,-93.259727,1,Northeast,Holland,2,3,Yale
-93.302169999845603,44.993366999987131,769,02/22/2019 12:13pm,"1407 Knox Ave N,Minneapolis,MN",Snow Emergency,44.993367,-93.30217,5,Near North,Willard - Hay,1,3,Yale
-93.227417999740851,44.985226999626377,770,02/22/2019 12:14pm,"853 18 ave se,Minneapolis,MN",Snow Emergency,44.985227,-93.227418,2,University,Como,4,3,Yale
-93.229712000308552,44.986863000427206,771,02/22/2019 12:17pm,"1513 brook Avenue se,Minneapolis,MN",Snow Emergency,44.986863,-93.229712,2,University,Como,4,3,Yale
-93.273499999725175,44.963683999916725,772,02/22/2019 12:17pm,"221 19TH ST E,Minneapolis,MN",Snow Emergency,44.963684,-93.2735,6,Central,Steven's Square - Loring Heights,3,3,Yale
-93.28525200027957,44.956270999806861,773,02/22/2019 12:21pm,"2527 Harriet Ave South,Minneapolis,MN",Snow Emergency,44.956271,-93.285252,10,Powderhorn,Whittier,3,3,Yale
-93.254709000120215,44.946140000260868,774,02/22/2019 12:24pm,"3113 14th ave,Minneapolis,MN",Snow Emergency,44.94614,-93.254709,9,Powderhorn,Powderhorn Park,6,3,Yale
-93.260045999822978,45.012598000097682,775,02/22/2019 12:24pm,"2407 5th st ne,Minneapolis,MN",Snow Emergency,45.012598,-93.260046,1,Northeast,Holland,2,3,Yale
-93.302172999983952,44.981172999734213,776,02/22/2019 12:24pm,"307 Knox av n,Minneapolis,MN",Snow Emergency,44.981173,-93.302173,5,Near North,Harrison,3,3,Yale
-93.226263999583864,44.935710000416236,777,02/22/2019 12:25pm,"3221 37th st e,Minneapolis,MN",Snow Emergency,44.93571,-93.226264,12,Longfellow,Howe,6,3,Yale
-93.233466999902078,44.895873999785294,778,02/22/2019 12:25pm,"2717 East 59th Street,Minneapolis,MN",Snow Emergency,44.895874,-93.233467,11,Nokomis,Wenonah,6,3,Yale
-93.227117000249336,44.972842999604779,779,02/22/2019 12:25pm,"335 oak st,Minneapolis,MN",Snow Emergency,44.972843,-93.227117,2,University,University of Minnesota,4,3,Yale
-93.224103999799695,44.900452999606273,780,02/22/2019 12:26pm,"5625 BoSSen terr,Minneapolis,MN",Snow Emergency,44.900453,-93.224104,11,Nokomis,Wenonah,6,3,Yale
-93.245826999716201,44.945827000215957,781,02/22/2019 12:26pm,"3119 longfellow,Minneapolis,MN",Snow Emergency,44.945827,-93.245827,9,Powderhorn,Corcoran,6,3,Yale
-93.23349200015565,44.895872999739197,782,02/22/2019 12:28pm,"2715 E 59th St,Minneapolis,MN",Snow Emergency,44.895873,-93.233492,11,Nokomis,Wenonah,6,3,Yale
-93.275979999877052,44.965088999957459,783,02/22/2019 12:29pm,"109 18th st e,Minneapolis,MN",Snow Emergency,44.965089,-93.27598,6,Central,Steven's Square - Loring Heights,3,3,Yale
-93.301809000285118,44.941138999865018,784,02/22/2019 12:29pm,"1525 34th st e,Minneapolis,MN",Snow Emergency,44.941139,-93.301809,10,Calhoun Isle,ECCO,5,3,Yale
-93.278834000188908,44.966373999860252,785,02/22/2019 12:30pm,"27 oak grove st,Minneapolis,MN",Snow Emergency,44.966374,-93.278834,7,Central,Loring Park,3,3,Yale
-93.313594999709437,44.997603000178344,786,02/22/2019 12:32pm,"1717 thomas ave n,Minneapolis,MN",Snow Emergency,44.997603,-93.313595,5,Near North,Willard - Hay,1,3,Yale
-93.250819999743157,45.010870999596989,787,02/22/2019 12:34pm,"805 23rd ave ne,Minneapolis,MN",Snow Emergency,45.010871,-93.25082,1,Northeast,Holland,2,3,Yale
-93.309935000000223,44.98501299965028,788,02/22/2019 12:35pm,"621 Queen St n,Minneapolis,MN",Snow Emergency,44.985013,-93.309935,5,Near North,Willard - Hay,1,3,Yale
-93.221819999693196,44.990775000066265,789,02/22/2019 12:38pm,"1093 22nd ave se,Minneapolis,MN",Snow Emergency,44.990775,-93.22182,1,University,Como,4,3,Yale
-93.300612999989937,45.004174000130035,790,02/22/2019 12:39pm,"2429 illion Ave n,Minneapolis,MN",Snow Emergency,45.004174,-93.300613,5,Near North,Jordan,1,3,Yale
-93.286600000389683,44.94794299976968,791,02/22/2019 12:44pm,"3009 Garfield Ave S,Minneapolis,MN",Snow Emergency,44.947943,-93.2866,8,Powderhorn,Lyndale,5,3,Yale
-93.300565999621142,45.004216000268229,792,02/22/2019 12:45pm,"2431 illon Ave n,Minneapolis,MN",Snow Emergency,45.004216,-93.300566,5,Near North,Jordan,1,3,Yale
-93.26007100007655,45.012816000258283,793,02/22/2019 12:45pm,"2419 5th st ne,Minneapolis,MN",Snow Emergency,45.012816,-93.260071,1,Northeast,Holland,2,3,Yale
-93.3021709998917,44.980970000265359,794,02/22/2019 12:46pm,"303 Knox ave n,Minneapolis,MN",Snow Emergency,44.98097,-93.302171,5,Near North,Harrison,3,3,Yale
-93.289233000402589,44.934603999774822,795,02/22/2019 12:46pm,"3741 Aldrich ave s ,Minneapolis,MN",Snow Emergency,44.934604,-93.289233,10,Southwest,East Harriet,5,3,Yale
-93.268659000412526,45.01366599988603,796,02/22/2019 12:47pm,"2515 california st ne,Minneapolis,MN",Snow Emergency,45.013666,-93.268659,1,Northeast,Marshall Terrace,2,3,Yale
-93.305986999600293,44.993667000331868,797,02/22/2019 12:48pm,"1419 Newton Ave N,Minneapolis,MN",Snow Emergency,44.993667,-93.305987,5,Near North,Willard - Hay,1,3,Yale
-93.219234000049028,44.990197000391333,798,02/22/2019 12:51pm,"1069 24th ave se,Minneapolis,MN",Snow Emergency,44.990197,-93.219234,1,University,Como,4,3,Yale
-93.25078499992776,45.010870999596989,799,02/22/2019 12:52pm,"807 23rd ave ne,Minneapolis,MN",Snow Emergency,45.010871,-93.250785,1,Northeast,Holland,2,3,Yale
-93.22452200019012,44.986584000151538,800,02/22/2019 12:53pm,"897 20th ave se,Minneapolis,MN",Snow Emergency,44.986584,-93.224522,2,University,Como,4,3,Yale
-93.253953000330682,45.011515999663686,801,02/22/2019 12:53pm,"2311 madison st ne,Minneapolis,MN",Snow Emergency,45.011516,-93.253953,1,Northeast,Holland,2,3,Yale
-93.286484999583024,44.956653000335734,802,02/22/2019 12:54pm,"2517 Garfield Avenue South,Minneapolis,MN",Snow Emergency,44.956653,-93.286485,10,Powderhorn,Whittier,3,3,Yale
-93.23489300001188,44.984419000136825,803,02/22/2019 12:54pm,"709 13thave se,Minneapolis,MN",Snow Emergency,44.984419,-93.234893,3,University,Marcy Holmes,4,3,Yale
-93.31485700035023,45.000994000073092,804,02/22/2019 12:54pm,"2111 Upton ave n ,Minneapolis,MN",Snow Emergency,45.000994,-93.314857,5,Near North,Willard - Hay,1,3,Yale
-93.250327000390712,45.011065000449491,805,02/22/2019 12:55pm,"811 23rd ave ne,Minneapolis,MN",Snow Emergency,45.011065,-93.250327,1,Northeast,Holland,2,3,Yale
-93.248793999843201,44.990003000438151,806,02/22/2019 12:59pm,"327 7th st se,Minneapolis,MN",Snow Emergency,44.990003,-93.248794,3,University,Marcy Holmes,4,3,Yale
-93.282564000428238,44.960299000298676,807,02/22/2019 01:02pm,"2219 pleasant ,Minneapolis,MN",Snow Emergency,44.960299,-93.282564,10,Powderhorn,Whittier,3,3,Yale
-93.23103900034954,44.989281000417861,808,02/22/2019 01:09pm,"1051 15th avenue Southeast,Minneapolis,MN",Snow Emergency,44.989281,-93.231039,1,University,Como,4,3,Yale
-93.284748999566659,44.96335199989494,809,02/22/2019 01:09pm,"415 RIDGEWOOD AVE S,Minneapolis,MN",Snow Emergency,44.963352,-93.284749,7,Central,Steven's Square - Loring Heights,3,3,Yale
-93.307097000426211,44.992449999967562,810,02/22/2019 01:10pm,"1327 Oliver Ave N,Minneapolis,MN",Snow Emergency,44.99245,-93.307097,5,Near North,Willard - Hay,1,3,Yale
-93.280822000135174,44.96057699962887,811,02/22/2019 01:12pm,"2207 PILLSBURY AVE S,Minneapolis,MN",Snow Emergency,44.960577,-93.280822,10,Powderhorn,Whittier,3,3,Yale
-93.221874000384787,44.985273999995172,812,02/22/2019 01:12pm,"855 22nd ave se,Minneapolis,MN",Snow Emergency,44.985274,-93.221874,2,University,Como,4,3,Yale
-93.28251399992115,44.958314999637594,813,02/22/2019 01:14pm,"2417 pleasant ave ,Minneapolis,MN",Snow Emergency,44.958315,-93.282514,10,Powderhorn,Whittier,3,3,Yale
-93.294694000427739,45.02608999995357,814,02/22/2019 01:16pm,"3907 EMERSON AVE N,Minneapolis,MN",Snow Emergency,45.02609,-93.294694,4,Camden,Webber - Camden,1,3,Yale
-93.28644300034415,44.96012799960755,815,02/22/2019 01:16pm,"2221 Garfield Avenue South,Minneapolis,MN",Snow Emergency,44.960128,-93.286443,10,Powderhorn,Whittier,3,3,Yale
-93.289150000172356,44.947279999772206,816,02/22/2019 01:19pm,"3031 Aldrich ave s,Minneapolis,MN",Snow Emergency,44.94728,-93.28915,10,Calhoun Isle,CARAG,5,3,Yale
-93.309881000207952,44.980888000081166,817,02/22/2019 01:19pm,"321 queen av n,Minneapolis,MN",Snow Emergency,44.980888,-93.309881,5,Near North,Harrison,3,3,Yale
-93.299690999739823,44.998583000405176,818,02/22/2019 01:22pm,"1841 Irving Ave n,Minneapolis,MN",Snow Emergency,44.998583,-93.299691,5,Near North,Willard - Hay,1,3,Yale
-93.292045999723086,44.937684999763007,819,02/22/2019 01:23pm,"Colfax Ave S & W 36th St.,Minneapolis,MN",Snow Emergency,44.937685,-93.292046,10,Southwest,East Harriet,5,3,Yale
-93.297208000348917,45.024246000352662,820,02/22/2019 01:26pm,"3805 girard av n ,Minneapolis,MN",Snow Emergency,45.024246,-93.297208,4,Camden,Webber - Camden,1,3,Yale
-93.292096000230174,45.020581000412903,821,02/22/2019 01:28pm,"3607 Colfax Ave,Minneapolis,MN",Snow Emergency,45.020581,-93.292096,4,Camden,McKinley,1,3,Yale
-93.299037000157398,44.984939999881135,822,02/22/2019 01:31pm,"615 Elwood ave n ,Minneapolis,MN",Snow Emergency,44.98494,-93.299037,5,Near North,Near - North,1,3,Yale
-93.238082999630706,45.00634400037535,823,02/22/2019 01:31pm,"1809 Lincoln st ne,Minneapolis,MN",Snow Emergency,45.006344,-93.238083,1,Northeast,Windom Park,2,3,Yale
-93.223840000215773,44.898969000419072,824,02/22/2019 01:32pm,"5741 33rd Ave so,Minneapolis,MN",Snow Emergency,44.898969,-93.22384,11,Nokomis,Wenonah,6,3,Yale
-93.28639099974481,44.960661999951412,825,02/22/2019 01:32pm,"515 22nd st w,Minneapolis,MN",Snow Emergency,44.960662,-93.286391,10,Powderhorn,Whittier,3,3,Yale
-93.234187999876269,44.985773999670414,826,02/22/2019 01:33pm,"815 13 Avenue se,Minneapolis,MN",Snow Emergency,44.985774,-93.234188,3,University,Marcy Holmes,4,3,Yale
-93.246918999712022,45.006931999612164,827,02/22/2019 01:33pm,"935 18 1/2 ave ne,Minneapolis,MN",Snow Emergency,45.006932,-93.246919,1,Northeast,Windom Park,2,3,Yale
-93.286567999813315,44.960675999697685,828,02/22/2019 01:36pm,"527 22nd st w,Minneapolis,MN",Snow Emergency,44.960676,-93.286568,10,Powderhorn,Whittier,3,3,Yale
-93.314939999681201,45.018261999591687,829,02/22/2019 01:36pm,"3447 Upton ave n ,Minneapolis,MN",Snow Emergency,45.018262,-93.31494,4,Camden,Cleveland,1,3,Yale
-93.312748000219983,45.016856000404175,830,02/22/2019 01:39pm,"2505 34th ave n ,Minneapolis,MN",Snow Emergency,45.016856,-93.312748,4,Camden,Cleveland,1,3,Yale
-93.221316999879605,44.972490000413245,831,02/22/2019 01:41pm,"2521 Delaware street se,Minneapolis,MN",Snow Emergency,44.97249,-93.221317,2,University,Prospect Park - East River Road,4,3,Yale
-93.246789000012313,45.006931999612164,832,02/22/2019 01:44pm,"939 18 1/2 ave ne,Minneapolis,MN",Snow Emergency,45.006932,-93.246789,1,Northeast,Windom Park,2,3,Yale
-93.215425999810009,44.990339999791217,833,02/22/2019 01:46pm,"1073 27th ave ,Minneapolis,MN",Snow Emergency,44.99034,-93.215426,1,University,Como,4,3,Yale
-93.285152000164658,44.960074999861433,834,02/22/2019 01:46pm,"2223 Harriet ave s,Minneapolis,MN",Snow Emergency,44.960075,-93.285152,10,Powderhorn,Whittier,3,3,Yale
-93.238151000068569,45.008222999791656,835,02/22/2019 01:47pm,"1911 Lincoln st ne,Minneapolis,MN",Snow Emergency,45.008223,-93.238151,1,Northeast,Windom Park,2,3,Yale
-93.297706999978004,44.990288000091198,836,02/22/2019 01:47pm,"1319 12th Ave N,Minneapolis,MN",Snow Emergency,44.990288,-93.297707,5,Near North,Near - North,1,3,Yale
-93.316221000298867,45.000480999798356,837,02/22/2019 01:50pm,"2023 vincent ave n,Minneapolis,MN",Snow Emergency,45.000481,-93.316221,5,Near North,Willard - Hay,1,3,Yale
-93.245210000041425,45.015640000085966,838,02/22/2019 01:50pm,"2621 polk st ne,Minneapolis,MN",Snow Emergency,45.01564,-93.24521,1,Northeast,Audubon Park,2,3,Yale
-93.227101000410812,44.900585000297554,839,02/22/2019 01:54pm,"3111 57th st e,Minneapolis,MN",Snow Emergency,44.900585,-93.227101,11,Nokomis,Wenonah,6,3,Yale
-93.224061999661501,44.901070000180425,840,02/22/2019 01:58pm,"5621 33rd av s,Minneapolis,MN",Snow Emergency,44.90107,-93.224062,11,Nokomis,Wenonah,6,3,Yale
-93.24795799996167,45.009075999557808,841,02/22/2019 01:58pm,"921 20th ave ne,Minneapolis,MN",Snow Emergency,45.009076,-93.247958,1,Northeast,Holland,2,3,Yale
-93.298835999881476,44.995039999796234,842,02/22/2019 01:59pm,"1415 16th Ave n ,Minneapolis,MN",Snow Emergency,44.99504,-93.298836,5,Near North,Near - North,1,3,Yale
-93.248891999865862,45.014471000136609,843,02/22/2019 02:00pm,"2539 Jackson st NE,Minneapolis,MN",Snow Emergency,45.014471,-93.248892,1,Northeast,Holland,2,3,Yale
-93.227746999624287,44.986575999782644,844,02/22/2019 02:00pm,"1705 brook Ave se,Minneapolis,MN",Snow Emergency,44.986576,-93.227747,2,University,Como,4,3,Yale
-93.240668000128039,45.013767000047039,845,02/22/2019 02:01pm,"2517 pierce st ne,Minneapolis,MN",Snow Emergency,45.013767,-93.240668,1,Northeast,Audubon Park,2,3,Yale
-93.298678999835943,44.99504399998068,846,02/22/2019 02:02pm,"1411 16th ave n,Minneapolis,MN",Snow Emergency,44.995044,-93.298679,5,Near North,Near - North,1,3,Yale
-93.290351999844859,44.985255000018299,847,02/22/2019 02:03pm,"831 Gertrude Brown Pl,Minneapolis,MN",Snow Emergency,44.985255,-93.290352,5,Near North,Sumner - Glenwood,1,3,Yale
-93.226940000180832,44.900585000297554,848,02/22/2019 02:03pm,"3121 57th st,Minneapolis,MN",Snow Emergency,44.900585,-93.22694,11,Nokomis,Wenonah,6,3,Yale
-93.237458999633077,44.962020999669448,849,02/22/2019 02:04pm,"2021 24th ave s,Minneapolis,MN",Snow Emergency,44.962021,-93.237459,6,Longfellow,Seward,4,3,Yale
-93.226148999676582,44.899364999794955,850,02/22/2019 02:05pm,"5727 bossen terr,Minneapolis,MN",Snow Emergency,44.899365,-93.226149,11,Nokomis,Wenonah,6,3,Yale
-93.282525999575171,44.954370000275333,851,02/22/2019 02:08pm,"2633 PLEASANT AVE S,Minneapolis,MN",Snow Emergency,44.95437,-93.282526,10,Powderhorn,Whittier,3,3,Yale
-93.224380999983111,44.900654999928349,852,02/22/2019 02:10pm,"5603 Bossen Terrace,Minneapolis,MN",Snow Emergency,44.900655,-93.224381,11,Nokomis,Wenonah,6,3,Yale
-93.282662999597733,44.954020000322828,853,02/22/2019 02:12pm,"2645 PLEASANT AVE S,Minneapolis,MN",Snow Emergency,44.95402,-93.282663,10,Powderhorn,Whittier,3,3,Yale
-93.223919000261617,44.899258000256566,854,02/22/2019 02:16pm,"5731 33rd Avenue South,Minneapolis,MN",Snow Emergency,44.899258,-93.223919,11,Nokomis,Wenonah,6,3,Yale
-93.298151999814877,45.000266999822259,855,02/22/2019 02:18pm,"2428 21st ave n ,Minneapolis,MN",Snow Emergency,45.000267,-93.298152,5,Near North,Jordan,1,3,Yale
-93.232044999976722,44.993260000448743,856,02/22/2019 02:26pm,"1425 14th ave se,Minneapolis,MN",Snow Emergency,44.99326,-93.232045,1,University,Como,2,3,Yale
-93.220579000020791,44.972185999884061,857,02/22/2019 02:29pm,"229 26th ave se,Minneapolis,MN",Snow Emergency,44.972186,-93.220579,2,University,Prospect Park - East River Road,4,3,Yale
-93.292897000296307,44.996633000412714,858,02/22/2019 02:30pm,"1709 dupont Ave n ,Minneapolis,MN",Snow Emergency,44.996633,-93.292897,5,Near North,Near - North,1,3,Yale
-93.223962999592743,44.968650999643955,859,02/22/2019 02:30pm,"643 Erie Street Southeast,Minneapolis,MN",Snow Emergency,44.968651,-93.223963,2,University,Prospect Park - East River Road,4,3,Yale
-93.282530999805772,44.951539000124797,860,02/22/2019 02:30pm,"2809 pleasant ave ,Minneapolis,MN",Snow Emergency,44.951539,-93.282531,10,Powderhorn,Whittier,3,3,Yale
-93.294100000014964,44.956465999806085,861,02/22/2019 02:42pm,"2527EMERSON AVE S,Minneapolis,MN",Snow Emergency,44.956466,-93.2941,10,Calhoun Isle,Lowry Hill East,3,3,Yale
-93.238880999558432,44.961787999716478,862,02/22/2019 02:43pm,"2103 23rd ave s,Minneapolis,MN",Snow Emergency,44.961788,-93.238881,6,Longfellow,Seward,4,3,Yale
-93.302156000099274,45.00208500002276,863,02/22/2019 02:44pm,"1635 hillside Ave n,Minneapolis,MN",Snow Emergency,45.002085,-93.302156,5,Near North,Jordan,1,3,Yale
-93.264872000242576,45.0149739999502,864,02/22/2019 02:45pm,"211 26th ave ne,Minneapolis,MN",Snow Emergency,45.014974,-93.264872,1,Northeast,Marshall Terrace,2,3,Yale
-93.240688000151067,45.013683999816806,865,02/22/2019 02:47pm,"2515 pierce st ne,Minneapolis,MN",Snow Emergency,45.013684,-93.240688,1,Northeast,Audubon Park,2,3,Yale
-93.240736999712738,44.998995999665681,866,02/22/2019 02:49pm,"1105 pierce st ne,Minneapolis,MN",Snow Emergency,44.998996,-93.240737,1,Northeast,Northeast Park,2,3,Yale
-93.315121999980306,45.001180999703422,867,02/22/2019 02:49pm,"2719 MCNAIR AVE N,Minneapolis,MN",Snow Emergency,45.001181,-93.315122,5,Near North,Willard - Hay,1,3,Yale
-93.237274000094999,44.963422999571833,868,02/22/2019 02:49pm,"915 24th ave s,Minneapolis,MN",Snow Emergency,44.963423,-93.237274,6,Longfellow,Seward,4,3,Yale
-93.317243999810728,45.049926000184826,869,02/22/2019 02:50pm,"5215 Vincent av no,Minneapolis,MN",Snow Emergency,45.049926,-93.317244,4,Camden,Shingle Creek,1,3,Yale
-93.222156999945582,44.972451999560178,870,02/22/2019 02:51pm,"2501 Delaware street se ,Minneapolis,MN",Snow Emergency,44.972452,-93.222157,2,University,Prospect Park - East River Road,4,3,Yale
-93.226844000250367,44.900585000297554,871,02/22/2019 02:54pm,"3127 57th st e,Minneapolis,MN",Snow Emergency,44.900585,-93.226844,11,Nokomis,Wenonah,6,3,Yale
-93.220562000136169,44.97186200023117,872,02/22/2019 02:56pm,"2607 Delaware street se ,Minneapolis,MN",Snow Emergency,44.971862,-93.220562,2,University,Prospect Park - East River Road,4,3,Yale
-93.28082100008902,44.960616999674869,873,02/22/2019 02:57pm,"2205 pillsbury ,Minneapolis,MN",Snow Emergency,44.960617,-93.280821,10,Powderhorn,Whittier,3,3,Yale
-93.297183000095345,45.01582000029282,874,02/22/2019 02:58pm,"3325 Girard ave n ,Minneapolis,MN",Snow Emergency,45.01582,-93.297183,4,Camden,Folwell,1,3,Yale
-93.22567200016266,44.96925899980306,875,02/22/2019 03:05pm,"628 Ontario Street Southeast,Minneapolis,MN",Snow Emergency,44.969259,-93.225672,2,University,Prospect Park - East River Road,4,3,Yale
-93.243175999772518,44.995792000300639,876,02/22/2019 03:05pm,"623 taylor st ne,Minneapolis,MN",Snow Emergency,44.995792,-93.243176,3,Northeast,Beltrami,2,3,Yale
-93.325278999825969,44.945028000242075,877,02/22/2019 03:07pm,"3621 32nD st W,Minneapolis,MN",Snow Emergency,44.945028,-93.325279,13,Calhoun Isle,West Calhoun,3,3,Yale
-93.240635000404893,45.032959000157803,878,02/22/2019 03:07pm,"3559 Pierce st ne,Minneapolis,MN",Snow Emergency,45.032959,-93.240635,1,Northeast,Waite Park,2,3,Yale
-93.289608999755501,44.986305999922024,879,02/22/2019 03:15pm,"749 Lyndale pl ,Minneapolis,MN",Snow Emergency,44.986306,-93.289609,5,Near North,Sumner - Glenwood,1,3,Yale
-93.281931000015618,44.960898000042732,880,02/22/2019 03:23pm,"209 22nd,Minneapolis,MN",Snow Emergency,44.960898,-93.281931,10,Powderhorn,Whittier,3,3,Yale
-93.32545699994057,44.945029000288173,881,02/22/2019 03:24pm,"3721 32nd st w,Minneapolis,MN",Snow Emergency,44.945029,-93.325457,13,Calhoun Isle,West Calhoun,3,3,Yale
-93.208590000228298,44.904703999589969,882,02/22/2019 03:28pm,"5421 45th ave,Minneapolis,MN",Snow Emergency,44.904704,-93.20859,12,Nokomis,Morris Park,6,3,Yale
-93.295361999756437,44.950645000266604,883,02/22/2019 03:30pm,"2841 Fremont ave s ,Minneapolis,MN",Snow Emergency,44.950645,-93.295362,10,Calhoun Isle,Lowry Hill East,3,3,Yale
-93.208599999790124,44.904839999566377,884,02/22/2019 03:31pm,"5417 45th ave,Minneapolis,MN",Snow Emergency,44.90484,-93.2086,12,Nokomis,Morris Park,6,3,Yale
-93.30600999976167,44.995856999700834,885,02/22/2019 03:40pm,"1619 newton Ave n,Minneapolis,MN",Snow Emergency,44.995857,-93.30601,5,Near North,Willard - Hay,1,3,Yale
-93.225276999933556,44.968989999988537,886,02/22/2019 03:42pm,"633 Ontario Street Southeast,Minneapolis,MN",Snow Emergency,44.96899,-93.225277,2,University,Prospect Park - East River Road,4,3,Yale
-93.218599000443476,44.924948999696653,887,02/22/2019 03:46pm,"3715 43rd St E,Minneapolis,MN",Snow Emergency,44.924949,-93.218599,12,Longfellow,Hiawatha,6,3,Yale
-93.208551000228454,44.905033000372725,888,02/22/2019 03:49pm,"5409 45th av s,Minneapolis,MN",Snow Emergency,44.905033,-93.208551,12,Nokomis,Morris Park,6,3,Yale
-93.30440300029818,44.94471900038161,889,02/22/2019 03:49pm,"3521 32nd st w,Minneapolis,MN",Snow Emergency,44.944719,-93.304403,10,Calhoun Isle,ECCO,5,3,Yale
-93.222881000058067,44.930769000089356,890,02/22/2019 03:50pm,"3961 Snelling Avenue South,Minneapolis,MN",Snow Emergency,44.930769,-93.222881,12,Longfellow,Howe,6,3,Yale
-93.307865999915919,45.004505000105723,891,02/22/2019 03:54pm,"2115 willow ave n,Minneapolis,MN",Snow Emergency,45.004505,-93.307866,5,Near North,Jordan,1,3,Yale
-93.202271000206451,44.906302999583829,892,02/22/2019 04:06pm,"5339 Hiawatha ln,Minneapolis,MN",Snow Emergency,44.906303,-93.202271,12,Nokomis,Minnehaha,6,3,Yale
-93.287047000318751,45.003474000224969,893,02/22/2019 04:55pm,"611 24 TH AVE N,Minneapolis,MN",Snow Emergency,45.003474,-93.287047,5,Near North,Hawthorne,1,3,Yale
-93.284078000099612,45.00239199979103,894,02/22/2019 05:01pm,"315 23RD AVE N,Minneapolis,MN",Snow Emergency,45.002392,-93.284078,5,Near North,Hawthorne,1,3,Yale
